{"type":"FeatureCollection","metadata":{"provinceCode":"12","source":"CityMETER native source fine polygons","retrievedAt":"2026-10-04T05:47:42.149774+00:00","total":45,"retrieved":45,"displaySimplificationToleranceDegrees":0.00015,"legalBoundaryIndependentlyVerified":false},"features":[{"type":"Feature","id":"019b8582-61c2-4964-8f64-d62b60fa3595","properties":{"id":"019b8582-61c2-4964-8f64-d62b60fa3595","code":"03120102","provinceCode":"12","nameTh":"เทศบาลนคร นนทบุรี","nameEn":null,"geometryType":"MUNICIPALITY","sourceUrl":"https://landometer.com/api/v2/citymeter-v3/grocery/info/geom/019b8582-61c2-4964-8f64-d62b60fa3595/MUNICIPALITY","sourceSha256":"0e6be289961d7982294ced0abffbd30798a32da488b8b3d1d95b61c3a6838731","retrievedAt":"2026-10-04T05:42:25.364162+00:00","boundaryVintage":null,"geometryStatus":"native_source_polygon_display_simplified","simplificationToleranceDegrees":0.00015,"simplificationPreservesTopology":true,"invalidSourceRepair":"make_valid; retain polygonal components; discard zero-area collapsed lines","legalBoundaryIndependentlyVerified":false,"areaId":"019b8582-61c2-4964-8f64-d62b60fa3595"},"geometry":{"type":"MultiPolygon","coordinates":[[[[100.543342,13.849465],[100.543492,13.84955],[100.543325,13.849455],[100.543342,13.849465]]],[[[100.548772,13.877905],[100.550272,13.877513],[100.543629,13.849628],[100.538246,13.847279],[100.537478,13.846665],[100.535974,13.846042],[100.518706,13.830664],[100.515933,13.828592],[100.51577,13.827571],[100.515375,13.827067],[100.513342,13.826262],[100.513123,13.825987],[100.513099,13.824733],[100.512752,13.824746],[100.511833,13.826077],[100.51101,13.826176],[100.510643,13.825185],[100.509377,13.825612],[100.509208,13.824996],[100.510122,13.824188],[100.509683,13.8237],[100.508595,13.823429],[100.507659,13.822805],[100.507569,13.821639],[100.507073,13.821146],[100.506294,13.819339],[100.507401,13.816038],[100.504359,13.817614],[100.50235,13.819495],[100.501906,13.819256],[100.490868,13.839831],[100.487571,13.84891],[100.484998,13.850276],[100.479978,13.854131],[100.479264,13.855044],[100.479389,13.854885],[100.476121,13.873459],[100.478246,13.878365],[100.484639,13.88533],[100.480552,13.888039],[100.481476,13.887697],[100.482773,13.886605],[100.484689,13.885475],[100.488477,13.890429],[100.489933,13.893071],[100.490412,13.894419],[100.496152,13.894703],[100.49752,13.895148],[100.499545,13.894618],[100.500264,13.894212],[100.500951,13.894245],[100.501705,13.893561],[100.502234,13.893412],[100.502896,13.892611],[100.504191,13.892431],[100.505232,13.891319],[100.513215,13.889242],[100.513745,13.888859],[100.518476,13.88784],[100.527608,13.885119],[100.529864,13.884979],[100.531745,13.88447],[100.540401,13.881414],[100.5466,13.880252],[100.547995,13.87904],[100.548772,13.877905]]]]},"bbox":[100.476121,13.816038,100.550285,13.895169]},{"type":"Feature","id":"a5c2749c-3a0a-4783-8443-421dd19cf133","properties":{"id":"a5c2749c-3a0a-4783-8443-421dd19cf133","code":"03120601","provinceCode":"12","nameTh":"เทศบาลนคร ปากเกร็ด","nameEn":null,"geometryType":"MUNICIPALITY","sourceUrl":"https://landometer.com/api/v2/citymeter-v3/grocery/info/geom/a5c2749c-3a0a-4783-8443-421dd19cf133/MUNICIPALITY","sourceSha256":"bdf77294dc5cde02dded95f44e0ef323f419df57fec53df2fa030b0c4a8adf46","retrievedAt":"2026-10-04T05:42:25.366659+00:00","boundaryVintage":null,"geometryStatus":"native_source_polygon_display_simplified","simplificationToleranceDegrees":0.00015,"simplificationPreservesTopology":true,"invalidSourceRepair":"make_valid; retain polygonal components; discard zero-area collapsed lines","legalBoundaryIndependentlyVerified":false,"areaId":"a5c2749c-3a0a-4783-8443-421dd19cf133"},"geometry":{"type":"Polygon","coordinates":[[[100.54679,13.880145],[100.540401,13.881414],[100.531745,13.88447],[100.529864,13.884979],[100.527608,13.885119],[100.518476,13.88784],[100.513745,13.888859],[100.513215,13.889242],[100.505232,13.891319],[100.504191,13.892431],[100.502896,13.892611],[100.502234,13.893412],[100.501705,13.893561],[100.500983,13.894229],[100.500264,13.894212],[100.497782,13.895093],[100.497172,13.89516],[100.496152,13.894703],[100.490528,13.89442],[100.489793,13.897774],[100.489279,13.89808],[100.488869,13.899283],[100.490789,13.903494],[100.491219,13.914161],[100.490975,13.915094],[100.494932,13.916623],[100.499167,13.923627],[100.501189,13.934597],[100.502288,13.936623],[100.501985,13.937177],[100.501782,13.936719],[100.502043,13.937308],[100.503349,13.939444],[100.506909,13.942296],[100.508426,13.943052],[100.510082,13.943529],[100.513993,13.943923],[100.521946,13.94351],[100.524975,13.943565],[100.528231,13.944026],[100.531157,13.945058],[100.534995,13.947399],[100.537063,13.949891],[100.538603,13.952863],[100.539027,13.955699],[100.542058,13.95547],[100.541406,13.954647],[100.542021,13.953578],[100.542786,13.954067],[100.544034,13.954417],[100.544168,13.954214],[100.543894,13.953464],[100.544521,13.952935],[100.545343,13.953352],[100.545817,13.952559],[100.548356,13.95262],[100.548972,13.952203],[100.551239,13.951688],[100.552469,13.951148],[100.553323,13.951392],[100.554177,13.95038],[100.554521,13.951402],[100.554821,13.951563],[100.555987,13.950197],[100.557111,13.949833],[100.558627,13.950574],[100.560078,13.950674],[100.560439,13.950553],[100.560602,13.950014],[100.561142,13.949871],[100.561616,13.949381],[100.56203,13.949896],[100.562873,13.949571],[100.56394,13.949768],[100.564582,13.950329],[100.565731,13.95062],[100.566694,13.950357],[100.566819,13.951032],[100.567548,13.951203],[100.550285,13.877586],[100.548824,13.877868],[100.548007,13.879027],[100.54679,13.880145]]]},"bbox":[100.488869,13.877586,100.567548,13.955699]},{"type":"Feature","id":"e7f9321a-81b0-4d33-9c15-3e2930058d1f","properties":{"id":"e7f9321a-81b0-4d33-9c15-3e2930058d1f","code":"04120103","provinceCode":"12","nameTh":"เทศบาลเมือง บางศรีเมือง","nameEn":null,"geometryType":"MUNICIPALITY","sourceUrl":"https://landometer.com/api/v2/citymeter-v3/grocery/info/geom/e7f9321a-81b0-4d33-9c15-3e2930058d1f/MUNICIPALITY","sourceSha256":"b8ac2615f3aa707421fa4b65104e57599650d4455cb9f83d9881bce06bc595d2","retrievedAt":"2026-10-04T05:42:25.219835+00:00","boundaryVintage":null,"geometryStatus":"native_source_polygon_display_simplified","simplificationToleranceDegrees":0.00015,"simplificationPreservesTopology":true,"invalidSourceRepair":"make_valid; retain polygonal components; discard zero-area collapsed lines","legalBoundaryIndependentlyVerified":false,"areaId":"e7f9321a-81b0-4d33-9c15-3e2930058d1f"},"geometry":{"type":"Polygon","coordinates":[[[100.486884,13.83948],[100.482714,13.827161],[100.481968,13.822488],[100.481056,13.822771],[100.481082,13.82311],[100.480438,13.823685],[100.480511,13.824094],[100.48015,13.824758],[100.479348,13.825017],[100.47997,13.828164],[100.477612,13.828233],[100.477593,13.831116],[100.477403,13.831619],[100.476864,13.831255],[100.475603,13.831337],[100.474407,13.832056],[100.474104,13.831739],[100.473437,13.832346],[100.471914,13.83067],[100.469842,13.829153],[100.46947,13.829271],[100.468928,13.828723],[100.46878,13.828131],[100.466022,13.82533],[100.463653,13.827161],[100.459078,13.830096],[100.465768,13.845694],[100.465542,13.848523],[100.466539,13.848603],[100.466281,13.848953],[100.464771,13.849133],[100.468396,13.848702],[100.471276,13.848882],[100.479264,13.855044],[100.481566,13.852099],[100.479978,13.854131],[100.484998,13.850276],[100.487571,13.84891],[100.490868,13.839831],[100.486884,13.83948]]]},"bbox":[100.459078,13.822488,100.490868,13.855044]},{"type":"Feature","id":"d112f08c-f150-489a-af92-5d740ae1c19a","properties":{"id":"d112f08c-f150-489a-af92-5d740ae1c19a","code":"04120104","provinceCode":"12","nameTh":"เทศบาลเมือง ไทรม้า","nameEn":null,"geometryType":"MUNICIPALITY","sourceUrl":"https://landometer.com/api/v2/citymeter-v3/grocery/info/geom/d112f08c-f150-489a-af92-5d740ae1c19a/MUNICIPALITY","sourceSha256":"e74256f35c46484cbcbe0b53fa6c9a6c982eaacd86c9461f84c68d9daef38ce2","retrievedAt":"2026-10-04T05:42:25.359701+00:00","boundaryVintage":null,"geometryStatus":"native_source_polygon_display_simplified","simplificationToleranceDegrees":0.00015,"simplificationPreservesTopology":true,"invalidSourceRepair":"make_valid; retain polygonal components; discard zero-area collapsed lines","legalBoundaryIndependentlyVerified":false,"areaId":"d112f08c-f150-489a-af92-5d740ae1c19a"},"geometry":{"type":"MultiPolygon","coordinates":[[[[100.468396,13.848702],[100.465542,13.848523],[100.46654,13.848586],[100.468396,13.848702]]],[[[100.465542,13.848523],[100.464684,13.848867],[100.463708,13.849259],[100.465542,13.848523]]],[[[100.46232108049215,13.849815967675474],[100.462185,13.84944],[100.462321,13.849816],[100.46232108049215,13.849815967675474]]],[[[100.479265,13.855044],[100.478888,13.857256],[100.479389,13.854885],[100.479265,13.855044]]],[[[100.462321,13.849816],[100.465932,13.85979],[100.462501,13.869654],[100.459429,13.873392],[100.458481,13.883574],[100.460682,13.889038],[100.459337,13.889076],[100.458999,13.888259],[100.458757,13.890319],[100.461791,13.892179],[100.462493,13.891999],[100.463081,13.892608],[100.464741,13.892306],[100.46604,13.89235],[100.466208,13.892876],[100.466722,13.892791],[100.466722,13.892622],[100.468294,13.892505],[100.468307,13.892095],[100.470547,13.891588],[100.472717,13.8916],[100.47426,13.892165],[100.476717,13.891569],[100.480125,13.888827],[100.479924,13.888259],[100.480642,13.888011],[100.484639,13.88533],[100.478246,13.878365],[100.476121,13.873459],[100.479265,13.855044],[100.471276,13.848882],[100.468396,13.848702],[100.463708,13.849259],[100.46232108049215,13.849815967675474],[100.46238623625818,13.849995982176603],[100.462321,13.849816]]]]},"bbox":[100.458481,13.848523,100.484639,13.892876]},{"type":"Feature","id":"e57dd064-918b-493a-8d2b-9c91187fe446","properties":{"id":"e57dd064-918b-493a-8d2b-9c91187fe446","code":"04120105","provinceCode":"12","nameTh":"เทศบาลเมือง บางกร่าง","nameEn":null,"geometryType":"MUNICIPALITY","sourceUrl":"https://landometer.com/api/v2/citymeter-v3/grocery/info/geom/e57dd064-918b-493a-8d2b-9c91187fe446/MUNICIPALITY","sourceSha256":"dbe536d7f5d33cf1288d1d21e0d23444408a9fcc89f2749d1c61b8fd54f93bf0","retrievedAt":"2026-10-04T05:42:25.362005+00:00","boundaryVintage":null,"geometryStatus":"native_source_polygon_display_simplified","simplificationToleranceDegrees":0.00015,"simplificationPreservesTopology":true,"invalidSourceRepair":"make_valid; retain polygonal components; discard zero-area collapsed lines","legalBoundaryIndependentlyVerified":false,"areaId":"e57dd064-918b-493a-8d2b-9c91187fe446"},"geometry":{"type":"Polygon","coordinates":[[[100.441644,13.827905],[100.439536,13.827986],[100.435075,13.829618],[100.428601,13.833044],[100.427609,13.833865],[100.429651,13.835663],[100.430303,13.834944],[100.430612,13.835163],[100.431053,13.834689],[100.435276,13.839584],[100.436363,13.840202],[100.43786,13.841904],[100.44048,13.843113],[100.442719,13.8447],[100.443987,13.844609],[100.444089,13.846022],[100.442185,13.846137],[100.443117,13.84921],[100.441102,13.852025],[100.441841,13.851932],[100.442191,13.852807],[100.44383,13.852744],[100.443777,13.853092],[100.443423,13.854128],[100.442757,13.854782],[100.441233,13.857827],[100.443008,13.858993],[100.442674,13.85952],[100.445794,13.862318],[100.445425,13.86302],[100.44663,13.863951],[100.448246,13.864492],[100.448007,13.867013],[100.44974,13.8597],[100.453847,13.8535],[100.462185,13.84944],[100.462321,13.849816],[100.463708,13.849259],[100.466281,13.848953],[100.46654,13.848586],[100.465542,13.848523],[100.465768,13.845694],[100.459078,13.830096],[100.456317,13.830978],[100.453868,13.830949],[100.44784,13.829992],[100.443646,13.828431],[100.441644,13.827905]]]},"bbox":[100.427609,13.827845,100.46654,13.867013]},{"type":"Feature","id":"98d56c36-8bcb-4566-9a00-b7dd165d9314","properties":{"id":"98d56c36-8bcb-4566-9a00-b7dd165d9314","code":"04120201","provinceCode":"12","nameTh":"เทศบาลเมือง บางกรวย","nameEn":null,"geometryType":"MUNICIPALITY","sourceUrl":"https://landometer.com/api/v2/citymeter-v3/grocery/info/geom/98d56c36-8bcb-4566-9a00-b7dd165d9314/MUNICIPALITY","sourceSha256":"ec6c72572dc31631eea939a9704519b69ea82f2cb49ef43dbca769b644d6efdf","retrievedAt":"2026-10-04T05:42:25.599016+00:00","boundaryVintage":null,"geometryStatus":"native_source_polygon_display_simplified","simplificationToleranceDegrees":0.00015,"simplificationPreservesTopology":true,"invalidSourceRepair":"make_valid; retain polygonal components; discard zero-area collapsed lines","legalBoundaryIndependentlyVerified":false,"areaId":"98d56c36-8bcb-4566-9a00-b7dd165d9314"},"geometry":{"type":"Polygon","coordinates":[[[100.467435,13.791406],[100.469658,13.79479],[100.465347,13.796767],[100.467412,13.802369],[100.466162,13.803069],[100.470806,13.809697],[100.468443,13.813812],[100.475902,13.818714],[100.475726,13.814803],[100.477687,13.812634],[100.483737,13.811306],[100.486227,13.806505],[100.488143,13.806831],[100.49195,13.810156],[100.49308,13.811591],[100.497816,13.816404],[100.499794,13.818024],[100.50235,13.819495],[100.504359,13.817614],[100.507401,13.816038],[100.512529,13.814627],[100.514398,13.813896],[100.515255,13.813275],[100.502548,13.801724],[100.50009,13.800233],[100.473351,13.790636],[100.466177,13.788917],[100.467435,13.791406]]]},"bbox":[100.465347,13.788917,100.515255,13.819495]},{"type":"Feature","id":"d20e459e-6938-4888-a91b-c52fdbb43b36","properties":{"id":"d20e459e-6938-4888-a91b-c52fdbb43b36","code":"04120306","provinceCode":"12","nameTh":"เทศบาลเมือง บางแม่นาง","nameEn":null,"geometryType":"MUNICIPALITY","sourceUrl":"https://landometer.com/api/v2/citymeter-v3/grocery/info/geom/d20e459e-6938-4888-a91b-c52fdbb43b36/MUNICIPALITY","sourceSha256":"8ab7c82959c9992a5da23941b7f847246c7ad082163ba3a73a5d8b6ba443ce76","retrievedAt":"2026-10-04T05:42:25.361720+00:00","boundaryVintage":null,"geometryStatus":"native_source_polygon_display_simplified","simplificationToleranceDegrees":0.00015,"simplificationPreservesTopology":true,"invalidSourceRepair":"make_valid; retain polygonal components; discard zero-area collapsed lines","legalBoundaryIndependentlyVerified":false,"areaId":"d20e459e-6938-4888-a91b-c52fdbb43b36"},"geometry":{"type":"MultiPolygon","coordinates":[[[[100.390152,13.871023],[100.391185,13.866836],[100.400725,13.86749],[100.407335,13.864496],[100.413499,13.860558],[100.415884,13.856584],[100.416329,13.851758],[100.412435,13.851665],[100.398651,13.849004],[100.397849,13.853359],[100.388369,13.85268],[100.360792,13.847467],[100.36454,13.87183],[100.362744,13.880005],[100.363802,13.881078],[100.364301,13.883645],[100.364156,13.88581],[100.363626,13.888549],[100.363634,13.889934],[100.368796,13.906867],[100.369228,13.911484],[100.371943,13.9116],[100.373247,13.91129],[100.373061,13.91018],[100.373179,13.907475],[100.374285,13.90299],[100.375349,13.900364],[100.377149,13.897841],[100.378352,13.897117],[100.380858,13.896524],[100.381546,13.879279],[100.381981,13.8793],[100.38323,13.877653],[100.389063,13.877141],[100.388335,13.871645],[100.390152,13.871023]]],[[[100.362198,13.878766],[100.362072,13.878802],[100.362242,13.879141],[100.362198,13.878766]]]]},"bbox":[100.360792,13.847467,100.416329,13.9116]},{"type":"Feature","id":"84d466c9-a203-4fda-ae09-adedf8bfad10","properties":{"id":"84d466c9-a203-4fda-ae09-adedf8bfad10","code":"04120401","provinceCode":"12","nameTh":"เทศบาลเมือง บางบัวทอง","nameEn":null,"geometryType":"MUNICIPALITY","sourceUrl":"https://landometer.com/api/v2/citymeter-v3/grocery/info/geom/84d466c9-a203-4fda-ae09-adedf8bfad10/MUNICIPALITY","sourceSha256":"f2da5dcebee6e514750548a516f1c943d5ee9c284ae23ff5f5f1761faf08838f","retrievedAt":"2026-10-04T05:42:25.361859+00:00","boundaryVintage":null,"geometryStatus":"native_source_polygon_display_simplified","simplificationToleranceDegrees":0.00015,"simplificationPreservesTopology":true,"invalidSourceRepair":"make_valid; retain polygonal components; discard zero-area collapsed lines","legalBoundaryIndependentlyVerified":false,"areaId":"84d466c9-a203-4fda-ae09-adedf8bfad10"},"geometry":{"type":"MultiPolygon","coordinates":[[[[100.4494894385985,13.884205289488799],[100.44949,13.884205],[100.449489,13.884202],[100.4494894385985,13.884205289488799]]],[[[100.439345,13.89941],[100.444272,13.89784],[100.44785,13.897938],[100.448143,13.895627],[100.449633,13.889118],[100.44984,13.886876],[100.449531,13.885949],[100.4494894385985,13.884205289488799],[100.448947,13.884485],[100.447868,13.884562],[100.445635,13.889562],[100.44488,13.890085],[100.444949,13.889739],[100.440756,13.884442],[100.436859,13.873445],[100.429897,13.872738],[100.429532,13.874531],[100.430436,13.87475],[100.431477,13.878548],[100.427953,13.88031],[100.426419,13.883671],[100.424591,13.883795],[100.417193,13.891418],[100.417962,13.894719],[100.40302,13.900716],[100.403632,13.910358],[100.409123,13.928022],[100.409074,13.933277],[100.412932,13.929583],[100.420175,13.92652],[100.427361,13.924055],[100.42709,13.923295],[100.42769,13.923719],[100.428326,13.924773],[100.430293,13.923664],[100.429708,13.921702],[100.435262,13.918687],[100.437168,13.918199],[100.43916,13.918408],[100.440417,13.919145],[100.441526,13.920632],[100.445844,13.919935],[100.440757,13.903345],[100.439345,13.89941]]]]},"bbox":[100.40302,13.872738,100.449841,13.933277]},{"type":"Feature","id":"6a76451a-31ef-4038-b218-8969d6acb598","properties":{"id":"6a76451a-31ef-4038-b218-8969d6acb598","code":"04120402","provinceCode":"12","nameTh":"เทศบาลเมือง บางคูรัด","nameEn":null,"geometryType":"MUNICIPALITY","sourceUrl":"https://landometer.com/api/v2/citymeter-v3/grocery/info/geom/6a76451a-31ef-4038-b218-8969d6acb598/MUNICIPALITY","sourceSha256":"fb733f68250a50e8951d559850969b5edb56e0ff872a719215f3da2ca1061566","retrievedAt":"2026-10-04T05:42:25.440549+00:00","boundaryVintage":null,"geometryStatus":"native_source_polygon_display_simplified","simplificationToleranceDegrees":0.00015,"simplificationPreservesTopology":true,"invalidSourceRepair":"make_valid; retain polygonal components; discard zero-area collapsed lines","legalBoundaryIndependentlyVerified":false,"areaId":"6a76451a-31ef-4038-b218-8969d6acb598"},"geometry":{"type":"Polygon","coordinates":[[[100.37178,13.924028],[100.371943,13.9116],[100.369228,13.911484],[100.368796,13.906867],[100.363634,13.889934],[100.363626,13.888549],[100.364322,13.884475],[100.364137,13.882491],[100.363802,13.881078],[100.362942,13.880346],[100.361992,13.878713],[100.357332,13.878599],[100.355831,13.881797],[100.355209,13.882356],[100.35115,13.882835],[100.341763,13.883369],[100.341737,13.887526],[100.341411,13.889987],[100.33884,13.894837],[100.332688,13.911882],[100.331871,13.914398],[100.330551,13.92153],[100.338351,13.928048],[100.343948,13.925409],[100.346553,13.925899],[100.347702,13.928076],[100.343325,13.930824],[100.344699,13.931697],[100.350419,13.928058],[100.352168,13.9301],[100.357429,13.92655],[100.363068,13.933874],[100.374005,13.92689],[100.372902,13.924581],[100.373921,13.924394],[100.373732,13.923866],[100.37178,13.924028]]]},"bbox":[100.330551,13.87857,100.374005,13.933874]},{"type":"Feature","id":"158fe818-d59c-428e-8845-35a3d37c278b","properties":{"id":"158fe818-d59c-428e-8845-35a3d37c278b","code":"04120403","provinceCode":"12","nameTh":"เทศบาลเมือง ใหม่บางบัวทอง","nameEn":null,"geometryType":"MUNICIPALITY","sourceUrl":"https://landometer.com/api/v2/citymeter-v3/grocery/info/geom/158fe818-d59c-428e-8845-35a3d37c278b/MUNICIPALITY","sourceSha256":"b195ee547f52b573e9218f1a53d12a61d0a529f94d1bb63eb3454024200ec24b","retrievedAt":"2026-10-04T05:42:25.443501+00:00","boundaryVintage":null,"geometryStatus":"native_source_polygon_display_simplified","simplificationToleranceDegrees":0.00015,"simplificationPreservesTopology":true,"invalidSourceRepair":"make_valid; retain polygonal components; discard zero-area collapsed lines","legalBoundaryIndependentlyVerified":false,"areaId":"158fe818-d59c-428e-8845-35a3d37c278b"},"geometry":{"type":"Polygon","coordinates":[[[100.429294,13.926505],[100.42769,13.923719],[100.42709,13.923295],[100.427361,13.924055],[100.420175,13.92652],[100.412932,13.929583],[100.40907400940533,13.933275990996925],[100.409123,13.928022],[100.403632,13.910358],[100.406307,13.919104],[100.379888,13.934615],[100.350008,13.953875],[100.354976,13.961938],[100.355983,13.97242],[100.356052,13.975252],[100.355687,13.982788],[100.355376,13.98495],[100.349646,13.996636],[100.35613,14.000764],[100.359107,13.996967],[100.356304,13.999365],[100.36155,13.988024],[100.37794,13.979093],[100.392266,13.956685],[100.404539,13.943148],[100.42978,13.929118],[100.428408,13.926997],[100.429294,13.926505]],[[100.409074,13.933277],[100.409074,13.933276],[100.40907400940533,13.933275990996925],[100.409074,13.933277]]]},"bbox":[100.349646,13.910358,100.42978,14.000764]},{"type":"Feature","id":"803fa137-cb78-4e2b-b4ca-98492d0d5c79","properties":{"id":"803fa137-cb78-4e2b-b4ca-98492d0d5c79","code":"04120404","provinceCode":"12","nameTh":"เทศบาลเมือง บางรักพัฒนา","nameEn":null,"geometryType":"MUNICIPALITY","sourceUrl":"https://landometer.com/api/v2/citymeter-v3/grocery/info/geom/803fa137-cb78-4e2b-b4ca-98492d0d5c79/MUNICIPALITY","sourceSha256":"73c264cfec9659db5ea84b5a848096b28e9133d06813d9b4b3f9df3f44f7baae","retrievedAt":"2026-10-04T05:42:25.469085+00:00","boundaryVintage":null,"geometryStatus":"native_source_polygon_display_simplified","simplificationToleranceDegrees":0.00015,"simplificationPreservesTopology":true,"invalidSourceRepair":"make_valid; retain polygonal components; discard zero-area collapsed lines","legalBoundaryIndependentlyVerified":false,"areaId":"803fa137-cb78-4e2b-b4ca-98492d0d5c79"},"geometry":{"type":"Polygon","coordinates":[[[100.373732,13.923866],[100.373921,13.924394],[100.379302,13.923404],[100.379907,13.921811],[100.39231,13.915422],[100.391237,13.910554],[100.403641,13.910487],[100.40302,13.900716],[100.417962,13.894719],[100.417193,13.891418],[100.424591,13.883795],[100.426419,13.883671],[100.427953,13.88031],[100.431477,13.878548],[100.430436,13.87475],[100.429532,13.874531],[100.429471,13.874833],[100.42875,13.874341],[100.424166,13.87323],[100.421016,13.87074],[100.421242,13.868972],[100.419105,13.869219],[100.419733,13.869998],[100.420289,13.870244],[100.420137,13.871802],[100.421313,13.871942],[100.421156,13.872959],[100.420289,13.872917],[100.42024,13.873229],[100.419292,13.873357],[100.419191,13.873966],[100.419572,13.874527],[100.418645,13.876232],[100.419708,13.876967],[100.418052,13.877384],[100.418123,13.877647],[100.414899,13.878794],[100.414799,13.87854],[100.412358,13.879524],[100.412148,13.880078],[100.412277,13.880826],[100.410368,13.88167],[100.410296,13.882155],[100.409461,13.88211],[100.408008,13.882768],[100.407794,13.882479],[100.405998,13.88306],[100.405013,13.883526],[100.404847,13.884317],[100.4036,13.884548],[100.400803,13.885608],[100.399448,13.886816],[100.397226,13.887463],[100.396729,13.887997],[100.396474,13.889358],[100.397047,13.891175],[100.395674,13.892353],[100.395004,13.892508],[100.395087,13.892729],[100.394151,13.89323],[100.394041,13.89303],[100.392951,13.893385],[100.389384,13.895356],[100.388109,13.895317],[100.384543,13.895811],[100.379588,13.896769],[100.377982,13.897271],[100.377149,13.897841],[100.375349,13.900364],[100.374285,13.90299],[100.373179,13.907475],[100.373061,13.91018],[100.373247,13.91129],[100.371858,13.911597],[100.37178,13.924028],[100.373732,13.923866]]]},"bbox":[100.37178,13.868972,100.431477,13.924394]},{"type":"Feature","id":"13efc9c0-8928-4f74-af84-49fedf524a91","properties":{"id":"13efc9c0-8928-4f74-af84-49fedf524a91","code":"04120406","provinceCode":"12","nameTh":"เทศบาลเมือง พิมลราช","nameEn":null,"geometryType":"MUNICIPALITY","sourceUrl":"https://landometer.com/api/v2/citymeter-v3/grocery/info/geom/13efc9c0-8928-4f74-af84-49fedf524a91/MUNICIPALITY","sourceSha256":"8d6442b887b76b2cd2977b0249499169e7ab9a91c531323eb7e86c1ba3fd0971","retrievedAt":"2026-10-04T05:42:25.443192+00:00","boundaryVintage":null,"geometryStatus":"native_source_polygon_display_simplified","simplificationToleranceDegrees":0.00015,"simplificationPreservesTopology":true,"invalidSourceRepair":"make_valid; retain polygonal components; discard zero-area collapsed lines","legalBoundaryIndependentlyVerified":false,"areaId":"13efc9c0-8928-4f74-af84-49fedf524a91"},"geometry":{"type":"Polygon","coordinates":[[[100.391237,13.910554],[100.39231,13.915422],[100.379907,13.921811],[100.379302,13.923404],[100.372902,13.924581],[100.374005,13.92689],[100.363068,13.933874],[100.357429,13.92655],[100.352168,13.9301],[100.350419,13.928058],[100.344699,13.931697],[100.343325,13.930824],[100.347702,13.928076],[100.346553,13.925899],[100.343948,13.925409],[100.338294,13.927978],[100.341011,13.930645],[100.344786,13.935091],[100.356218,13.949868],[100.379888,13.934615],[100.406307,13.919104],[100.403641,13.910487],[100.391237,13.910554]]]},"bbox":[100.338294,13.910487,100.406307,13.949868]},{"type":"Feature","id":"15f6c02f-71f3-4e90-914e-99bbd43d1df5","properties":{"id":"15f6c02f-71f3-4e90-914e-99bbd43d1df5","code":"05120202","provinceCode":"12","nameTh":"เทศบาลตำบล ปลายบาง","nameEn":null,"geometryType":"MUNICIPALITY","sourceUrl":"https://landometer.com/api/v2/citymeter-v3/grocery/info/geom/15f6c02f-71f3-4e90-914e-99bbd43d1df5/MUNICIPALITY","sourceSha256":"f165ee7494385f48f7c738fc985b5484ea5b4612de25c1e06f941ef1bbf434c8","retrievedAt":"2026-10-04T05:42:25.474169+00:00","boundaryVintage":null,"geometryStatus":"native_source_polygon_display_simplified","simplificationToleranceDegrees":0.00015,"simplificationPreservesTopology":true,"invalidSourceRepair":"make_valid; retain polygonal components; discard zero-area collapsed lines","legalBoundaryIndependentlyVerified":false,"areaId":"15f6c02f-71f3-4e90-914e-99bbd43d1df5"},"geometry":{"type":"Polygon","coordinates":[[[100.403026,13.823999],[100.410767,13.828425],[100.411701,13.828778],[100.412412,13.828529],[100.414524,13.829131],[100.415097,13.829558],[100.415359,13.830182],[100.417322,13.831425],[100.417487,13.831994],[100.418032,13.832014],[100.418849,13.832515],[100.419168,13.833375],[100.420092,13.833973],[100.420584,13.834011],[100.42076,13.834319],[100.421663,13.834031],[100.421636,13.834552],[100.422357,13.834786],[100.422218,13.835399],[100.42296,13.835404],[100.423234,13.836001],[100.423952,13.8363],[100.424871,13.835573],[100.425479,13.836702],[100.427678,13.833783],[100.428601,13.833044],[100.430354,13.832157],[100.431069,13.828958],[100.427608,13.825686],[100.424611,13.817588],[100.437117,13.813102],[100.446637,13.807707],[100.444885,13.805259],[100.444896,13.799203],[100.417226,13.801082],[100.398351,13.801854],[100.398703,13.801842],[100.395939,13.808323],[100.391906,13.8072],[100.386654,13.816855],[100.395131,13.819974],[100.39162,13.825876],[100.396244,13.828155],[100.396812,13.829256],[100.3994,13.830593],[100.402826,13.824236],[100.403026,13.823999]]]},"bbox":[100.386654,13.799203,100.446637,13.836702]},{"type":"Feature","id":"151054ff-474c-41e7-9297-869c8e35e806","properties":{"id":"151054ff-474c-41e7-9297-869c8e35e806","code":"05120203","provinceCode":"12","nameTh":"เทศบาลตำบล ศาลากลาง","nameEn":null,"geometryType":"MUNICIPALITY","sourceUrl":"https://landometer.com/api/v2/citymeter-v3/grocery/info/geom/151054ff-474c-41e7-9297-869c8e35e806/MUNICIPALITY","sourceSha256":"caf3e796261487589621190ed84f70199da18ae6b3628bcc7fd3cd1ed7aa89de","retrievedAt":"2026-10-04T05:42:25.443335+00:00","boundaryVintage":null,"geometryStatus":"native_source_polygon_display_simplified","simplificationToleranceDegrees":0.00015,"simplificationPreservesTopology":true,"invalidSourceRepair":"make_valid; retain polygonal components; discard zero-area collapsed lines","legalBoundaryIndependentlyVerified":false,"areaId":"151054ff-474c-41e7-9297-869c8e35e806"},"geometry":{"type":"Polygon","coordinates":[[[100.398703,13.801842],[100.344403,13.803438],[100.327912,13.804126],[100.319205,13.822555],[100.32811,13.825585],[100.333189,13.825253],[100.340746,13.82536],[100.342034,13.82526],[100.343279,13.824816],[100.348097,13.824754],[100.349647,13.816809],[100.35418,13.817227],[100.359432,13.817129],[100.367964,13.815664],[100.370632,13.817811],[100.378866,13.820591],[100.382359,13.822961],[100.382908,13.823714],[100.384729,13.824582],[100.388429,13.825969],[100.390298,13.8256],[100.39162,13.825876],[100.395131,13.819974],[100.386654,13.816855],[100.391906,13.8072],[100.395939,13.808323],[100.398703,13.801842]]]},"bbox":[100.319205,13.801842,100.398703,13.825987]},{"type":"Feature","id":"f2ac56cb-b282-4a61-89cd-6f955f77729d","properties":{"id":"f2ac56cb-b282-4a61-89cd-6f955f77729d","code":"05120206","provinceCode":"12","nameTh":"เทศบาลตำบล บางสีทอง","nameEn":null,"geometryType":"MUNICIPALITY","sourceUrl":"https://landometer.com/api/v2/citymeter-v3/grocery/info/geom/f2ac56cb-b282-4a61-89cd-6f955f77729d/MUNICIPALITY","sourceSha256":"f3b980edce7564eac193d09bd4a83c123de485bea1851ea22059f3144468d6fe","retrievedAt":"2026-10-04T05:42:25.472475+00:00","boundaryVintage":null,"geometryStatus":"native_source_polygon_display_simplified","simplificationToleranceDegrees":0.00015,"simplificationPreservesTopology":true,"invalidSourceRepair":"make_valid; retain polygonal components; discard zero-area collapsed lines","legalBoundaryIndependentlyVerified":false,"areaId":"f2ac56cb-b282-4a61-89cd-6f955f77729d"},"geometry":{"type":"MultiPolygon","coordinates":[[[[100.491289,13.809617],[100.49127590918654,13.809631918809927],[100.491276,13.809632],[100.491289,13.809617]]],[[[100.480109,13.824794],[100.480511,13.824094],[100.480438,13.823685],[100.481082,13.82311],[100.481056,13.822771],[100.482039,13.822425],[100.481709,13.820836],[100.482806,13.82048],[100.4833,13.821343],[100.48566,13.82085],[100.485566,13.819115],[100.487709,13.819297],[100.488168,13.815296],[100.488677,13.813647],[100.489274,13.812513],[100.489882,13.811924],[100.490322,13.810764],[100.49127590918654,13.809631918809927],[100.488143,13.806831],[100.486227,13.806505],[100.483737,13.811306],[100.477687,13.812634],[100.475726,13.814803],[100.475902,13.818714],[100.471476,13.815959],[100.46803218910111,13.821834982867674],[100.464968,13.825549],[100.465223,13.826022],[100.466022,13.82533],[100.46878,13.828131],[100.468928,13.828723],[100.46947,13.829271],[100.469842,13.829153],[100.471914,13.83067],[100.473437,13.832346],[100.474104,13.831739],[100.474407,13.832056],[100.475603,13.831337],[100.476864,13.831255],[100.477403,13.831619],[100.477593,13.831116],[100.477612,13.828233],[100.47997,13.828164],[100.479348,13.825017],[100.480109,13.824794]],[[100.468033,13.821834],[100.465951,13.825386],[100.46803218910111,13.821834982867674],[100.468033,13.821834]]]]},"bbox":[100.464968,13.806505,100.491289,13.832346]},{"type":"Feature","id":"9d017785-230e-45ff-8924-ce23779cbc63","properties":{"id":"9d017785-230e-45ff-8924-ce23779cbc63","code":"05120301","provinceCode":"12","nameTh":"เทศบาลตำบล บ้านบางม่วง","nameEn":null,"geometryType":"MUNICIPALITY","sourceUrl":"https://landometer.com/api/v2/citymeter-v3/grocery/info/geom/9d017785-230e-45ff-8924-ce23779cbc63/MUNICIPALITY","sourceSha256":"121d58668b847f5721900c2e7d15f359dfbc449d59dc5423c720dcc4f5d4e1b3","retrievedAt":"2026-10-04T05:42:25.537530+00:00","boundaryVintage":null,"geometryStatus":"native_source_polygon_display_simplified","simplificationToleranceDegrees":0.00015,"simplificationPreservesTopology":true,"invalidSourceRepair":"make_valid; retain polygonal components; discard zero-area collapsed lines","legalBoundaryIndependentlyVerified":false,"areaId":"9d017785-230e-45ff-8924-ce23779cbc63"},"geometry":{"type":"Polygon","coordinates":[[[100.394919,13.848283],[100.412435,13.851665],[100.416329,13.851758],[100.416352,13.851511],[100.419781,13.852429],[100.41973,13.841718],[100.423634,13.84241],[100.426273,13.836165],[100.426081,13.835837],[100.425479,13.836702],[100.424845,13.835562],[100.424077,13.83631],[100.423288,13.836038],[100.422975,13.835412],[100.422197,13.835377],[100.422357,13.834786],[100.421636,13.834552],[100.421663,13.834031],[100.42076,13.834319],[100.420584,13.834011],[100.420092,13.833973],[100.419168,13.833375],[100.418849,13.832515],[100.418032,13.832014],[100.417487,13.831994],[100.417322,13.831425],[100.415359,13.830182],[100.415097,13.829558],[100.414524,13.829131],[100.412412,13.828529],[100.411701,13.828778],[100.410767,13.828425],[100.403026,13.823999],[100.3994,13.830593],[100.396812,13.829256],[100.396244,13.828155],[100.393104,13.826504],[100.390852,13.825609],[100.388347,13.825951],[100.384729,13.824582],[100.382908,13.823714],[100.382359,13.822961],[100.378866,13.820591],[100.370632,13.817811],[100.367992,13.815667],[100.359432,13.817129],[100.35418,13.817227],[100.349647,13.816809],[100.348124,13.824518],[100.356144,13.825453],[100.356965,13.831288],[100.364655,13.82717],[100.367153,13.831947],[100.372649,13.832905],[100.37925,13.831354],[100.38103,13.82731],[100.396223,13.836289],[100.39388,13.840818],[100.392509,13.841361],[100.393351,13.841028],[100.393672,13.841147],[100.393421,13.841626],[100.394919,13.848283]]]},"bbox":[100.348124,13.815664,100.426273,13.852429]},{"type":"Feature","id":"feb16595-8bab-4ece-b03a-7f2c23e9ccc5","properties":{"id":"feb16595-8bab-4ece-b03a-7f2c23e9ccc5","code":"05120302","provinceCode":"12","nameTh":"เทศบาลตำบล บางเลน","nameEn":null,"geometryType":"MUNICIPALITY","sourceUrl":"https://landometer.com/api/v2/citymeter-v3/grocery/info/geom/feb16595-8bab-4ece-b03a-7f2c23e9ccc5/MUNICIPALITY","sourceSha256":"7138098c1ea23eb01c84f0dde51b855fe9b205b6a64265bd73a45b731d88d2b8","retrievedAt":"2026-10-04T05:42:25.532962+00:00","boundaryVintage":null,"geometryStatus":"native_source_polygon_display_simplified","simplificationToleranceDegrees":0.00015,"simplificationPreservesTopology":true,"invalidSourceRepair":"make_valid; retain polygonal components; discard zero-area collapsed lines","legalBoundaryIndependentlyVerified":false,"areaId":"feb16595-8bab-4ece-b03a-7f2c23e9ccc5"},"geometry":{"type":"MultiPolygon","coordinates":[[[[100.427609,13.833865],[100.426081,13.835837],[100.426273,13.836165],[100.423634,13.84241],[100.426972,13.843002],[100.430406,13.858987],[100.427099,13.86064],[100.428629,13.862968],[100.428319,13.863195],[100.428703,13.863018],[100.428861,13.863246],[100.430189,13.866079],[100.431107,13.867372],[100.432917,13.86914],[100.435071,13.870519],[100.438529,13.871735],[100.439953,13.871999],[100.442324,13.871901],[100.44512,13.871031],[100.446515,13.869959],[100.447483,13.86857],[100.448018,13.86696],[100.448246,13.864492],[100.44663,13.863951],[100.445425,13.86302],[100.445794,13.862318],[100.442674,13.85952],[100.443008,13.858993],[100.441233,13.857827],[100.442757,13.854782],[100.443423,13.854128],[100.443777,13.853092],[100.44383,13.852744],[100.442191,13.852807],[100.441841,13.851932],[100.441102,13.852025],[100.443117,13.84921],[100.442185,13.846137],[100.444089,13.846022],[100.443987,13.844609],[100.442719,13.8447],[100.44048,13.843113],[100.43786,13.841904],[100.436363,13.840202],[100.435276,13.839584],[100.431031,13.834675],[100.430612,13.835163],[100.430303,13.834944],[100.429669,13.835664],[100.427609,13.833865]]],[[[100.427317,13.859734],[100.429589,13.859286],[100.426536,13.859887],[100.427317,13.859734]]]]},"bbox":[100.423634,13.833865,100.448246,13.87201]},{"type":"Feature","id":"4e36841d-e5f8-4843-89ac-88863745bc70","properties":{"id":"4e36841d-e5f8-4843-89ac-88863745bc70","code":"05120303","provinceCode":"12","nameTh":"เทศบาลตำบล เสาธงหิน","nameEn":null,"geometryType":"MUNICIPALITY","sourceUrl":"https://landometer.com/api/v2/citymeter-v3/grocery/info/geom/4e36841d-e5f8-4843-89ac-88863745bc70/MUNICIPALITY","sourceSha256":"80d47ba54538a68cf88a1186403da3d4d0042d2380fece3b3a9e7483b6491386","retrievedAt":"2026-10-04T05:42:25.539739+00:00","boundaryVintage":null,"geometryStatus":"native_source_polygon_display_simplified","simplificationToleranceDegrees":0.00015,"simplificationPreservesTopology":true,"invalidSourceRepair":"make_valid; retain polygonal components; discard zero-area collapsed lines","legalBoundaryIndependentlyVerified":false,"areaId":"4e36841d-e5f8-4843-89ac-88863745bc70"},"geometry":{"type":"Polygon","coordinates":[[[100.397047,13.891175],[100.396474,13.889358],[100.396702,13.888082],[100.39734,13.887397],[100.399448,13.886816],[100.400803,13.885608],[100.4036,13.884548],[100.404847,13.884317],[100.405013,13.883526],[100.405998,13.88306],[100.407794,13.882479],[100.408008,13.882768],[100.409461,13.88211],[100.410296,13.882155],[100.410368,13.88167],[100.412277,13.880826],[100.412148,13.880078],[100.412358,13.879524],[100.414799,13.87854],[100.414899,13.878794],[100.418123,13.877647],[100.418052,13.877384],[100.419708,13.876967],[100.418645,13.876232],[100.419572,13.874527],[100.419191,13.873966],[100.419292,13.873357],[100.42024,13.873229],[100.420289,13.872917],[100.421156,13.872959],[100.421313,13.871942],[100.420137,13.871802],[100.420289,13.870244],[100.419733,13.869998],[100.419105,13.869219],[100.420881,13.869062],[100.422811,13.868512],[100.423096,13.867986],[100.422805,13.86704],[100.423045,13.866819],[100.422783,13.866448],[100.423579,13.8663],[100.423693,13.865813],[100.42508,13.865226],[100.427118,13.863463],[100.428629,13.862968],[100.427099,13.86064],[100.428,13.86019],[100.427894,13.860033],[100.427317,13.859734],[100.423427,13.8605],[100.419802,13.857029],[100.419781,13.852429],[100.416352,13.851511],[100.415884,13.856584],[100.413499,13.860558],[100.407335,13.864496],[100.400725,13.86749],[100.391185,13.866836],[100.390152,13.871023],[100.388335,13.871645],[100.389063,13.877141],[100.38323,13.877653],[100.381981,13.8793],[100.382937,13.879348],[100.381546,13.879279],[100.380858,13.896524],[100.388109,13.895317],[100.389432,13.895339],[100.392951,13.893385],[100.394041,13.89303],[100.394151,13.89323],[100.395087,13.892729],[100.395004,13.892508],[100.395674,13.892353],[100.397047,13.891175]]]},"bbox":[100.380858,13.851511,100.428629,13.896524]},{"type":"Feature","id":"f1741a4b-21dc-4f58-bf77-b6ba98b750c5","properties":{"id":"f1741a4b-21dc-4f58-bf77-b6ba98b750c5","code":"05120304","provinceCode":"12","nameTh":"เทศบาลตำบล บางม่วง","nameEn":null,"geometryType":"MUNICIPALITY","sourceUrl":"https://landometer.com/api/v2/citymeter-v3/grocery/info/geom/f1741a4b-21dc-4f58-bf77-b6ba98b750c5/MUNICIPALITY","sourceSha256":"b319e7296bc75fb275a84a21563f52fed5c5726f349260fc593464c95750683e","retrievedAt":"2026-10-04T05:42:25.547011+00:00","boundaryVintage":null,"geometryStatus":"native_source_polygon_display_simplified","simplificationToleranceDegrees":0.00015,"simplificationPreservesTopology":true,"invalidSourceRepair":"make_valid; retain polygonal components; discard zero-area collapsed lines","legalBoundaryIndependentlyVerified":false,"areaId":"f1741a4b-21dc-4f58-bf77-b6ba98b750c5"},"geometry":{"type":"MultiPolygon","coordinates":[[[[100.423427,13.8605],[100.427317,13.859734],[100.4279998201744,13.860189726111795],[100.430406,13.858987],[100.426972,13.843002],[100.41973,13.841718],[100.419802,13.857029],[100.423427,13.8605]]],[[[100.428,13.86019],[100.4279998201744,13.860189726111795],[100.427099,13.86064],[100.428,13.86019]]]]},"bbox":[100.41973,13.841718,100.430406,13.86064]},{"type":"Feature","id":"8d08e250-6a6a-4f9b-b0a7-031e6989a54d","properties":{"id":"8d08e250-6a6a-4f9b-b0a7-031e6989a54d","code":"05120305","provinceCode":"12","nameTh":"เทศบาลตำบล บางใหญ่","nameEn":null,"geometryType":"MUNICIPALITY","sourceUrl":"https://landometer.com/api/v2/citymeter-v3/grocery/info/geom/8d08e250-6a6a-4f9b-b0a7-031e6989a54d/MUNICIPALITY","sourceSha256":"709937ac8cc725f590b9a5584d32c95d82e26abd135fafc299a8b9a100e3367d","retrievedAt":"2026-10-04T05:42:25.546948+00:00","boundaryVintage":null,"geometryStatus":"native_source_polygon_display_simplified","simplificationToleranceDegrees":0.00015,"simplificationPreservesTopology":true,"invalidSourceRepair":"make_valid; retain polygonal components; discard zero-area collapsed lines","legalBoundaryIndependentlyVerified":false,"areaId":"8d08e250-6a6a-4f9b-b0a7-031e6989a54d"},"geometry":{"type":"Polygon","coordinates":[[[100.394919,13.848283],[100.393421,13.841626],[100.393605,13.841082],[100.391672,13.841693],[100.366049,13.836243],[100.351571,13.836411],[100.336137,13.832977],[100.336485,13.842871],[100.388369,13.85268],[100.397849,13.853359],[100.398666,13.848919],[100.394919,13.848283]]]},"bbox":[100.336137,13.832977,100.398666,13.853359]},{"type":"Feature","id":"3121f6eb-3c79-4c2a-b011-1bef83cf80fc","properties":{"id":"3121f6eb-3c79-4c2a-b011-1bef83cf80fc","code":"05120501","provinceCode":"12","nameTh":"เทศบาลตำบล ไทรน้อย","nameEn":null,"geometryType":"MUNICIPALITY","sourceUrl":"https://landometer.com/api/v2/citymeter-v3/grocery/info/geom/3121f6eb-3c79-4c2a-b011-1bef83cf80fc/MUNICIPALITY","sourceSha256":"cfe75efabcf4ab6623fa2df20a1ffb6c3920e1290ab47f478c85fd2a8ff1b8a9","retrievedAt":"2026-10-04T05:42:25.547164+00:00","boundaryVintage":null,"geometryStatus":"native_source_polygon_display_simplified","simplificationToleranceDegrees":0.00015,"simplificationPreservesTopology":true,"invalidSourceRepair":"make_valid; retain polygonal components; discard zero-area collapsed lines","legalBoundaryIndependentlyVerified":false,"areaId":"3121f6eb-3c79-4c2a-b011-1bef83cf80fc"},"geometry":{"type":"Polygon","coordinates":[[[100.322618,13.977157],[100.314767,13.965315],[100.305039,13.972159],[100.31238,13.983718],[100.322618,13.977157]]]},"bbox":[100.305039,13.965315,100.322618,13.983718]},{"type":"Feature","id":"a955a6e3-a0a4-49e4-8e9f-e8d437387bde","properties":{"id":"a955a6e3-a0a4-49e4-8e9f-e8d437387bde","code":"05120607","provinceCode":"12","nameTh":"เทศบาลตำบล บางพลับ","nameEn":null,"geometryType":"MUNICIPALITY","sourceUrl":"https://landometer.com/api/v2/citymeter-v3/grocery/info/geom/a955a6e3-a0a4-49e4-8e9f-e8d437387bde/MUNICIPALITY","sourceSha256":"6a7c06f35ca0fe1d744e73e232873060571045ab9dd4cd68d390cc709b5e70f6","retrievedAt":"2026-10-04T05:42:25.558862+00:00","boundaryVintage":null,"geometryStatus":"native_source_polygon_display_simplified","simplificationToleranceDegrees":0.00015,"simplificationPreservesTopology":true,"invalidSourceRepair":"make_valid; retain polygonal components; discard zero-area collapsed lines","legalBoundaryIndependentlyVerified":false,"areaId":"a955a6e3-a0a4-49e4-8e9f-e8d437387bde"},"geometry":{"type":"Polygon","coordinates":[[[100.466428,13.934722],[100.470285,13.922084],[100.471596,13.922238],[100.473113,13.91998],[100.473279,13.918641],[100.472605,13.918382],[100.471693,13.918689],[100.466904,13.916192],[100.466148,13.912819],[100.459975,13.911211],[100.457561,13.913204],[100.452455,13.912011],[100.452425,13.913804],[100.444086,13.914062],[100.445844,13.919935],[100.441325,13.920603],[100.441955,13.923585],[100.441465,13.923764],[100.441587,13.924626],[100.441957,13.924871],[100.443116,13.927423],[100.444312,13.930896],[100.442035,13.932044],[100.446259,13.939594],[100.449671,13.939982],[100.450671,13.937786],[100.45415,13.940063],[100.455893,13.936209],[100.465976,13.933726],[100.466428,13.934722]]]},"bbox":[100.441325,13.911211,100.473279,13.940063]},{"type":"Feature","id":"4f23ab73-04dc-45f0-b564-76322b2590ee","properties":{"id":"4f23ab73-04dc-45f0-b564-76322b2590ee","code":"06120106","provinceCode":"12","nameTh":"องค์การบริหารส่วนตำบล บางไผ่","nameEn":null,"geometryType":"MUNICIPALITY","sourceUrl":"https://landometer.com/api/v2/citymeter-v3/grocery/info/geom/4f23ab73-04dc-45f0-b564-76322b2590ee/MUNICIPALITY","sourceSha256":"79f53e3e7ba45f812bd5b30a06df0202593a9cc0eda0c17d9c2f67070e0d05a5","retrievedAt":"2026-10-04T05:42:25.603985+00:00","boundaryVintage":null,"geometryStatus":"native_source_polygon_display_simplified","simplificationToleranceDegrees":0.00015,"simplificationPreservesTopology":true,"invalidSourceRepair":"make_valid; retain polygonal components; discard zero-area collapsed lines","legalBoundaryIndependentlyVerified":false,"areaId":"4f23ab73-04dc-45f0-b564-76322b2590ee"},"geometry":{"type":"MultiPolygon","coordinates":[[[[100.501906,13.819256],[100.50190589751182,13.819256191039546],[100.501913,13.81926],[100.501906,13.819256]]],[[[100.48196810025101,13.822488627979864],[100.481968,13.822488],[100.481961,13.822495],[100.48196810025101,13.822488627979864]]],[[[100.5009,13.818712],[100.497092,13.81574],[100.491341,13.809562],[100.490322,13.810764],[100.489882,13.811924],[100.489274,13.812513],[100.488677,13.813647],[100.488168,13.815296],[100.487709,13.819297],[100.485566,13.819115],[100.48566,13.82085],[100.4833,13.821343],[100.482806,13.82048],[100.481709,13.820836],[100.482039,13.822425],[100.48196810025101,13.822488627979864],[100.482714,13.827161],[100.486886,13.839486],[100.490868,13.839831],[100.50190589751182,13.819256191039546],[100.5009,13.818712]]]]},"bbox":[100.481709,13.809562,100.501913,13.839831]},{"type":"Feature","id":"275cc2a4-1fad-447d-8954-734ac4c897bc","properties":{"id":"275cc2a4-1fad-447d-8954-734ac4c897bc","code":"06120107","provinceCode":"12","nameTh":"องค์การบริหารส่วนตำบล บางรักน้อย","nameEn":null,"geometryType":"MUNICIPALITY","sourceUrl":"https://landometer.com/api/v2/citymeter-v3/grocery/info/geom/275cc2a4-1fad-447d-8954-734ac4c897bc/MUNICIPALITY","sourceSha256":"c065fa0d810eb0b10f67713294064bac10aa39dd6a8f146a93e4582502334c58","retrievedAt":"2026-10-04T05:42:25.613729+00:00","boundaryVintage":null,"geometryStatus":"native_source_polygon_display_simplified","simplificationToleranceDegrees":0.00015,"simplificationPreservesTopology":true,"invalidSourceRepair":"make_valid; retain polygonal components; discard zero-area collapsed lines","legalBoundaryIndependentlyVerified":false,"areaId":"275cc2a4-1fad-447d-8954-734ac4c897bc"},"geometry":{"type":"Polygon","coordinates":[[[100.44974,13.8597],[100.447928,13.867365],[100.448859,13.867924],[100.450199,13.868113],[100.450474,13.868365],[100.449507,13.868883],[100.449265,13.869427],[100.448786,13.869772],[100.448858,13.870294],[100.448337,13.87064],[100.449124,13.87163],[100.448232,13.871958],[100.44885,13.872658],[100.44888,13.872887],[100.44852,13.872951],[100.448431,13.873224],[100.449046,13.874382],[100.448104,13.875328],[100.44839,13.877123],[100.448215,13.87774],[100.448426,13.877891],[100.448975,13.877685],[100.448997,13.879192],[100.448753,13.880261],[100.448315,13.88102],[100.447866,13.881203],[100.447908,13.881986],[100.447435,13.882148],[100.447314,13.882518],[100.449146,13.883553],[100.449482,13.884174],[100.449531,13.885949],[100.44984,13.886876],[100.449633,13.889118],[100.451739,13.889489],[100.452666,13.889282],[100.458757,13.890319],[100.459131,13.887132],[100.458999,13.888259],[100.459337,13.889076],[100.460682,13.889038],[100.458481,13.883574],[100.459429,13.873392],[100.462501,13.869654],[100.465932,13.85979],[100.462185,13.84944],[100.453847,13.8535],[100.44974,13.8597]]]},"bbox":[100.447314,13.84944,100.465932,13.890319]},{"type":"Feature","id":"29c67e23-5c6e-4fbc-9844-529350c1e6b0","properties":{"id":"29c67e23-5c6e-4fbc-9844-529350c1e6b0","code":"06120204","provinceCode":"12","nameTh":"องค์การบริหารส่วนตำบล บางขนุน","nameEn":null,"geometryType":"MUNICIPALITY","sourceUrl":"https://landometer.com/api/v2/citymeter-v3/grocery/info/geom/29c67e23-5c6e-4fbc-9844-529350c1e6b0/MUNICIPALITY","sourceSha256":"d0ad03bd9430e7f843b31ea4183f65f1748d45aaa4398bed1f6bb62608e283c8","retrievedAt":"2026-10-04T05:42:25.616120+00:00","boundaryVintage":null,"geometryStatus":"native_source_polygon_display_simplified","simplificationToleranceDegrees":0.00015,"simplificationPreservesTopology":true,"invalidSourceRepair":"make_valid; retain polygonal components; discard zero-area collapsed lines","legalBoundaryIndependentlyVerified":false,"areaId":"29c67e23-5c6e-4fbc-9844-529350c1e6b0"},"geometry":{"type":"MultiPolygon","coordinates":[[[[100.466156,13.803061],[100.46616171688532,13.80306915854861],[100.466162,13.803069],[100.466156,13.803061]]],[[[100.457414,13.805991],[100.45387,13.80354],[100.446637,13.807707],[100.452075,13.81698],[100.460146,13.820972],[100.46366,13.827133],[100.464341,13.826308],[100.46448892611251,13.826566870696892],[100.465223,13.826022],[100.464968,13.825549],[100.468033,13.821834],[100.471476,13.815959],[100.468443,13.813812],[100.470806,13.809697],[100.46616171688532,13.80306915854861],[100.461005,13.805957],[100.459699,13.804255],[100.457414,13.805991]]],[[[100.46448892611251,13.826566870696892],[100.463653,13.827161],[100.464489,13.826567],[100.46448892611251,13.826566870696892]]]]},"bbox":[100.446637,13.803061,100.471476,13.827161]},{"type":"Feature","id":"c7ec97c2-95d9-4c8c-ac5a-4bc8d8366eb5","properties":{"id":"c7ec97c2-95d9-4c8c-ac5a-4bc8d8366eb5","code":"06120205","provinceCode":"12","nameTh":"องค์การบริหารส่วนตำบล บางขุนกอง","nameEn":null,"geometryType":"MUNICIPALITY","sourceUrl":"https://landometer.com/api/v2/citymeter-v3/grocery/info/geom/c7ec97c2-95d9-4c8c-ac5a-4bc8d8366eb5/MUNICIPALITY","sourceSha256":"324b63e7625f0ccd0e52aba6a5dc32b58f5de136c034ca30c727bf5a02df2c11","retrievedAt":"2026-10-04T05:42:25.618708+00:00","boundaryVintage":null,"geometryStatus":"native_source_polygon_display_simplified","simplificationToleranceDegrees":0.00015,"simplificationPreservesTopology":true,"invalidSourceRepair":"make_valid; retain polygonal components; discard zero-area collapsed lines","legalBoundaryIndependentlyVerified":false,"areaId":"c7ec97c2-95d9-4c8c-ac5a-4bc8d8366eb5"},"geometry":{"type":"MultiPolygon","coordinates":[[[[100.446637,13.807707],[100.437117,13.813102],[100.424611,13.817588],[100.427608,13.825686],[100.431069,13.828958],[100.430354,13.832157],[100.429923,13.832348],[100.430582,13.832118],[100.435668,13.829354],[100.440152,13.827887],[100.441754,13.827925],[100.443646,13.828431],[100.44591,13.82941],[100.449213,13.83027],[100.453868,13.830949],[100.456317,13.830978],[100.459578,13.829841],[100.461375,13.828699],[100.46448892611251,13.826566870696892],[100.464341,13.826308],[100.46366,13.827133],[100.460146,13.820972],[100.452075,13.81698],[100.446637,13.807707]]],[[[100.464984,13.826215],[100.46448892611251,13.826566870696892],[100.464489,13.826567],[100.464984,13.826215]]]]},"bbox":[100.424611,13.807707,100.464984,13.832348]},{"type":"Feature","id":"63591db3-2c55-48a4-ad8a-3978b83dae5e","properties":{"id":"63591db3-2c55-48a4-ad8a-3978b83dae5e","code":"06120207","provinceCode":"12","nameTh":"องค์การบริหารส่วนตำบล มหาสวัสดิ์","nameEn":null,"geometryType":"MUNICIPALITY","sourceUrl":"https://landometer.com/api/v2/citymeter-v3/grocery/info/geom/63591db3-2c55-48a4-ad8a-3978b83dae5e/MUNICIPALITY","sourceSha256":"e49a8d589a17a0c069f8d54a4709513ae5113395fce62750440b4de459f9db7b","retrievedAt":"2026-10-04T05:42:25.627061+00:00","boundaryVintage":null,"geometryStatus":"native_source_polygon_display_simplified","simplificationToleranceDegrees":0.00015,"simplificationPreservesTopology":true,"invalidSourceRepair":"make_valid; retain polygonal components; discard zero-area collapsed lines","legalBoundaryIndependentlyVerified":false,"areaId":"63591db3-2c55-48a4-ad8a-3978b83dae5e"},"geometry":{"type":"Polygon","coordinates":[[[100.464154,13.797314],[100.45809,13.798324],[100.444896,13.799203],[100.444885,13.805259],[100.446637,13.807707],[100.45387,13.80354],[100.457417,13.805993],[100.459699,13.804255],[100.461005,13.805957],[100.467412,13.802369],[100.465347,13.796767],[100.464154,13.797314]]]},"bbox":[100.444885,13.796767,100.467412,13.807707]},{"type":"Feature","id":"0dad698f-edd8-4139-9e01-b51f5efd27ec","properties":{"id":"0dad698f-edd8-4139-9e01-b51f5efd27ec","code":"06120307","provinceCode":"12","nameTh":"องค์การบริหารส่วนตำบล บางใหญ่","nameEn":null,"geometryType":"MUNICIPALITY","sourceUrl":"https://landometer.com/api/v2/citymeter-v3/grocery/info/geom/0dad698f-edd8-4139-9e01-b51f5efd27ec/MUNICIPALITY","sourceSha256":"66b13e70a65a778a19818724159602113f600c60976706bf0c0894bcabcbd6ad","retrievedAt":"2026-10-04T05:42:25.623988+00:00","boundaryVintage":null,"geometryStatus":"native_source_polygon_display_simplified","simplificationToleranceDegrees":0.00015,"simplificationPreservesTopology":true,"invalidSourceRepair":"make_valid; retain polygonal components; discard zero-area collapsed lines","legalBoundaryIndependentlyVerified":false,"areaId":"0dad698f-edd8-4139-9e01-b51f5efd27ec"},"geometry":{"type":"Polygon","coordinates":[[[100.367153,13.831947],[100.364655,13.82717],[100.356965,13.831288],[100.356144,13.825453],[100.348124,13.824518],[100.348142,13.824356],[100.348097,13.824754],[100.343279,13.824816],[100.342034,13.82526],[100.340746,13.82536],[100.333189,13.825253],[100.32811,13.825585],[100.319205,13.822555],[100.313383,13.834779],[100.335948,13.838405],[100.336058,13.83932],[100.336357,13.839238],[100.336137,13.832977],[100.351571,13.836411],[100.366049,13.836243],[100.391672,13.841693],[100.39388,13.840818],[100.396223,13.836289],[100.38103,13.82731],[100.37925,13.831354],[100.372649,13.832905],[100.367153,13.831947]]]},"bbox":[100.313383,13.822555,100.396223,13.841693]},{"type":"Feature","id":"ddb86836-72d2-42ec-aae6-198b00b6d794","properties":{"id":"ddb86836-72d2-42ec-aae6-198b00b6d794","code":"06120308","provinceCode":"12","nameTh":"องค์การบริหารส่วนตำบล บ้านใหม่","nameEn":null,"geometryType":"MUNICIPALITY","sourceUrl":"https://landometer.com/api/v2/citymeter-v3/grocery/info/geom/ddb86836-72d2-42ec-aae6-198b00b6d794/MUNICIPALITY","sourceSha256":"37dffda6e3c1c0fe8c97ec0dab920db94f3bd00d966125589965ee7ab14dfec3","retrievedAt":"2026-10-04T05:42:25.641943+00:00","boundaryVintage":null,"geometryStatus":"native_source_polygon_display_simplified","simplificationToleranceDegrees":0.00015,"simplificationPreservesTopology":true,"invalidSourceRepair":"make_valid; retain polygonal components; discard zero-area collapsed lines","legalBoundaryIndependentlyVerified":false,"areaId":"ddb86836-72d2-42ec-aae6-198b00b6d794"},"geometry":{"type":"Polygon","coordinates":[[[100.313398,13.834702],[100.296819,13.869552],[100.298543,13.870498],[100.299643,13.871905],[100.301746,13.87868],[100.302561,13.878811],[100.311388,13.876396],[100.322399,13.877366],[100.322143,13.884762],[100.326683,13.885651],[100.327939,13.882434],[100.33104,13.881548],[100.335017,13.881431],[100.335063,13.883123],[100.34008,13.883744],[100.341763,13.883369],[100.35115,13.882835],[100.355209,13.882356],[100.355831,13.881797],[100.357367,13.878581],[100.361887,13.878636],[100.362198,13.878766],[100.362744,13.880005],[100.36454,13.87183],[100.360792,13.847467],[100.336485,13.842871],[100.336297,13.837517],[100.336357,13.839238],[100.336058,13.83932],[100.335948,13.838405],[100.313383,13.834779],[100.313733,13.834053],[100.313398,13.834702]]]},"bbox":[100.296819,13.834053,100.36454,13.885651]},{"type":"Feature","id":"afcf6b8f-25f3-492f-8742-7c5e1e4dce8f","properties":{"id":"afcf6b8f-25f3-492f-8742-7c5e1e4dce8f","code":"06120405","provinceCode":"12","nameTh":"องค์การบริหารส่วนตำบล บางรักใหญ่","nameEn":null,"geometryType":"MUNICIPALITY","sourceUrl":"https://landometer.com/api/v2/citymeter-v3/grocery/info/geom/afcf6b8f-25f3-492f-8742-7c5e1e4dce8f/MUNICIPALITY","sourceSha256":"aed21223a28321ab7828d2cc302baad71645e1630f54dd5ac05894844a09e444","retrievedAt":"2026-10-04T05:42:25.686615+00:00","boundaryVintage":null,"geometryStatus":"native_source_polygon_display_simplified","simplificationToleranceDegrees":0.00015,"simplificationPreservesTopology":true,"invalidSourceRepair":"make_valid; retain polygonal components; discard zero-area collapsed lines","legalBoundaryIndependentlyVerified":false,"areaId":"afcf6b8f-25f3-492f-8742-7c5e1e4dce8f"},"geometry":{"type":"Polygon","coordinates":[[[100.449159,13.883564],[100.447314,13.882518],[100.447374,13.882261],[100.447908,13.881986],[100.447866,13.881203],[100.448315,13.88102],[100.448753,13.880261],[100.448998,13.879175],[100.448975,13.877685],[100.448426,13.877891],[100.448215,13.87774],[100.44839,13.877123],[100.448104,13.875328],[100.449046,13.874382],[100.448431,13.873224],[100.44852,13.872951],[100.44888,13.872887],[100.44885,13.872658],[100.448232,13.871958],[100.449124,13.87163],[100.448334,13.870656],[100.448858,13.870294],[100.448786,13.869772],[100.449265,13.869427],[100.449507,13.868883],[100.450451,13.868411],[100.450352,13.868166],[100.448889,13.867934],[100.447928,13.867365],[100.447111,13.869205],[100.445805,13.870616],[100.44512,13.871031],[100.442064,13.871943],[100.439003,13.871862],[100.435071,13.870519],[100.432804,13.869047],[100.430382,13.866419],[100.428703,13.863018],[100.42713,13.863456],[100.42508,13.865226],[100.423693,13.865813],[100.423579,13.8663],[100.422783,13.866448],[100.423047,13.866835],[100.422805,13.867025],[100.423096,13.867986],[100.422905,13.868422],[100.421104,13.869005],[100.421016,13.87074],[100.423931,13.873086],[100.42875,13.874341],[100.429471,13.874833],[100.429897,13.872738],[100.436859,13.873445],[100.440756,13.884442],[100.444949,13.889739],[100.44488,13.890085],[100.445635,13.889562],[100.447868,13.884562],[100.448947,13.884485],[100.44949,13.884205],[100.449159,13.883564]]]},"bbox":[100.421016,13.863018,100.450475,13.890085]},{"type":"Feature","id":"ee74755f-e8c9-4c42-9730-6a4af30591d7","properties":{"id":"ee74755f-e8c9-4c42-9730-6a4af30591d7","code":"06120407","provinceCode":"12","nameTh":"องค์การบริหารส่วนตำบล ละหาร","nameEn":null,"geometryType":"MUNICIPALITY","sourceUrl":"https://landometer.com/api/v2/citymeter-v3/grocery/info/geom/ee74755f-e8c9-4c42-9730-6a4af30591d7/MUNICIPALITY","sourceSha256":"d2030d7793b2a50c5d8ea0d25614f00998aeeaa5a82e37238d2346f08aa2e6dd","retrievedAt":"2026-10-04T05:42:25.675984+00:00","boundaryVintage":null,"geometryStatus":"native_source_polygon_display_simplified","simplificationToleranceDegrees":0.00015,"simplificationPreservesTopology":true,"invalidSourceRepair":"make_valid; retain polygonal components; discard zero-area collapsed lines","legalBoundaryIndependentlyVerified":false,"areaId":"ee74755f-e8c9-4c42-9730-6a4af30591d7"},"geometry":{"type":"Polygon","coordinates":[[[100.392266,13.956685],[100.37794,13.979093],[100.36155,13.988024],[100.356304,13.999365],[100.358928,13.99719],[100.358525,13.997693],[100.361384,13.994267],[100.364884,13.992158],[100.394592,13.985814],[100.396857,13.98475],[100.40924,13.963791],[100.439306,13.940469],[100.443916,13.935398],[100.444488,13.936255],[100.442035,13.932044],[100.444312,13.930896],[100.443116,13.927423],[100.441957,13.924871],[100.441587,13.924626],[100.441465,13.923764],[100.441955,13.923585],[100.441416,13.921393],[100.441325,13.920603],[100.441526,13.920632],[100.441085,13.919892],[100.440417,13.919145],[100.439331,13.918478],[100.437076,13.91821],[100.434777,13.918894],[100.429708,13.921702],[100.430293,13.923664],[100.42835,13.924742],[100.428326,13.924773],[100.429294,13.926505],[100.428408,13.926997],[100.42978,13.929118],[100.404539,13.943148],[100.392266,13.956685]],[[100.435637,13.9207],[100.429277,13.924228],[100.429727142686,13.923978117642807],[100.435637,13.9207]]]},"bbox":[100.356304,13.91817,100.444488,13.999365]},{"type":"Feature","id":"0d479cdb-b872-4f31-a001-cede8593e314","properties":{"id":"0d479cdb-b872-4f31-a001-cede8593e314","code":"06120408","provinceCode":"12","nameTh":"องค์การบริหารส่วนตำบล ลำโพ","nameEn":null,"geometryType":"MUNICIPALITY","sourceUrl":"https://landometer.com/api/v2/citymeter-v3/grocery/info/geom/0d479cdb-b872-4f31-a001-cede8593e314/MUNICIPALITY","sourceSha256":"7c0fe16cd1b1edc385f3d2d6c5b0a01542a5f32a72b6b963249c1e29ccf14b3c","retrievedAt":"2026-10-04T05:42:25.688738+00:00","boundaryVintage":null,"geometryStatus":"native_source_polygon_display_simplified","simplificationToleranceDegrees":0.00015,"simplificationPreservesTopology":true,"invalidSourceRepair":"make_valid; retain polygonal components; discard zero-area collapsed lines","legalBoundaryIndependentlyVerified":false,"areaId":"0d479cdb-b872-4f31-a001-cede8593e314"},"geometry":{"type":"Polygon","coordinates":[[[100.396846,13.984757],[100.398555,13.983388],[100.403055,13.983123],[100.404507,13.98352],[100.40636,13.984562],[100.408979,13.985225],[100.410283,13.985222],[100.413961,13.984609],[100.416775,13.983217],[100.419617,13.980833],[100.420011,13.98003],[100.419556,13.97939],[100.419974,13.978765],[100.42273,13.977406],[100.424089,13.975694],[100.427017,13.9729],[100.428125,13.971208],[100.428461,13.969851],[100.429728,13.969657],[100.430688,13.968901],[100.431505,13.967989],[100.432661,13.966057],[100.435668,13.963679],[100.436318,13.961719],[100.437992,13.959399],[100.440346,13.957515],[100.441395,13.956051],[100.443051,13.954566],[100.443982,13.953207],[100.445937,13.952121],[100.446078,13.951902],[100.445808,13.951298],[100.45077,13.948202],[100.443916,13.935398],[100.439306,13.940469],[100.40924,13.963791],[100.396846,13.984757]]]},"bbox":[100.396846,13.935398,100.45077,13.985239]},{"type":"Feature","id":"3b7db19a-9c1d-4819-8e73-b0330fccea68","properties":{"id":"3b7db19a-9c1d-4819-8e73-b0330fccea68","code":"06120502","provinceCode":"12","nameTh":"องค์การบริหารส่วนตำบล ขุนศรี","nameEn":null,"geometryType":"MUNICIPALITY","sourceUrl":"https://landometer.com/api/v2/citymeter-v3/grocery/info/geom/3b7db19a-9c1d-4819-8e73-b0330fccea68/MUNICIPALITY","sourceSha256":"928f36205a255399f19991309dd7f310664050682ee4045daa60d717a8d3c466","retrievedAt":"2026-10-04T05:42:25.694869+00:00","boundaryVintage":null,"geometryStatus":"native_source_polygon_display_simplified","simplificationToleranceDegrees":0.00015,"simplificationPreservesTopology":true,"invalidSourceRepair":"make_valid; retain polygonal components; discard zero-area collapsed lines","legalBoundaryIndependentlyVerified":false,"areaId":"3b7db19a-9c1d-4819-8e73-b0330fccea68"},"geometry":{"type":"MultiPolygon","coordinates":[[[[100.286385,13.971261],[100.281575,13.975526],[100.273286,13.983633],[100.26964,13.988916],[100.267735,13.993965],[100.265495,13.995947],[100.262429,13.998121],[100.265582,14.001208],[100.26329,14.004355],[100.266505,14.007957],[100.264066,14.010168],[100.269124,14.018907],[100.269446,14.021016],[100.269027,14.021059],[100.269698,14.023422],[100.276943,14.023939],[100.273991,14.029249],[100.271345,14.032611],[100.268949,14.036544],[100.267986,14.039869],[100.26715320234322,14.044547928239865],[100.282856,14.038979],[100.302244,14.03701],[100.301918,14.028872],[100.29058,13.992547],[100.309924,13.979851],[100.305039,13.972159],[100.298045,13.962486],[100.297687,13.962588],[100.29822,13.963371],[100.286385,13.971261]]],[[[100.26715320234322,14.044547928239865],[100.267153,14.044548],[100.267086,14.045172],[100.26715320234322,14.044547928239865]]]]},"bbox":[100.262429,13.962486,100.309924,14.045172]},{"type":"Feature","id":"223b8bb3-f3b4-4a32-9f84-aa5a0d1aa622","properties":{"id":"223b8bb3-f3b4-4a32-9f84-aa5a0d1aa622","code":"06120503","provinceCode":"12","nameTh":"องค์การบริหารส่วนตำบล คลองขวาง","nameEn":null,"geometryType":"MUNICIPALITY","sourceUrl":"https://landometer.com/api/v2/citymeter-v3/grocery/info/geom/223b8bb3-f3b4-4a32-9f84-aa5a0d1aa622/MUNICIPALITY","sourceSha256":"8adbab361f21fc4fb915cfa156b00cb0e0558ee36800d83a801e2e96e980354b","retrievedAt":"2026-10-04T05:42:25.694718+00:00","boundaryVintage":null,"geometryStatus":"native_source_polygon_display_simplified","simplificationToleranceDegrees":0.00015,"simplificationPreservesTopology":true,"invalidSourceRepair":"make_valid; retain polygonal components; discard zero-area collapsed lines","legalBoundaryIndependentlyVerified":false,"areaId":"223b8bb3-f3b4-4a32-9f84-aa5a0d1aa622"},"geometry":{"type":"Polygon","coordinates":[[[100.352452,13.998359],[100.349647,13.996636],[100.346943,14.001991],[100.334932,14.015199],[100.316309,13.9812],[100.31238,13.983718],[100.309924,13.979851],[100.29058,13.992547],[100.301402,14.027219],[100.301366,14.025211],[100.313604,14.025016],[100.312882,14.060493],[100.327184,14.060409],[100.328183,14.04909],[100.336627,14.023995],[100.352452,13.998359]]]},"bbox":[100.29058,13.979851,100.352452,14.060493]},{"type":"Feature","id":"519ae2a8-a68d-43d4-a9b4-ecdf8bdab385","properties":{"id":"519ae2a8-a68d-43d4-a9b4-ecdf8bdab385","code":"06120504","provinceCode":"12","nameTh":"องค์การบริหารส่วนตำบล ทวีวัฒนา","nameEn":null,"geometryType":"MUNICIPALITY","sourceUrl":"https://landometer.com/api/v2/citymeter-v3/grocery/info/geom/519ae2a8-a68d-43d4-a9b4-ecdf8bdab385/MUNICIPALITY","sourceSha256":"b938cc4c14a159f442137b1f4f42d266f3f21b192da0a510b1bdcfd14dcfd659","retrievedAt":"2026-10-04T05:42:25.705389+00:00","boundaryVintage":null,"geometryStatus":"native_source_polygon_display_simplified","simplificationToleranceDegrees":0.00015,"simplificationPreservesTopology":true,"invalidSourceRepair":"make_valid; retain polygonal components; discard zero-area collapsed lines","legalBoundaryIndependentlyVerified":false,"areaId":"519ae2a8-a68d-43d4-a9b4-ecdf8bdab385"},"geometry":{"type":"MultiPolygon","coordinates":[[[[100.3498576328291,13.941594078384798],[100.349985,13.941743],[100.349858,13.941594],[100.3498576328291,13.941594078384798]]],[[[100.274725,13.934696],[100.280853,13.940617],[100.287008,13.947207],[100.29768713424417,13.962587912634744],[100.298045,13.962486],[100.305039,13.972159],[100.314767,13.965315],[100.350133,13.942491],[100.349497,13.941711],[100.3498576328291,13.941594078384798],[100.344786,13.935091],[100.339173,13.9288],[100.330551,13.92153],[100.330588,13.921146],[100.326375,13.919567],[100.322356,13.927908],[100.318364,13.93128],[100.316421,13.930713],[100.311284,13.924502],[100.300837,13.919761],[100.281054,13.928432],[100.274725,13.934696]]],[[[100.29814,13.963253],[100.29768713424417,13.962587912634744],[100.297687,13.962588],[100.29814,13.963253]]]]},"bbox":[100.274725,13.919567,100.350133,13.972159]},{"type":"Feature","id":"f6b133e6-2fac-4698-ad2e-5a4bb05950f5","properties":{"id":"f6b133e6-2fac-4698-ad2e-5a4bb05950f5","code":"06120505","provinceCode":"12","nameTh":"องค์การบริหารส่วนตำบล ไทรน้อย","nameEn":null,"geometryType":"MUNICIPALITY","sourceUrl":"https://landometer.com/api/v2/citymeter-v3/grocery/info/geom/f6b133e6-2fac-4698-ad2e-5a4bb05950f5/MUNICIPALITY","sourceSha256":"cc4180adf3555be5690cdc17f668ef0016ebab14e1c6775a975dc36cac6b4d16","retrievedAt":"2026-10-04T05:42:25.698373+00:00","boundaryVintage":null,"geometryStatus":"native_source_polygon_display_simplified","simplificationToleranceDegrees":0.00015,"simplificationPreservesTopology":true,"invalidSourceRepair":"make_valid; retain polygonal components; discard zero-area collapsed lines","legalBoundaryIndependentlyVerified":false,"areaId":"f6b133e6-2fac-4698-ad2e-5a4bb05950f5"},"geometry":{"type":"MultiPolygon","coordinates":[[[[100.316381,13.981154],[100.334932,14.015199],[100.346943,14.001991],[100.354157,13.987633],[100.355462,13.98458],[100.356031,13.973142],[100.354976,13.961938],[100.350008,13.953875],[100.356238,13.949895],[100.349858,13.941594],[100.349497,13.941711],[100.350133,13.942491],[100.314767,13.965315],[100.322618,13.977157],[100.316381,13.981154]]],[[[100.34964677070515,13.996636454095388],[100.350627,13.997214],[100.349647,13.996636],[100.34964677070515,13.996636454095388]]]]},"bbox":[100.314767,13.941594,100.356238,14.015199]},{"type":"Feature","id":"26172fcc-8a9b-41e3-8ce9-a5223a8fc7dd","properties":{"id":"26172fcc-8a9b-41e3-8ce9-a5223a8fc7dd","code":"06120506","provinceCode":"12","nameTh":"องค์การบริหารส่วนตำบล ไทรใหญ่","nameEn":null,"geometryType":"MUNICIPALITY","sourceUrl":"https://landometer.com/api/v2/citymeter-v3/grocery/info/geom/26172fcc-8a9b-41e3-8ce9-a5223a8fc7dd/MUNICIPALITY","sourceSha256":"89dfb9371583c10f62afac7f07ce992d09e3bf489924ef6430aedf6bc4ecf19c","retrievedAt":"2026-10-04T05:42:25.728125+00:00","boundaryVintage":null,"geometryStatus":"native_source_polygon_display_simplified","simplificationToleranceDegrees":0.00015,"simplificationPreservesTopology":true,"invalidSourceRepair":"make_valid; retain polygonal components; discard zero-area collapsed lines","legalBoundaryIndependentlyVerified":false,"areaId":"26172fcc-8a9b-41e3-8ce9-a5223a8fc7dd"},"geometry":{"type":"Polygon","coordinates":[[[100.282856,14.038979],[100.267153,14.044548],[100.264152,14.060111],[100.265696,14.061306],[100.268046,14.06389],[100.270299,14.065596],[100.271134,14.066935],[100.27229,14.068162],[100.272291,14.070635],[100.27197,14.072297],[100.273375,14.073178],[100.273951,14.073844],[100.275973,14.07956],[100.276813,14.084628],[100.277107,14.101211],[100.28373,14.100698],[100.282584,14.114131],[100.281781,14.127013],[100.285453,14.129611],[100.292083,14.135153],[100.296063,14.139313],[100.298034,14.140187],[100.300024,14.140222],[100.308209,14.136429],[100.315292,14.132512],[100.308517,14.135786],[100.3119,14.102701],[100.311429,14.063523],[100.302051,14.063623],[100.301578,14.037078],[100.282856,14.038979]]]},"bbox":[100.264152,14.037078,100.315292,14.140246]},{"type":"Feature","id":"44fccea7-39fb-4551-9149-fb64e8f5ceca","properties":{"id":"44fccea7-39fb-4551-9149-fb64e8f5ceca","code":"06120507","provinceCode":"12","nameTh":"องค์การบริหารส่วนตำบล ราษฎร์นิยม","nameEn":null,"geometryType":"MUNICIPALITY","sourceUrl":"https://landometer.com/api/v2/citymeter-v3/grocery/info/geom/44fccea7-39fb-4551-9149-fb64e8f5ceca/MUNICIPALITY","sourceSha256":"f0f47f566d833cc0da8bd17fbcc818277640eb5fa645e4cf0f9111c89dbd079a","retrievedAt":"2026-10-04T05:42:25.885760+00:00","boundaryVintage":null,"geometryStatus":"native_source_polygon_display_simplified","simplificationToleranceDegrees":0.00015,"simplificationPreservesTopology":true,"invalidSourceRepair":"make_valid; retain polygonal components; discard zero-area collapsed lines","legalBoundaryIndependentlyVerified":false,"areaId":"44fccea7-39fb-4551-9149-fb64e8f5ceca"},"geometry":{"type":"Polygon","coordinates":[[[100.335948,14.126761],[100.340493,14.121401],[100.3441,14.114742],[100.342268,14.107019],[100.341534,14.101349],[100.341444,14.097446],[100.340661,14.093835],[100.337807,14.085316],[100.334987,14.078262],[100.332412,14.066887],[100.331767,14.061646],[100.331629,14.056427],[100.333576,14.047099],[100.336677,14.037664],[100.341635,14.027793],[100.344275,14.020908],[100.347508,14.014671],[100.355761,14.000446],[100.352452,13.998359],[100.336627,14.023995],[100.328183,14.04909],[100.327184,14.060409],[100.312882,14.060493],[100.313604,14.025016],[100.301366,14.025211],[100.301402,14.027219],[100.301918,14.028872],[100.302244,14.03701],[100.301578,14.037078],[100.302051,14.063623],[100.311429,14.063523],[100.3119,14.102701],[100.308517,14.135786],[100.32084,14.129636],[100.333147,14.128932],[100.335948,14.126761]]]},"bbox":[100.301366,13.998359,100.355761,14.135786]},{"type":"Feature","id":"a459307e-6d4a-42f7-ba1a-2cc8c2384a9b","properties":{"id":"a459307e-6d4a-42f7-ba1a-2cc8c2384a9b","code":"06120508","provinceCode":"12","nameTh":"องค์การบริหารส่วนตำบล หนองเพรางาย","nameEn":null,"geometryType":"MUNICIPALITY","sourceUrl":"https://landometer.com/api/v2/citymeter-v3/grocery/info/geom/a459307e-6d4a-42f7-ba1a-2cc8c2384a9b/MUNICIPALITY","sourceSha256":"62493460b626704cd3d63eee9d09f58495ba9417392e57b98f1ecf2f458b44b5","retrievedAt":"2026-10-04T05:42:25.885146+00:00","boundaryVintage":null,"geometryStatus":"native_source_polygon_display_simplified","simplificationToleranceDegrees":0.00015,"simplificationPreservesTopology":true,"invalidSourceRepair":"make_valid; retain polygonal components; discard zero-area collapsed lines","legalBoundaryIndependentlyVerified":false,"areaId":"a459307e-6d4a-42f7-ba1a-2cc8c2384a9b"},"geometry":{"type":"MultiPolygon","coordinates":[[[[100.311284,13.924502],[100.316421,13.930713],[100.318364,13.93128],[100.322356,13.927908],[100.326375,13.919567],[100.330588,13.921146],[100.331871,13.914398],[100.334623,13.906293],[100.338924,13.894635],[100.341411,13.889987],[100.341737,13.887526],[100.341763,13.883369],[100.34008,13.883744],[100.335063,13.883123],[100.335017,13.881431],[100.33104,13.881548],[100.327939,13.882434],[100.326683,13.885651],[100.322143,13.884762],[100.322399,13.877366],[100.311388,13.876396],[100.306655,13.877779],[100.301985,13.878834],[100.301424,13.878002],[100.299643,13.871905],[100.298543,13.870498],[100.296819,13.869552],[100.276123,13.91294],[100.275138,13.914334],[100.273285,13.915902],[100.265449,13.920609],[100.27243,13.932027],[100.274725,13.934696],[100.281054,13.928432],[100.300837,13.919761],[100.311284,13.924502]]],[[[100.330551,13.92153],[100.330602,13.921571],[100.33064,13.921602],[100.330551,13.92153]]]]},"bbox":[100.265449,13.869552,100.341796,13.934696]},{"type":"Feature","id":"c0ed4f0a-9a58-4544-a41c-bead9c8f931f","properties":{"id":"c0ed4f0a-9a58-4544-a41c-bead9c8f931f","code":"06120602","provinceCode":"12","nameTh":"องค์การบริหารส่วนตำบล เกาะเกร็ด","nameEn":null,"geometryType":"MUNICIPALITY","sourceUrl":"https://landometer.com/api/v2/citymeter-v3/grocery/info/geom/c0ed4f0a-9a58-4544-a41c-bead9c8f931f/MUNICIPALITY","sourceSha256":"1bb2ca395158e6ca80d6259afd13873175b3b5e6498beded3c76cd5d32afd149","retrievedAt":"2026-10-04T05:42:25.885095+00:00","boundaryVintage":null,"geometryStatus":"native_source_polygon_display_simplified","simplificationToleranceDegrees":0.00015,"simplificationPreservesTopology":true,"invalidSourceRepair":"make_valid; retain polygonal components; discard zero-area collapsed lines","legalBoundaryIndependentlyVerified":false,"areaId":"c0ed4f0a-9a58-4544-a41c-bead9c8f931f"},"geometry":{"type":"MultiPolygon","coordinates":[[[[100.488879,13.898318],[100.486813,13.899547],[100.488869,13.899283],[100.489178,13.898375],[100.488879,13.898318]]],[[[100.46745403265722,13.907873016658174],[100.467454,13.907873],[100.467024,13.908751],[100.46745403265722,13.907873016658174]]],[[[100.488869,13.899283],[100.477942,13.900687],[100.469996,13.904953],[100.469596,13.905771],[100.467672,13.907428],[100.46745403265722,13.907873016658174],[100.467999,13.908151],[100.468124,13.908778],[100.466148,13.912819],[100.466904,13.916192],[100.471693,13.918689],[100.485401,13.914075],[100.491219,13.914161],[100.490789,13.903494],[100.488869,13.899283]]]]},"bbox":[100.466148,13.898318,100.491219,13.918689]},{"type":"Feature","id":"39c5fe34-6782-4534-895a-045db3415361","properties":{"id":"39c5fe34-6782-4534-895a-045db3415361","code":"06120603","provinceCode":"12","nameTh":"องค์การบริหารส่วนตำบล คลองข่อย","nameEn":null,"geometryType":"MUNICIPALITY","sourceUrl":"https://landometer.com/api/v2/citymeter-v3/grocery/info/geom/39c5fe34-6782-4534-895a-045db3415361/MUNICIPALITY","sourceSha256":"ab82150595ea419d6d154ecfd1b81e83ce768d5893989debdb67d3684accfb96","retrievedAt":"2026-10-04T05:42:25.890846+00:00","boundaryVintage":null,"geometryStatus":"native_source_polygon_display_simplified","simplificationToleranceDegrees":0.00015,"simplificationPreservesTopology":true,"invalidSourceRepair":"make_valid; retain polygonal components; discard zero-area collapsed lines","legalBoundaryIndependentlyVerified":false,"areaId":"39c5fe34-6782-4534-895a-045db3415361"},"geometry":{"type":"Polygon","coordinates":[[[100.455896,13.969757],[100.456662,13.970967],[100.456802,13.974939],[100.457928,13.977517],[100.458392,13.976269],[100.460612,13.976449],[100.460915,13.974751],[100.461635,13.974962],[100.462417,13.970695],[100.464894,13.97142],[100.465481,13.970293],[100.466945,13.970493],[100.466931,13.968707],[100.473803,13.96227],[100.476237,13.960444],[100.484335,13.951467],[100.486225,13.95014],[100.487265,13.947565],[100.488593,13.946098],[100.488125,13.94548],[100.487385,13.945141],[100.487794,13.944453],[100.47882,13.942684],[100.468257,13.938753],[100.466098,13.935805],[100.466428,13.934722],[100.465976,13.933726],[100.455893,13.936209],[100.45415,13.940063],[100.450671,13.937786],[100.449671,13.939982],[100.446249,13.939576],[100.45077,13.948202],[100.445808,13.951298],[100.446078,13.951902],[100.445937,13.952121],[100.443982,13.953207],[100.443051,13.954566],[100.441395,13.956051],[100.440346,13.957515],[100.438083,13.959299],[100.436318,13.961719],[100.435668,13.963679],[100.432661,13.966057],[100.431505,13.967989],[100.430688,13.968901],[100.429728,13.969657],[100.428461,13.969851],[100.428125,13.971208],[100.427092,13.972808],[100.424089,13.975694],[100.422768,13.977372],[100.419974,13.978765],[100.419555,13.979405],[100.420002,13.979981],[100.419885,13.980385],[100.418371,13.981977],[100.416732,13.983244],[100.414008,13.984593],[100.410283,13.985222],[100.408979,13.985225],[100.40636,13.984562],[100.404507,13.98352],[100.403224,13.983143],[100.398622,13.983374],[100.396348,13.985071],[100.394662,13.985795],[100.380499,13.988812],[100.381081,13.994776],[100.423118,13.983901],[100.434702,13.981182],[100.437444,13.979492],[100.448304,13.971033],[100.453476,13.967343],[100.45473,13.968967],[100.455896,13.969757]]]},"bbox":[100.380499,13.933726,100.488596,13.994776]},{"type":"Feature","id":"de89e416-8d0b-4136-9069-eeca5e0cc5a9","properties":{"id":"de89e416-8d0b-4136-9069-eeca5e0cc5a9","code":"06120604","provinceCode":"12","nameTh":"องค์การบริหารส่วนตำบล คลองพระอุดม","nameEn":null,"geometryType":"MUNICIPALITY","sourceUrl":"https://landometer.com/api/v2/citymeter-v3/grocery/info/geom/de89e416-8d0b-4136-9069-eeca5e0cc5a9/MUNICIPALITY","sourceSha256":"61a2568a435dcb386017dbc80f04e88e1df2133b5752c4a7069f05cfad74a483","retrievedAt":"2026-10-04T05:42:25.884996+00:00","boundaryVintage":null,"geometryStatus":"native_source_polygon_display_simplified","simplificationToleranceDegrees":0.00015,"simplificationPreservesTopology":true,"invalidSourceRepair":"make_valid; retain polygonal components; discard zero-area collapsed lines","legalBoundaryIndependentlyVerified":false,"areaId":"de89e416-8d0b-4136-9069-eeca5e0cc5a9"},"geometry":{"type":"Polygon","coordinates":[[[100.473279,13.918641],[100.473113,13.91998],[100.474591,13.917781],[100.471596,13.922238],[100.470285,13.922084],[100.466098,13.935805],[100.468257,13.938753],[100.47882,13.942684],[100.480932,13.935354],[100.485069,13.934634],[100.490559,13.914933],[100.490975,13.915094],[100.488791,13.923467],[100.491219,13.914161],[100.485401,13.914075],[100.472605,13.918382],[100.473279,13.918641]]]},"bbox":[100.466098,13.914075,100.491219,13.942684]},{"type":"Feature","id":"3f432a34-4c31-43d6-9905-00107164dcb7","properties":{"id":"3f432a34-4c31-43d6-9905-00107164dcb7","code":"06120605","provinceCode":"12","nameTh":"องค์การบริหารส่วนตำบล ท่าอิฐ","nameEn":null,"geometryType":"MUNICIPALITY","sourceUrl":"https://landometer.com/api/v2/citymeter-v3/grocery/info/geom/3f432a34-4c31-43d6-9905-00107164dcb7/MUNICIPALITY","sourceSha256":"1829ec11dbdf5a57458fe8a238e79a392de2385070a682b2e0031dcfe0b14de2","retrievedAt":"2026-10-04T05:42:25.886280+00:00","boundaryVintage":null,"geometryStatus":"native_source_polygon_display_simplified","simplificationToleranceDegrees":0.00015,"simplificationPreservesTopology":true,"invalidSourceRepair":"make_valid; retain polygonal components; discard zero-area collapsed lines","legalBoundaryIndependentlyVerified":false,"areaId":"3f432a34-4c31-43d6-9905-00107164dcb7"},"geometry":{"type":"Polygon","coordinates":[[[100.490528,13.89442],[100.487774,13.889374],[100.484689,13.885475],[100.482773,13.886605],[100.481461,13.887706],[100.479924,13.888259],[100.480125,13.888827],[100.479037,13.889839],[100.478616,13.88985],[100.477012,13.891442],[100.474346,13.89216],[100.472825,13.891619],[100.471205,13.891542],[100.468318,13.892091],[100.468294,13.892505],[100.466722,13.892622],[100.466273,13.892871],[100.46604,13.89235],[100.464741,13.892306],[100.463081,13.892608],[100.462527,13.892013],[100.461589,13.892102],[100.458701,13.890304],[100.452666,13.889282],[100.451739,13.889489],[100.449633,13.889118],[100.447773,13.897975],[100.450191,13.897805],[100.461459,13.90449],[100.463741,13.908683],[100.466157,13.908733],[100.467266,13.907777],[100.467454,13.907873],[100.467672,13.907428],[100.469596,13.905771],[100.469996,13.904953],[100.477942,13.900687],[100.486813,13.899547],[100.488879,13.898318],[100.489178,13.898375],[100.488869,13.899283],[100.489279,13.89808],[100.489793,13.897774],[100.490528,13.89442]]]},"bbox":[100.447773,13.885475,100.490528,13.908733]},{"type":"Feature","id":"10439a9a-c6c3-457a-82cd-f87b547d4506","properties":{"id":"10439a9a-c6c3-457a-82cd-f87b547d4506","code":"06120606","provinceCode":"12","nameTh":"องค์การบริหารส่วนตำบล บางตะไนย์","nameEn":null,"geometryType":"MUNICIPALITY","sourceUrl":"https://landometer.com/api/v2/citymeter-v3/grocery/info/geom/10439a9a-c6c3-457a-82cd-f87b547d4506/MUNICIPALITY","sourceSha256":"7a9ff5eae8a1bc9d8efc45279e2fa054bfec3b5c35975d64edda2c003cf6af2b","retrievedAt":"2026-10-04T05:42:25.887784+00:00","boundaryVintage":null,"geometryStatus":"native_source_polygon_display_simplified","simplificationToleranceDegrees":0.00015,"simplificationPreservesTopology":true,"invalidSourceRepair":"make_valid; retain polygonal components; discard zero-area collapsed lines","legalBoundaryIndependentlyVerified":false,"areaId":"10439a9a-c6c3-457a-82cd-f87b547d4506"},"geometry":{"type":"Polygon","coordinates":[[[100.480932,13.935354],[100.47882,13.942684],[100.487704,13.944541],[100.488021,13.943828],[100.489138,13.942663],[100.490564,13.941946],[100.491404,13.940921],[100.492359,13.941098],[100.492803,13.940589],[100.493495,13.940383],[100.494096,13.940723],[100.494581,13.940305],[100.49524,13.940215],[100.495438,13.93962],[100.496659,13.939415],[100.497247,13.938972],[100.497836,13.939082],[100.498263,13.938393],[100.499441,13.937752],[100.500156,13.936991],[100.501782,13.936719],[100.501985,13.937177],[100.502116,13.937075],[100.502288,13.936623],[100.501189,13.934597],[100.499167,13.923627],[100.494932,13.916623],[100.490559,13.914933],[100.485069,13.934634],[100.480932,13.935354]]]},"bbox":[100.47882,13.914933,100.502288,13.944541]},{"type":"Feature","id":"72688c9d-1d35-4858-b9cf-840302c9afd5","properties":{"id":"72688c9d-1d35-4858-b9cf-840302c9afd5","code":"06120608","provinceCode":"12","nameTh":"องค์การบริหารส่วนตำบล อ้อมเกร็ด","nameEn":null,"geometryType":"MUNICIPALITY","sourceUrl":"https://landometer.com/api/v2/citymeter-v3/grocery/info/geom/72688c9d-1d35-4858-b9cf-840302c9afd5/MUNICIPALITY","sourceSha256":"9c4a53499f47997092a35142667c39b4e36761d6f508e3eda29ff8afbd3a4bdf","retrievedAt":"2026-10-04T05:42:26.065139+00:00","boundaryVintage":null,"geometryStatus":"native_source_polygon_display_simplified","simplificationToleranceDegrees":0.00015,"simplificationPreservesTopology":true,"invalidSourceRepair":"make_valid; retain polygonal components; discard zero-area collapsed lines","legalBoundaryIndependentlyVerified":false,"areaId":"72688c9d-1d35-4858-b9cf-840302c9afd5"},"geometry":{"type":"Polygon","coordinates":[[[100.459975,13.911211],[100.466148,13.912819],[100.468124,13.908778],[100.467999,13.908151],[100.467266,13.907777],[100.466157,13.908733],[100.463741,13.908683],[100.461459,13.90449],[100.450191,13.897805],[100.448226,13.898092],[100.444272,13.89784],[100.442548,13.898215],[100.439345,13.89941],[100.444086,13.914062],[100.452425,13.913804],[100.452455,13.912011],[100.457561,13.913204],[100.459975,13.911211]]]},"bbox":[100.439345,13.897795,100.468124,13.914062]}]}
