{"type":"FeatureCollection","metadata":{"provinceCode":"13","source":"CityMETER native source fine polygons","retrievedAt":"2026-10-04T05:47:42.252978+00:00","total":64,"retrieved":64,"displaySimplificationToleranceDegrees":0.00015,"legalBoundaryIndependentlyVerified":false},"features":[{"type":"Feature","id":"9b228094-65df-413a-9a4f-4b84bd153c3f","properties":{"id":"9b228094-65df-413a-9a4f-4b84bd153c3f","code":"03130301","provinceCode":"13","nameTh":"เทศบาลนคร รังสิต","nameEn":null,"geometryType":"MUNICIPALITY","sourceUrl":"https://landometer.com/api/v2/citymeter-v3/grocery/info/geom/9b228094-65df-413a-9a4f-4b84bd153c3f/MUNICIPALITY","sourceSha256":"3913061db280c0f1196ccc1bc64dc4a3fbf239b4f16aaed1d325cc80a6aa48d8","retrievedAt":"2026-10-04T05:42:26.156057+00:00","boundaryVintage":null,"geometryStatus":"native_source_polygon_display_simplified","simplificationToleranceDegrees":0.00015,"simplificationPreservesTopology":true,"invalidSourceRepair":"make_valid; retain polygonal components; discard zero-area collapsed lines","legalBoundaryIndependentlyVerified":false,"areaId":"9b228094-65df-413a-9a4f-4b84bd153c3f"},"geometry":{"type":"Polygon","coordinates":[[[100.631905,14.002678],[100.642191,14.004827],[100.642508,14.005117],[100.653224,14.007464],[100.663998,14.008167],[100.663479,13.979449],[100.641596,13.97456],[100.64159,13.974305],[100.624455,13.970424],[100.605139,13.96555],[100.60143,13.99561],[100.631905,14.002678]]]},"bbox":[100.60143,13.96555,100.663998,14.008167]},{"type":"Feature","id":"86e0fb54-b31b-4c8a-a378-41ad05167a59","properties":{"id":"86e0fb54-b31b-4c8a-a378-41ad05167a59","code":"04130102","provinceCode":"13","nameTh":"เทศบาลเมือง ปทุมธานี","nameEn":null,"geometryType":"MUNICIPALITY","sourceUrl":"https://landometer.com/api/v2/citymeter-v3/grocery/info/geom/86e0fb54-b31b-4c8a-a378-41ad05167a59/MUNICIPALITY","sourceSha256":"5a8883467c9c63d4f72db073bd29dc96c6ff992109e7abee7e36197ae77ec751","retrievedAt":"2026-10-04T05:42:26.164131+00:00","boundaryVintage":null,"geometryStatus":"native_source_polygon_display_simplified","simplificationToleranceDegrees":0.00015,"simplificationPreservesTopology":true,"invalidSourceRepair":"make_valid; retain polygonal components; discard zero-area collapsed lines","legalBoundaryIndependentlyVerified":false,"areaId":"86e0fb54-b31b-4c8a-a378-41ad05167a59"},"geometry":{"type":"MultiPolygon","coordinates":[[[[100.522032,14.011385],[100.514805,14.013383],[100.516977,14.021867],[100.51577,14.026172],[100.523968,14.025166],[100.523959,14.031871],[100.523647,14.03188],[100.524308,14.031862],[100.525472,14.031808],[100.531971,14.031277],[100.534292,14.032228],[100.53547,14.031769],[100.538688,14.031419],[100.542902,14.030044],[100.545395,14.033479],[100.546672,14.034843],[100.55069708423541,14.037842072036609],[100.536389,14.02306],[100.53741,14.010585],[100.540112,14.001327],[100.53917,13.998154],[100.535182,13.994577],[100.527143,14.007331],[100.522032,14.011385]]],[[[100.55069708423541,14.037842072036609],[100.550698,14.037843],[100.551046,14.038091],[100.55069708423541,14.037842072036609]]]]},"bbox":[100.514805,13.994577,100.551046,14.038091]},{"type":"Feature","id":"fe5b408c-93de-49f0-8dcc-5b828a7fe51c","properties":{"id":"fe5b408c-93de-49f0-8dcc-5b828a7fe51c","code":"04130103","provinceCode":"13","nameTh":"เทศบาลเมือง บางคูวัด","nameEn":null,"geometryType":"MUNICIPALITY","sourceUrl":"https://landometer.com/api/v2/citymeter-v3/grocery/info/geom/fe5b408c-93de-49f0-8dcc-5b828a7fe51c/MUNICIPALITY","sourceSha256":"aa1e96015dbf3c18a0a9e709916c3513f4dba0fa4b72f00fe6594b6f047bd1f0","retrievedAt":"2026-10-04T05:42:26.157519+00:00","boundaryVintage":null,"geometryStatus":"native_source_polygon_display_simplified","simplificationToleranceDegrees":0.00015,"simplificationPreservesTopology":true,"invalidSourceRepair":"make_valid; retain polygonal components; discard zero-area collapsed lines","legalBoundaryIndependentlyVerified":false,"areaId":"fe5b408c-93de-49f0-8dcc-5b828a7fe51c"},"geometry":{"type":"MultiPolygon","coordinates":[[[[100.523493,13.946367],[100.521823,13.943798],[100.513181,13.943899],[100.510519,13.943609],[100.508426,13.943052],[100.506246,13.941874],[100.503937,13.940043],[100.502843,13.938785],[100.501782,13.936719],[100.500156,13.936991],[100.499441,13.937752],[100.498263,13.938393],[100.49785,13.939075],[100.497247,13.938972],[100.496659,13.939415],[100.495438,13.93962],[100.49524,13.940215],[100.494581,13.940305],[100.494096,13.940723],[100.493509,13.940382],[100.492803,13.940589],[100.492359,13.941098],[100.491433,13.940906],[100.490564,13.941946],[100.489138,13.942663],[100.488021,13.943828],[100.487447,13.944844],[100.487385,13.945141],[100.488125,13.94548],[100.488593,13.946098],[100.487265,13.947565],[100.486225,13.95014],[100.484335,13.951467],[100.476237,13.960444],[100.473803,13.96227],[100.466931,13.968707],[100.466945,13.970493],[100.465481,13.970293],[100.464894,13.97142],[100.462417,13.970695],[100.462262,13.971654],[100.464523,13.972582],[100.464926,13.971777],[100.467305,13.97289],[100.467327,13.973319],[100.468856,13.973023],[100.4708,13.973],[100.469942,13.974306],[100.473396,13.976348],[100.472692,13.977639],[100.473508,13.978055],[100.472427,13.979454],[100.472133,13.979312],[100.471139,13.980062],[100.470553,13.980916],[100.469989,13.980745],[100.469765,13.981495],[100.471756,13.982287],[100.47151972296815,13.982858010188629],[100.473222,13.982882],[100.474608,13.983901],[100.478069,13.98395],[100.4842,13.989388],[100.487358,13.990033],[100.503395,13.983826],[100.506455,13.975962],[100.522966,13.958927],[100.52473,13.956861],[100.523493,13.946367]]],[[[100.506455,13.975962],[100.507313,13.97579],[100.507342,13.975731],[100.506455,13.975962]]],[[[100.47151972296815,13.982858010188629],[100.471519,13.982858],[100.471793,13.983072],[100.47151972296815,13.982858010188629]]]]},"bbox":[100.462262,13.936719,100.52473,13.990033]},{"type":"Feature","id":"a1191db2-b05c-47ba-8f75-b4ebaf47aef7","properties":{"id":"a1191db2-b05c-47ba-8f75-b4ebaf47aef7","code":"04130110","provinceCode":"13","nameTh":"เทศบาลเมือง บางกะดี","nameEn":null,"geometryType":"MUNICIPALITY","sourceUrl":"https://landometer.com/api/v2/citymeter-v3/grocery/info/geom/a1191db2-b05c-47ba-8f75-b4ebaf47aef7/MUNICIPALITY","sourceSha256":"fdec1950acf300049066d2497ed22121471622745d6477d2050ab31c6251b951","retrievedAt":"2026-10-04T05:42:26.154824+00:00","boundaryVintage":null,"geometryStatus":"native_source_polygon_display_simplified","simplificationToleranceDegrees":0.00015,"simplificationPreservesTopology":true,"invalidSourceRepair":"make_valid; retain polygonal components; discard zero-area collapsed lines","legalBoundaryIndependentlyVerified":false,"areaId":"a1191db2-b05c-47ba-8f75-b4ebaf47aef7"},"geometry":{"type":"Polygon","coordinates":[[[100.567649,13.989482],[100.570458,13.978343],[100.562929,13.976016],[100.562439,13.979235],[100.56,13.978668],[100.558423,13.973638],[100.550661,13.975291],[100.550658,13.973676],[100.545686,13.975696],[100.545686,13.974423],[100.532327,13.968293],[100.530445,13.971315],[100.526744,13.978453],[100.526323,13.983866],[100.529449,13.990783],[100.535182,13.994577],[100.53917,13.998154],[100.540112,14.001327],[100.538484,14.006906],[100.540091,14.002017],[100.544997,14.002575],[100.548606,14.000891],[100.554596,13.991577],[100.56317,13.989177],[100.567649,13.989482]]]},"bbox":[100.526323,13.968293,100.570458,14.006906]},{"type":"Feature","id":"ae4290b4-f1ff-46d6-8b45-49d01e4317bd","properties":{"id":"ae4290b4-f1ff-46d6-8b45-49d01e4317bd","code":"04130201","provinceCode":"13","nameTh":"เทศบาลเมือง ท่าโขลง","nameEn":null,"geometryType":"MUNICIPALITY","sourceUrl":"https://landometer.com/api/v2/citymeter-v3/grocery/info/geom/ae4290b4-f1ff-46d6-8b45-49d01e4317bd/MUNICIPALITY","sourceSha256":"42fb20f08a875bd33a08ef153a53a7b6b6cd411fcc14e964186baff0cf8b6342","retrievedAt":"2026-10-04T05:42:26.164023+00:00","boundaryVintage":null,"geometryStatus":"native_source_polygon_display_simplified","simplificationToleranceDegrees":0.00015,"simplificationPreservesTopology":true,"invalidSourceRepair":"make_valid; retain polygonal components; discard zero-area collapsed lines","legalBoundaryIndependentlyVerified":false,"areaId":"ae4290b4-f1ff-46d6-8b45-49d01e4317bd"},"geometry":{"type":"MultiPolygon","coordinates":[[[[100.590568,14.066008],[100.590401,14.067096],[100.59040125821552,14.067096109245025],[100.590568,14.066008]]],[[[100.584372,14.128893],[100.586863,14.129309],[100.587752,14.129713],[100.588375,14.13054],[100.589184,14.131085],[100.59333,14.13237],[100.597407,14.132347],[100.601088,14.134258],[100.601812,14.135016],[100.603256,14.135349],[100.605113,14.135076],[100.606901,14.136215],[100.608979,14.134666],[100.61482,14.128954],[100.619828,14.12899],[100.619673,14.143123],[100.651799,14.159994],[100.652898,14.160551],[100.653268,14.160331],[100.653336,14.160144],[100.65249712750116,14.159693068537576],[100.652494,14.160303],[100.652497,14.159693],[100.652767,14.107062],[100.6525820412851,14.143133014431832],[100.65298,14.065639],[100.590656,14.066228],[100.586691,14.090969],[100.58214,14.128637],[100.583284,14.129065],[100.584372,14.128893]]],[[[100.6525820412851,14.143133014431832],[100.652497,14.159693],[100.65249712750116,14.159693068537576],[100.6525820412851,14.143133014431832]]]]},"bbox":[100.58214,14.065639,100.653336,14.160551]},{"type":"Feature","id":"5e889398-fda3-486c-9bd6-fc825d05e80e","properties":{"id":"5e889398-fda3-486c-9bd6-fc825d05e80e","code":"04130202","provinceCode":"13","nameTh":"เทศบาลเมือง คลองหลวง","nameEn":null,"geometryType":"MUNICIPALITY","sourceUrl":"https://landometer.com/api/v2/citymeter-v3/grocery/info/geom/5e889398-fda3-486c-9bd6-fc825d05e80e/MUNICIPALITY","sourceSha256":"ffabfa4db252b5cf657e0d9e218cf5c108ead57fd3cd698a85acf5e1eb8c68d0","retrievedAt":"2026-10-04T05:42:26.164493+00:00","boundaryVintage":null,"geometryStatus":"native_source_polygon_display_simplified","simplificationToleranceDegrees":0.00015,"simplificationPreservesTopology":true,"invalidSourceRepair":"make_valid; retain polygonal components; discard zero-area collapsed lines","legalBoundaryIndependentlyVerified":false,"areaId":"5e889398-fda3-486c-9bd6-fc825d05e80e"},"geometry":{"type":"MultiPolygon","coordinates":[[[[100.631893,14.002664],[100.60143,13.99561],[100.597369,14.028448],[100.593201,14.049239],[100.59040125821552,14.067096109245025],[100.590505,14.06714],[100.590656,14.066228],[100.65298,14.065639],[100.653277,14.007649],[100.654275,14.007862],[100.654233,14.00753],[100.656711,14.007692],[100.653224,14.007464],[100.642508,14.005117],[100.642191,14.004827],[100.639466,14.004203],[100.631893,14.002664]]],[[[100.590218,14.068292],[100.59040125821552,14.067096109245025],[100.590401,14.067096],[100.590218,14.068292]]]]},"bbox":[100.590218,13.99561,100.656711,14.068292]},{"type":"Feature","id":"68e40286-c123-4c1e-87fc-d6a1aa9cac3a","properties":{"id":"68e40286-c123-4c1e-87fc-d6a1aa9cac3a","code":"04130302","provinceCode":"13","nameTh":"เทศบาลเมือง บึงยี่โถ","nameEn":null,"geometryType":"MUNICIPALITY","sourceUrl":"https://landometer.com/api/v2/citymeter-v3/grocery/info/geom/68e40286-c123-4c1e-87fc-d6a1aa9cac3a/MUNICIPALITY","sourceSha256":"04f6f77edfca25b6c2d2aed8a1aa2bd6656015e6eabb6c7508252d357375ee79","retrievedAt":"2026-10-04T05:42:26.157922+00:00","boundaryVintage":null,"geometryStatus":"native_source_polygon_display_simplified","simplificationToleranceDegrees":0.00015,"simplificationPreservesTopology":true,"invalidSourceRepair":"make_valid; retain polygonal components; discard zero-area collapsed lines","legalBoundaryIndependentlyVerified":false,"areaId":"68e40286-c123-4c1e-87fc-d6a1aa9cac3a"},"geometry":{"type":"MultiPolygon","coordinates":[[[[100.676339,14.009046],[100.678961,14.00974],[100.682625,14.01117],[100.704077,14.020804],[100.70986,14.023861],[100.709867,14.025161],[100.710068,14.009432],[100.7072372242294,13.99738806484966],[100.734123,14.005181],[100.720015,13.999841],[100.719386,13.996924],[100.717945,13.996047],[100.714977,13.99502],[100.708325,13.994939],[100.706382,13.993867],[100.697161,13.991319],[100.697088,13.987577],[100.691765,13.985298],[100.685881,13.984242],[100.669822,13.980639],[100.663479,13.979449],[100.66399798625247,14.00816623930302],[100.668768,14.00829],[100.676339,14.009046]],[[100.707237,13.997388],[100.706459,13.994077],[100.7072372242294,13.99738806484966],[100.707237,13.997388]],[[100.706443,13.993901],[100.706414,13.993885],[100.7064400952381,13.993899380952387],[100.706443,13.993901]]],[[[100.663998,14.008167],[100.66399798625247,14.00816623930302],[100.655786,14.007631],[100.663998,14.008167]]]]},"bbox":[100.655786,13.979449,100.734123,14.025161]},{"type":"Feature","id":"b1343c81-8600-40bd-a914-90f1e99e4ab0","properties":{"id":"b1343c81-8600-40bd-a914-90f1e99e4ab0","code":"04130303","provinceCode":"13","nameTh":"เทศบาลเมือง สนั่นรักษ์","nameEn":null,"geometryType":"MUNICIPALITY","sourceUrl":"https://landometer.com/api/v2/citymeter-v3/grocery/info/geom/b1343c81-8600-40bd-a914-90f1e99e4ab0/MUNICIPALITY","sourceSha256":"c74dfa136ae64b21da4b64eafb92c463848fcc54836fb2d62d7779a353bed710","retrievedAt":"2026-10-04T05:42:26.164537+00:00","boundaryVintage":null,"geometryStatus":"native_source_polygon_display_simplified","simplificationToleranceDegrees":0.00015,"simplificationPreservesTopology":true,"invalidSourceRepair":"make_valid; retain polygonal components; discard zero-area collapsed lines","legalBoundaryIndependentlyVerified":false,"areaId":"b1343c81-8600-40bd-a914-90f1e99e4ab0"},"geometry":{"type":"Polygon","coordinates":[[[100.800982,14.058033],[100.755898,14.042908],[100.744481,14.037675],[100.74448,14.037906],[100.731583,14.032256],[100.731554,14.033285],[100.742994,14.038312],[100.743013,14.039251],[100.74323,14.039255],[100.743293,14.03976],[100.755161,14.044736],[100.758787,14.045677],[100.823883,14.067865],[100.914138,14.099629],[100.914906,14.084214],[100.914758,14.083976],[100.914942,14.083389],[100.914836,14.068209],[100.858782,14.048601],[100.853535,14.046719],[100.853496,14.04623],[100.845985,14.043783],[100.845991,14.044051],[100.841982,14.042768],[100.800475,14.028366],[100.800544,14.029316],[100.794208,14.02715],[100.800296,14.029393],[100.800982,14.058033]]]},"bbox":[100.731554,14.02715,100.914942,14.099629]},{"type":"Feature","id":"7f91bab9-54fd-478d-bc25-2be385c6daa6","properties":{"id":"7f91bab9-54fd-478d-bc25-2be385c6daa6","code":"04130601","provinceCode":"13","nameTh":"เทศบาลเมือง คูคต","nameEn":null,"geometryType":"MUNICIPALITY","sourceUrl":"https://landometer.com/api/v2/citymeter-v3/grocery/info/geom/7f91bab9-54fd-478d-bc25-2be385c6daa6/MUNICIPALITY","sourceSha256":"48a61cbaa0c29b4cf6cb4c16870f60973ee18118e8869110d6a60dcf3301aabe","retrievedAt":"2026-10-04T05:42:26.235645+00:00","boundaryVintage":null,"geometryStatus":"native_source_polygon_display_simplified","simplificationToleranceDegrees":0.00015,"simplificationPreservesTopology":true,"invalidSourceRepair":"make_valid; retain polygonal components; discard zero-area collapsed lines","legalBoundaryIndependentlyVerified":false,"areaId":"7f91bab9-54fd-478d-bc25-2be385c6daa6"},"geometry":{"type":"Polygon","coordinates":[[[100.639772,13.937588],[100.625524,13.938205],[100.625439,13.947259],[100.625049,13.948688],[100.622545,13.950251],[100.612847,13.955198],[100.610951,13.955133],[100.610975,13.954558],[100.606526,13.954378],[100.605139,13.96555],[100.623105,13.970071],[100.624581,13.965766],[100.640383,13.957168],[100.651932,13.960577],[100.651056,13.930907],[100.641529,13.931312],[100.640629,13.931518],[100.639614,13.932373],[100.639772,13.937588]]]},"bbox":[100.605139,13.930907,100.651932,13.970071]},{"type":"Feature","id":"0f80dfb4-35ba-4ad7-ad8e-f07731531a10","properties":{"id":"0f80dfb4-35ba-4ad7-ad8e-f07731531a10","code":"04130602","provinceCode":"13","nameTh":"เทศบาลเมือง ลำสามแก้ว","nameEn":null,"geometryType":"MUNICIPALITY","sourceUrl":"https://landometer.com/api/v2/citymeter-v3/grocery/info/geom/0f80dfb4-35ba-4ad7-ad8e-f07731531a10/MUNICIPALITY","sourceSha256":"cef93da62b24666113a29fc365cc1493ec4231ab9300d9b38f30695abbb2819e","retrievedAt":"2026-10-04T05:42:26.234108+00:00","boundaryVintage":null,"geometryStatus":"native_source_polygon_display_simplified","simplificationToleranceDegrees":0.00015,"simplificationPreservesTopology":true,"invalidSourceRepair":"make_valid; retain polygonal components; discard zero-area collapsed lines","legalBoundaryIndependentlyVerified":false,"areaId":"0f80dfb4-35ba-4ad7-ad8e-f07731531a10"},"geometry":{"type":"Polygon","coordinates":[[[100.662512,13.930441],[100.651056,13.930907],[100.651932,13.960577],[100.640383,13.957168],[100.624581,13.965766],[100.623105,13.970071],[100.64159,13.974305],[100.641596,13.97456],[100.664285,13.979616],[100.663476,13.979319],[100.662512,13.930441]]]},"bbox":[100.623105,13.930439,100.664342,13.979616]},{"type":"Feature","id":"56797416-f2ab-441c-b174-3a0deb6ad172","properties":{"id":"56797416-f2ab-441c-b174-3a0deb6ad172","code":"04130603","provinceCode":"13","nameTh":"เทศบาลเมือง ลาดสวาย","nameEn":null,"geometryType":"MUNICIPALITY","sourceUrl":"https://landometer.com/api/v2/citymeter-v3/grocery/info/geom/56797416-f2ab-441c-b174-3a0deb6ad172/MUNICIPALITY","sourceSha256":"fa0843a4835c1c20bd82db9dbf47e522d623c53338c7ec79052f9b3198fb9c0e","retrievedAt":"2026-10-04T05:42:26.241196+00:00","boundaryVintage":null,"geometryStatus":"native_source_polygon_display_simplified","simplificationToleranceDegrees":0.00015,"simplificationPreservesTopology":true,"invalidSourceRepair":"make_valid; retain polygonal components; discard zero-area collapsed lines","legalBoundaryIndependentlyVerified":false,"areaId":"56797416-f2ab-441c-b174-3a0deb6ad172"},"geometry":{"type":"MultiPolygon","coordinates":[[[[100.704441,13.916783],[100.686953,13.916254],[100.687542,13.917421],[100.687123,13.920832],[100.687812,13.922868],[100.68849,13.923876],[100.68874,13.925168],[100.689301,13.925884],[100.689731,13.931053],[100.667653,13.930371],[100.662559,13.930439],[100.663476,13.979319],[100.6642853026324,13.979615357569852],[100.669822,13.980639],[100.685881,13.984242],[100.691765,13.985298],[100.697088,13.987577],[100.697161,13.991319],[100.70562,13.99376],[100.70557800834416,13.992128324230436],[100.706032,13.992164],[100.706571,13.991808],[100.705845,13.963104],[100.705716,13.984263],[100.706037,13.931585],[100.707908,13.931592],[100.704853,13.920455],[100.703282,13.916759],[100.704441,13.916783]],[[100.705383,13.992113],[100.705578,13.992128],[100.70557800834416,13.992128324230436],[100.705383,13.992113]]],[[[100.664285,13.979616],[100.6642853026324,13.979615357569852],[100.663484,13.97945],[100.664285,13.979616]]]]},"bbox":[100.662559,13.916254,100.707908,13.99376]},{"type":"Feature","id":"8ae56290-c2a4-4787-86c0-f553ea1f942b","properties":{"id":"8ae56290-c2a4-4787-86c0-f553ea1f942b","code":"05130104","provinceCode":"13","nameTh":"เทศบาลตำบล บางขะแยง","nameEn":null,"geometryType":"MUNICIPALITY","sourceUrl":"https://landometer.com/api/v2/citymeter-v3/grocery/info/geom/8ae56290-c2a4-4787-86c0-f553ea1f942b/MUNICIPALITY","sourceSha256":"56f5410e0517f60cce1a82da4cb652d7790fe228936cdcc15c1d5f7c6f929a62","retrievedAt":"2026-10-04T05:42:26.232523+00:00","boundaryVintage":null,"geometryStatus":"native_source_polygon_display_simplified","simplificationToleranceDegrees":0.00015,"simplificationPreservesTopology":true,"invalidSourceRepair":"make_valid; retain polygonal components; discard zero-area collapsed lines","legalBoundaryIndependentlyVerified":false,"areaId":"8ae56290-c2a4-4787-86c0-f553ea1f942b"},"geometry":{"type":"MultiPolygon","coordinates":[[[[100.540106,13.955663],[100.54010640495125,13.95566376169403],[100.540773,13.955642],[100.540106,13.955663]]],[[[100.538658,13.95304],[100.537643,13.950737],[100.53531,13.947687],[100.532894,13.945963],[100.531157,13.945058],[100.528231,13.944026],[100.525788,13.943629],[100.521946,13.94351],[100.517954,13.943756],[100.521823,13.943798],[100.523488,13.946325],[100.52473,13.956861],[100.522966,13.958927],[100.506455,13.975962],[100.51818,13.973614],[100.528068,13.97513],[100.540148,13.955742],[100.539027,13.955699],[100.538658,13.95304]]]]},"bbox":[100.506455,13.94351,100.540773,13.975962]},{"type":"Feature","id":"a1c04922-7b8a-4475-b25a-e9cdaaaf604e","properties":{"id":"a1c04922-7b8a-4475-b25a-e9cdaaaf604e","code":"05130105","provinceCode":"13","nameTh":"เทศบาลตำบล บางเดื่อ","nameEn":null,"geometryType":"MUNICIPALITY","sourceUrl":"https://landometer.com/api/v2/citymeter-v3/grocery/info/geom/a1c04922-7b8a-4475-b25a-e9cdaaaf604e/MUNICIPALITY","sourceSha256":"b52f504ece0e9c6d135135d528ef291b3cc8030fa32ce07aed9e6d1c4c52fb27","retrievedAt":"2026-10-04T05:42:26.241111+00:00","boundaryVintage":null,"geometryStatus":"native_source_polygon_display_simplified","simplificationToleranceDegrees":0.00015,"simplificationPreservesTopology":true,"invalidSourceRepair":"make_valid; retain polygonal components; discard zero-area collapsed lines","legalBoundaryIndependentlyVerified":false,"areaId":"a1c04922-7b8a-4475-b25a-e9cdaaaf604e"},"geometry":{"type":"Polygon","coordinates":[[[100.51818,13.973614],[100.506455,13.975962],[100.503395,13.983826],[100.487358,13.990033],[100.4842,13.989388],[100.478069,13.98395],[100.474608,13.983901],[100.473222,13.982882],[100.471498,13.982841],[100.469818,13.985741],[100.469578,13.985614],[100.467063,13.987484],[100.467947,13.989194],[100.469163,13.988242],[100.470272,13.989307],[100.470403,13.991112],[100.471341,13.991111],[100.471162,13.992866],[100.4703,13.993096],[100.470807,13.996843],[100.469346,13.997826],[100.462485,14.001211],[100.454697,14.005702],[100.448628,14.008026],[100.449182,14.011993],[100.450094,14.015261],[100.472194,14.008396],[100.485526,13.998265],[100.495538,14.000082],[100.499529,13.997489],[100.507849,13.999782],[100.510725,13.996311],[100.515415,13.994459],[100.513678,13.98553],[100.526259,13.983723],[100.526323,13.983866],[100.526744,13.978453],[100.530445,13.971315],[100.528068,13.97513],[100.51818,13.973614]]]},"bbox":[100.448628,13.971315,100.530445,14.015261]},{"type":"Feature","id":"204d0ac4-630e-48ad-a0ef-cb81f80eb0f9","properties":{"id":"204d0ac4-630e-48ad-a0ef-cb81f80eb0f9","code":"05130106","provinceCode":"13","nameTh":"เทศบาลตำบล บางพูน","nameEn":null,"geometryType":"MUNICIPALITY","sourceUrl":"https://landometer.com/api/v2/citymeter-v3/grocery/info/geom/204d0ac4-630e-48ad-a0ef-cb81f80eb0f9/MUNICIPALITY","sourceSha256":"27aaa7fa8679d81fe04fa70548d724aff19ce046224230ecc0bec58e29430514","retrievedAt":"2026-10-04T05:42:26.240981+00:00","boundaryVintage":null,"geometryStatus":"native_source_polygon_display_simplified","simplificationToleranceDegrees":0.00015,"simplificationPreservesTopology":true,"invalidSourceRepair":"make_valid; retain polygonal components; discard zero-area collapsed lines","legalBoundaryIndependentlyVerified":false,"areaId":"204d0ac4-630e-48ad-a0ef-cb81f80eb0f9"},"geometry":{"type":"Polygon","coordinates":[[[100.597527,14.000666],[100.600797,14.000857],[100.603292,13.980605],[100.571905,13.972692],[100.567649,13.989482],[100.572486,13.991203],[100.577681,13.996116],[100.580309,14.004397],[100.588748,14.004479],[100.591331,13.996614],[100.597527,14.000666]]]},"bbox":[100.567649,13.972692,100.603292,14.004479]},{"type":"Feature","id":"5506e594-6d2d-49ea-9b05-04015c934a13","properties":{"id":"5506e594-6d2d-49ea-9b05-04015c934a13","code":"05130107","provinceCode":"13","nameTh":"เทศบาลตำบล บ้านกลาง","nameEn":null,"geometryType":"MUNICIPALITY","sourceUrl":"https://landometer.com/api/v2/citymeter-v3/grocery/info/geom/5506e594-6d2d-49ea-9b05-04015c934a13/MUNICIPALITY","sourceSha256":"48dd712381099db5fa9d0e0be0cbd10633c6be2da393a97ae44e6772881bf2c9","retrievedAt":"2026-10-04T05:42:26.251684+00:00","boundaryVintage":null,"geometryStatus":"native_source_polygon_display_simplified","simplificationToleranceDegrees":0.00015,"simplificationPreservesTopology":true,"invalidSourceRepair":"make_valid; retain polygonal components; discard zero-area collapsed lines","legalBoundaryIndependentlyVerified":false,"areaId":"5506e594-6d2d-49ea-9b05-04015c934a13"},"geometry":{"type":"Polygon","coordinates":[[[100.570369,14.005613],[100.570551,14.004601],[100.571629,14.002191],[100.579619,14.002222],[100.577681,13.996116],[100.572486,13.991203],[100.567649,13.989482],[100.56317,13.989177],[100.554596,13.991577],[100.548606,14.000891],[100.544997,14.002575],[100.540091,14.002017],[100.53741,14.010585],[100.536389,14.02306],[100.540105,14.02694],[100.543826,14.024726],[100.557517,14.022087],[100.556933,14.017364],[100.55618832711444,14.014190014343193],[100.563486,14.01451],[100.564077,14.010436],[100.570369,14.005613]],[[100.556188,14.01419],[100.556117,14.013886],[100.55618832711444,14.014190014343193],[100.556188,14.01419]]]},"bbox":[100.536389,13.989177,100.579619,14.02694]},{"type":"Feature","id":"25d5e1c8-4a1f-4129-b909-8a8a114fc7f5","properties":{"id":"25d5e1c8-4a1f-4129-b909-8a8a114fc7f5","code":"05130108","provinceCode":"13","nameTh":"เทศบาลตำบล บ้านใหม่","nameEn":null,"geometryType":"MUNICIPALITY","sourceUrl":"https://landometer.com/api/v2/citymeter-v3/grocery/info/geom/25d5e1c8-4a1f-4129-b909-8a8a114fc7f5/MUNICIPALITY","sourceSha256":"0dba1c93dff68711da32712a1be46a39ed241478068f1a141955434af1a94c05","retrievedAt":"2026-10-04T05:42:26.235944+00:00","boundaryVintage":null,"geometryStatus":"native_source_polygon_display_simplified","simplificationToleranceDegrees":0.00015,"simplificationPreservesTopology":true,"invalidSourceRepair":"make_valid; retain polygonal components; discard zero-area collapsed lines","legalBoundaryIndependentlyVerified":false,"areaId":"25d5e1c8-4a1f-4129-b909-8a8a114fc7f5"},"geometry":{"type":"MultiPolygon","coordinates":[[[[100.54010640495125,13.95566376169403],[100.540106,13.955663],[100.539027,13.955699],[100.54010640495125,13.95566376169403]]],[[[100.56764,13.951587],[100.567548,13.951203],[100.566798,13.95101],[100.56671,13.950362],[100.565731,13.95062],[100.564582,13.950329],[100.56394,13.949768],[100.562873,13.949571],[100.56203,13.949896],[100.561549,13.949379],[100.561142,13.949871],[100.560589,13.950025],[100.560251,13.950652],[100.558785,13.950617],[100.557111,13.949833],[100.555987,13.950197],[100.554821,13.951563],[100.554521,13.951402],[100.554177,13.95038],[100.553323,13.951392],[100.552469,13.951148],[100.551239,13.951688],[100.548972,13.952203],[100.548356,13.95262],[100.545817,13.952559],[100.545405,13.953334],[100.544697,13.952907],[100.543971,13.953323],[100.544034,13.954417],[100.54199,13.953591],[100.541406,13.954647],[100.5421,13.955423],[100.54010640495125,13.95566376169403],[100.532327,13.968293],[100.545686,13.974423],[100.545686,13.975696],[100.550658,13.973676],[100.550661,13.975291],[100.558423,13.973638],[100.56,13.978668],[100.562439,13.979235],[100.562929,13.976016],[100.570458,13.978343],[100.57217,13.971663],[100.567943,13.951621],[100.56764,13.951587]]]]},"bbox":[100.532327,13.949378,100.57217,13.979235]},{"type":"Feature","id":"e9efcc81-9394-44b2-90cf-a53d5f9af680","properties":{"id":"e9efcc81-9394-44b2-90cf-a53d5f9af680","code":"05130109","provinceCode":"13","nameTh":"เทศบาลตำบล บางหลวง","nameEn":null,"geometryType":"MUNICIPALITY","sourceUrl":"https://landometer.com/api/v2/citymeter-v3/grocery/info/geom/e9efcc81-9394-44b2-90cf-a53d5f9af680/MUNICIPALITY","sourceSha256":"ecab29dd73eb62af052838420ee4bb33ddd865a5d430812aaccd94f067a558ee","retrievedAt":"2026-10-04T05:42:26.410185+00:00","boundaryVintage":null,"geometryStatus":"native_source_polygon_display_simplified","simplificationToleranceDegrees":0.00015,"simplificationPreservesTopology":true,"invalidSourceRepair":"make_valid; retain polygonal components; discard zero-area collapsed lines","legalBoundaryIndependentlyVerified":false,"areaId":"e9efcc81-9394-44b2-90cf-a53d5f9af680"},"geometry":{"type":"Polygon","coordinates":[[[100.535182,13.994577],[100.529449,13.990783],[100.526259,13.983723],[100.513678,13.98553],[100.521855,14.011525],[100.527143,14.007331],[100.535182,13.994577]]]},"bbox":[100.513678,13.983723,100.535182,14.011525]},{"type":"Feature","id":"b2c54f00-a329-48b3-a44c-feb8554e0519","properties":{"id":"b2c54f00-a329-48b3-a44c-feb8554e0519","code":"05130111","provinceCode":"13","nameTh":"เทศบาลตำบล หลักหก","nameEn":null,"geometryType":"MUNICIPALITY","sourceUrl":"https://landometer.com/api/v2/citymeter-v3/grocery/info/geom/b2c54f00-a329-48b3-a44c-feb8554e0519/MUNICIPALITY","sourceSha256":"a132a990a749388265fb6ffb48829c19a0fadf2df42ed037f841bc37f513addd","retrievedAt":"2026-10-04T05:42:26.410392+00:00","boundaryVintage":null,"geometryStatus":"native_source_polygon_display_simplified","simplificationToleranceDegrees":0.00015,"simplificationPreservesTopology":true,"invalidSourceRepair":"make_valid; retain polygonal components; discard zero-area collapsed lines","legalBoundaryIndependentlyVerified":false,"areaId":"b2c54f00-a329-48b3-a44c-feb8554e0519"},"geometry":{"type":"Polygon","coordinates":[[[100.605677,13.9441],[100.591785,13.950338],[100.589424,13.95106],[100.574046,13.954635],[100.572868,13.954223],[100.568555,13.951775],[100.568114,13.951623],[100.56764,13.951587],[100.567813,13.951607],[100.57217,13.971663],[100.571906,13.972692],[100.603334,13.980616],[100.606526,13.954378],[100.604225,13.954255],[100.605677,13.9441]]]},"bbox":[100.56764,13.9441,100.606526,13.980616]},{"type":"Feature","id":"19bf8ae7-89ca-4d89-bde5-69b019d51ca0","properties":{"id":"19bf8ae7-89ca-4d89-bde5-69b019d51ca0","code":"05130304","provinceCode":"13","nameTh":"เทศบาลตำบล ธัญบุรี","nameEn":null,"geometryType":"MUNICIPALITY","sourceUrl":"https://landometer.com/api/v2/citymeter-v3/grocery/info/geom/19bf8ae7-89ca-4d89-bde5-69b019d51ca0/MUNICIPALITY","sourceSha256":"6300c09c2d60d40a304545d42d1ddf7596a8cf2611754913917189d8865baef5","retrievedAt":"2026-10-04T05:42:26.410057+00:00","boundaryVintage":null,"geometryStatus":"native_source_polygon_display_simplified","simplificationToleranceDegrees":0.00015,"simplificationPreservesTopology":true,"invalidSourceRepair":"make_valid; retain polygonal components; discard zero-area collapsed lines","legalBoundaryIndependentlyVerified":false,"areaId":"19bf8ae7-89ca-4d89-bde5-69b019d51ca0"},"geometry":{"type":"Polygon","coordinates":[[[100.755898,14.042908],[100.800982,14.058033],[100.800296,14.029393],[100.794208,14.02715],[100.777697,14.02166],[100.75559,14.013763],[100.734123,14.005181],[100.707237,13.997388],[100.710068,14.009432],[100.709867,14.025161],[100.712751,14.025174],[100.721318,14.03086],[100.722289,14.031245],[100.731565,14.031361],[100.731583,14.032256],[100.74448,14.037906],[100.744481,14.037675],[100.755898,14.042908]]]},"bbox":[100.707237,13.997388,100.800982,14.058033]},{"type":"Feature","id":"fcac26d4-a376-435f-823f-d0937c5e03e8","properties":{"id":"fcac26d4-a376-435f-823f-d0937c5e03e8","code":"05130401","provinceCode":"13","nameTh":"เทศบาลตำบล หนองเสือ","nameEn":null,"geometryType":"MUNICIPALITY","sourceUrl":"https://landometer.com/api/v2/citymeter-v3/grocery/info/geom/fcac26d4-a376-435f-823f-d0937c5e03e8/MUNICIPALITY","sourceSha256":"a5287406ae13aadf41f182015786ee84b90bface82bc3b072ce1c48067184346","retrievedAt":"2026-10-04T05:42:26.409891+00:00","boundaryVintage":null,"geometryStatus":"native_source_polygon_display_simplified","simplificationToleranceDegrees":0.00015,"simplificationPreservesTopology":true,"invalidSourceRepair":"make_valid; retain polygonal components; discard zero-area collapsed lines","legalBoundaryIndependentlyVerified":false,"areaId":"fcac26d4-a376-435f-823f-d0937c5e03e8"},"geometry":{"type":"Polygon","coordinates":[[[100.812284,14.107397],[100.811923,14.156885],[100.812922,14.156895],[100.811705,14.156883],[100.835541,14.157141],[100.83455,14.157111],[100.835016,14.107618],[100.812284,14.107397]]]},"bbox":[100.811705,14.107397,100.835549,14.157141]},{"type":"Feature","id":"44686573-07c7-4114-8b44-d7feab39ebf0","properties":{"id":"44686573-07c7-4114-8b44-d7feab39ebf0","code":"05130501","provinceCode":"13","nameTh":"เทศบาลตำบล คูขวาง","nameEn":null,"geometryType":"MUNICIPALITY","sourceUrl":"https://landometer.com/api/v2/citymeter-v3/grocery/info/geom/44686573-07c7-4114-8b44-d7feab39ebf0/MUNICIPALITY","sourceSha256":"91d0e597d6741c6ea085db29d4e357fea93066cc55b9f3d245ce2d4a7237aa67","retrievedAt":"2026-10-04T05:42:26.410400+00:00","boundaryVintage":null,"geometryStatus":"native_source_polygon_display_simplified","simplificationToleranceDegrees":0.00015,"simplificationPreservesTopology":true,"invalidSourceRepair":"make_valid; retain polygonal components; discard zero-area collapsed lines","legalBoundaryIndependentlyVerified":false,"areaId":"44686573-07c7-4114-8b44-d7feab39ebf0"},"geometry":{"type":"Polygon","coordinates":[[[100.423796,14.059046],[100.423566,14.059912],[100.423732,14.060274],[100.422942,14.075425],[100.42541,14.079023],[100.426066,14.093728],[100.427838,14.096551],[100.427263,14.097096],[100.430685,14.095459],[100.448248,14.089097],[100.452321,14.087198],[100.446914,14.047694],[100.443689,14.040806],[100.433791,14.043106],[100.424057,14.054038],[100.423796,14.059046]],[[100.424049,14.054208],[100.423488,14.064956],[100.42379723388744,14.059022404950854],[100.424049,14.054208]]]},"bbox":[100.422942,14.040806,100.452321,14.097096]},{"type":"Feature","id":"52123901-9b85-4996-b6e5-1fda4005e3df","properties":{"id":"52123901-9b85-4996-b6e5-1fda4005e3df","code":"05130502","provinceCode":"13","nameTh":"เทศบาลตำบล ระแหง","nameEn":null,"geometryType":"MUNICIPALITY","sourceUrl":"https://landometer.com/api/v2/citymeter-v3/grocery/info/geom/52123901-9b85-4996-b6e5-1fda4005e3df/MUNICIPALITY","sourceSha256":"2ad52ea670d877bf054f6b6c9f40d1b7e6540c9739b06a4961e06b1cdffbc497","retrievedAt":"2026-10-04T05:42:26.460758+00:00","boundaryVintage":null,"geometryStatus":"native_source_polygon_display_simplified","simplificationToleranceDegrees":0.00015,"simplificationPreservesTopology":true,"invalidSourceRepair":"make_valid; retain polygonal components; discard zero-area collapsed lines","legalBoundaryIndependentlyVerified":false,"areaId":"52123901-9b85-4996-b6e5-1fda4005e3df"},"geometry":{"type":"Polygon","coordinates":[[[100.422583,14.059716],[100.423566,14.059912],[100.423796,14.059046],[100.424057,14.054038],[100.433791,14.043106],[100.443689,14.040806],[100.44404,14.041211],[100.443487,14.039964],[100.442273,14.016663],[100.411098,14.024443],[100.401313,14.029717],[100.397769,14.055889],[100.400526,14.066041],[100.410808,14.068523],[100.420283,14.06464],[100.420895,14.063691],[100.421626,14.063314],[100.422583,14.059716]]]},"bbox":[100.397769,14.016663,100.44404,14.068531]},{"type":"Feature","id":"fa08e14e-0544-4b7c-9938-35c52ac16714","properties":{"id":"fa08e14e-0544-4b7c-9938-35c52ac16714","code":"05130503","provinceCode":"13","nameTh":"เทศบาลตำบล คลองพระอุดม","nameEn":null,"geometryType":"MUNICIPALITY","sourceUrl":"https://landometer.com/api/v2/citymeter-v3/grocery/info/geom/fa08e14e-0544-4b7c-9938-35c52ac16714/MUNICIPALITY","sourceSha256":"5fb3f73ddfdc0d6e3436ab0ccddad1a3c4c421f8abb4c538590e624994360faa","retrievedAt":"2026-10-04T05:42:26.467770+00:00","boundaryVintage":null,"geometryStatus":"native_source_polygon_display_simplified","simplificationToleranceDegrees":0.00015,"simplificationPreservesTopology":true,"invalidSourceRepair":"make_valid; retain polygonal components; discard zero-area collapsed lines","legalBoundaryIndependentlyVerified":false,"areaId":"fa08e14e-0544-4b7c-9938-35c52ac16714"},"geometry":{"type":"Polygon","coordinates":[[[100.46785,13.989093],[100.467063,13.987484],[100.469578,13.985614],[100.469818,13.985741],[100.471187,13.983661],[100.471756,13.982287],[100.469765,13.981495],[100.469969,13.980776],[100.470553,13.980916],[100.471139,13.980062],[100.472133,13.979312],[100.472427,13.979454],[100.473504,13.978081],[100.472692,13.977639],[100.473396,13.976348],[100.469942,13.974306],[100.4708,13.973],[100.468856,13.973023],[100.467327,13.973319],[100.467305,13.97289],[100.464926,13.971777],[100.464523,13.972582],[100.462229,13.97164],[100.461635,13.974962],[100.460915,13.974751],[100.460612,13.976449],[100.458392,13.976269],[100.457928,13.977517],[100.456802,13.974939],[100.456617,13.970824],[100.455896,13.969757],[100.45473,13.968967],[100.453476,13.967343],[100.448304,13.971033],[100.437444,13.979492],[100.434943,13.981077],[100.423613,13.983804],[100.425608,13.990898],[100.427624,13.990508],[100.430706,13.999094],[100.439317,13.996802],[100.442274,14.016672],[100.443036,14.031296],[100.442607,14.018905],[100.449939,14.015543],[100.45009,14.015158],[100.449182,14.011993],[100.448628,14.008026],[100.454697,14.005702],[100.462485,14.001211],[100.469346,13.997826],[100.470807,13.996843],[100.4703,13.993096],[100.471162,13.992866],[100.471341,13.991111],[100.470403,13.991112],[100.470272,13.989307],[100.469163,13.988242],[100.46785,13.989093]]]},"bbox":[100.423613,13.967343,100.473508,14.031296]},{"type":"Feature","id":"535c5ed4-c067-4952-b7de-8dec303bdbcc","properties":{"id":"535c5ed4-c067-4952-b7de-8dec303bdbcc","code":"05130604","provinceCode":"13","nameTh":"เทศบาลตำบล ลำไทร","nameEn":null,"geometryType":"MUNICIPALITY","sourceUrl":"https://landometer.com/api/v2/citymeter-v3/grocery/info/geom/535c5ed4-c067-4952-b7de-8dec303bdbcc/MUNICIPALITY","sourceSha256":"f27a925f43683f6b8a1ca4b31d9eaa39ce74700cad75634204c091d46145fa06","retrievedAt":"2026-10-04T05:42:26.456615+00:00","boundaryVintage":null,"geometryStatus":"native_source_polygon_display_simplified","simplificationToleranceDegrees":0.00015,"simplificationPreservesTopology":true,"invalidSourceRepair":"make_valid; retain polygonal components; discard zero-area collapsed lines","legalBoundaryIndependentlyVerified":false,"areaId":"535c5ed4-c067-4952-b7de-8dec303bdbcc"},"geometry":{"type":"Polygon","coordinates":[[[100.851127,13.959842],[100.872352,13.962207],[100.872043,13.949018],[100.851089,13.946214],[100.851127,13.959842]]]},"bbox":[100.851089,13.946214,100.872352,13.962207]},{"type":"Feature","id":"eb639054-f014-488a-b87e-d5a9bab1ef4d","properties":{"id":"eb639054-f014-488a-b87e-d5a9bab1ef4d","code":"05130605","provinceCode":"13","nameTh":"เทศบาลตำบล ลำลูกกา","nameEn":null,"geometryType":"MUNICIPALITY","sourceUrl":"https://landometer.com/api/v2/citymeter-v3/grocery/info/geom/eb639054-f014-488a-b87e-d5a9bab1ef4d/MUNICIPALITY","sourceSha256":"8eb0650586790f17ac640f85739b0bef1e9b2677c078296ce5979f08537513f4","retrievedAt":"2026-10-04T05:42:26.493605+00:00","boundaryVintage":null,"geometryStatus":"native_source_polygon_display_simplified","simplificationToleranceDegrees":0.00015,"simplificationPreservesTopology":true,"invalidSourceRepair":"make_valid; retain polygonal components; discard zero-area collapsed lines","legalBoundaryIndependentlyVerified":false,"areaId":"eb639054-f014-488a-b87e-d5a9bab1ef4d"},"geometry":{"type":"Polygon","coordinates":[[[100.772163,13.954374],[100.770156,13.924377],[100.752782,13.918472],[100.769729,13.924232],[100.7526,13.918468],[100.749216,13.918168],[100.728569,13.917453],[100.728443,13.923167],[100.726065,13.925884],[100.726661,13.947101],[100.746612,13.947784],[100.749456,13.947544],[100.749599,13.950847],[100.772163,13.954374]]]},"bbox":[100.726065,13.917453,100.772163,13.954374]},{"type":"Feature","id":"7c5a576f-4307-4a05-ae0f-467413bf121b","properties":{"id":"7c5a576f-4307-4a05-ae0f-467413bf121b","code":"05130701","provinceCode":"13","nameTh":"เทศบาลตำบล สามโคก","nameEn":null,"geometryType":"MUNICIPALITY","sourceUrl":"https://landometer.com/api/v2/citymeter-v3/grocery/info/geom/7c5a576f-4307-4a05-ae0f-467413bf121b/MUNICIPALITY","sourceSha256":"ae491d585dafaa13b0903b4782272d0ef50f201cacc1ea1da60db097c0c0e97a","retrievedAt":"2026-10-04T05:42:26.484872+00:00","boundaryVintage":null,"geometryStatus":"native_source_polygon_display_simplified","simplificationToleranceDegrees":0.00015,"simplificationPreservesTopology":true,"invalidSourceRepair":"make_valid; retain polygonal components; discard zero-area collapsed lines","legalBoundaryIndependentlyVerified":false,"areaId":"7c5a576f-4307-4a05-ae0f-467413bf121b"},"geometry":{"type":"MultiPolygon","coordinates":[[[[100.547783,14.049488],[100.544273,14.048908],[100.542234,14.046235],[100.540091,14.046886],[100.536683,14.041599],[100.531006,14.040647],[100.512174,14.047662],[100.515448,14.052613],[100.532626,14.066428],[100.55011,14.052984],[100.549536,14.049777],[100.547783,14.049488]]],[[[100.548282,14.04957],[100.548657,14.049632],[100.548942,14.049679],[100.548282,14.04957]]]]},"bbox":[100.512174,14.040647,100.55011,14.066428]},{"type":"Feature","id":"44999bbf-80a3-4f77-a377-da76db7808e1","properties":{"id":"44999bbf-80a3-4f77-a377-da76db7808e1","code":"05130702","provinceCode":"13","nameTh":"เทศบาลตำบล บางเตย","nameEn":null,"geometryType":"MUNICIPALITY","sourceUrl":"https://landometer.com/api/v2/citymeter-v3/grocery/info/geom/44999bbf-80a3-4f77-a377-da76db7808e1/MUNICIPALITY","sourceSha256":"bd15fc6d5ca83cc28419b8bd98d6621d21714c6110f06a17863a5219bb94ba6b","retrievedAt":"2026-10-04T05:42:26.487633+00:00","boundaryVintage":null,"geometryStatus":"native_source_polygon_display_simplified","simplificationToleranceDegrees":0.00015,"simplificationPreservesTopology":true,"invalidSourceRepair":"make_valid; retain polygonal components; discard zero-area collapsed lines","legalBoundaryIndependentlyVerified":false,"areaId":"44999bbf-80a3-4f77-a377-da76db7808e1"},"geometry":{"type":"Polygon","coordinates":[[[100.525066,14.073305],[100.531061,14.067401],[100.532626,14.066428],[100.521706,14.057645],[100.4953,14.057455],[100.48997,14.061781],[100.4819,14.069107],[100.481743,14.062144],[100.478535,14.065095],[100.478169,14.065796],[100.478047,14.06827],[100.480254,14.070773],[100.473687,14.075951],[100.469679,14.07877],[100.457221,14.085053],[100.453101,14.086828],[100.452794,14.086993],[100.452151,14.08727],[100.451732,14.087486],[100.452329,14.087256],[100.458315,14.096376],[100.479475,14.081753],[100.493009,14.076478],[100.495348,14.073077],[100.505647,14.074266],[100.506384,14.07297],[100.524235,14.076519],[100.525066,14.073305]]]},"bbox":[100.451732,14.057455,100.532626,14.096376]},{"type":"Feature","id":"97a3ec46-a51f-4862-aba8-6de6389a049a","properties":{"id":"97a3ec46-a51f-4862-aba8-6de6389a049a","code":"05130706","provinceCode":"13","nameTh":"เทศบาลตำบล เชียงรากใหญ่","nameEn":null,"geometryType":"MUNICIPALITY","sourceUrl":"https://landometer.com/api/v2/citymeter-v3/grocery/info/geom/97a3ec46-a51f-4862-aba8-6de6389a049a/MUNICIPALITY","sourceSha256":"f5b3c7433d538aa3e923f2a2e1dc052ab000143dc1626ac75d9196df52d2dde3","retrievedAt":"2026-10-04T05:42:26.492719+00:00","boundaryVintage":null,"geometryStatus":"native_source_polygon_display_simplified","simplificationToleranceDegrees":0.00015,"simplificationPreservesTopology":true,"invalidSourceRepair":"make_valid; retain polygonal components; discard zero-area collapsed lines","legalBoundaryIndependentlyVerified":false,"areaId":"97a3ec46-a51f-4862-aba8-6de6389a049a"},"geometry":{"type":"Polygon","coordinates":[[[100.566175,14.071112],[100.569221,14.078628],[100.571198,14.081976],[100.575528,14.082299],[100.580338,14.079783],[100.585302,14.07451],[100.58554,14.073466],[100.585071,14.073256],[100.585787,14.072324],[100.587139,14.066783],[100.58711,14.066055],[100.587779,14.064439],[100.587399,14.06267],[100.58782,14.062022],[100.587214,14.060366],[100.587548,14.059388],[100.587374,14.057666],[100.587523,14.055853],[100.587051,14.051808],[100.587313,14.049057],[100.585055,14.045449],[100.582447,14.042882],[100.578382,14.040482],[100.576862,14.040081],[100.576521,14.040239],[100.576306,14.040033],[100.575527,14.040411],[100.574955,14.039859],[100.569146,14.039542],[100.567356,14.039083],[100.566048,14.03842],[100.563553,14.038099],[100.554562,14.042106],[100.554924,14.046476],[100.553017,14.050261],[100.563924,14.057794],[100.56595,14.061303],[100.566175,14.071112]]]},"bbox":[100.553017,14.03807,100.587821,14.082299]},{"type":"Feature","id":"da774c8a-06e9-4084-98a5-37a0622340d6","properties":{"id":"da774c8a-06e9-4084-98a5-37a0622340d6","code":"06130112","provinceCode":"13","nameTh":"องค์การบริหารส่วนตำบล บางพูด","nameEn":null,"geometryType":"MUNICIPALITY","sourceUrl":"https://landometer.com/api/v2/citymeter-v3/grocery/info/geom/da774c8a-06e9-4084-98a5-37a0622340d6/MUNICIPALITY","sourceSha256":"49bca1126d1662258bae9c84ad3736f91deb1454aaba31d6da5c65881bf13fd0","retrievedAt":"2026-10-04T05:42:26.497325+00:00","boundaryVintage":null,"geometryStatus":"native_source_polygon_display_simplified","simplificationToleranceDegrees":0.00015,"simplificationPreservesTopology":true,"invalidSourceRepair":"make_valid; retain polygonal components; discard zero-area collapsed lines","legalBoundaryIndependentlyVerified":false,"areaId":"da774c8a-06e9-4084-98a5-37a0622340d6"},"geometry":{"type":"Polygon","coordinates":[[[100.574741,14.030337],[100.564082,14.030707],[100.564297,14.037523],[100.55453,14.041725],[100.553888,14.041074],[100.554409,14.042171],[100.562656,14.038348],[100.564531,14.038078],[100.569146,14.039542],[100.574972,14.039861],[100.575569,14.040416],[100.576293,14.040033],[100.576521,14.040239],[100.576853,14.04008],[100.578029,14.040355],[100.582428,14.042864],[100.585055,14.045449],[100.587313,14.049057],[100.587051,14.051808],[100.587523,14.055853],[100.587374,14.057666],[100.587548,14.059388],[100.587214,14.060366],[100.58782,14.062022],[100.587399,14.06267],[100.587805,14.064289],[100.58711,14.066055],[100.587139,14.066783],[100.585787,14.072324],[100.585071,14.073256],[100.58928,14.074246],[100.593014,14.050316],[100.594868,14.041047],[100.594667,14.042042],[100.596216,14.032871],[100.591369,14.03323],[100.576262,14.028682],[100.574741,14.030337]]]},"bbox":[100.553888,14.028682,100.596216,14.074246]},{"type":"Feature","id":"35f26765-71ea-46bc-b6f8-e29833fc7617","properties":{"id":"35f26765-71ea-46bc-b6f8-e29833fc7617","code":"06130113","provinceCode":"13","nameTh":"องค์การบริหารส่วนตำบล บ้านกระแชง","nameEn":null,"geometryType":"MUNICIPALITY","sourceUrl":"https://landometer.com/api/v2/citymeter-v3/grocery/info/geom/35f26765-71ea-46bc-b6f8-e29833fc7617/MUNICIPALITY","sourceSha256":"5ed6ad8d7e2cfddc9edaf665faafb6218977906e76ec82bdceaed1823f6205c0","retrievedAt":"2026-10-04T05:42:26.537381+00:00","boundaryVintage":null,"geometryStatus":"native_source_polygon_display_simplified","simplificationToleranceDegrees":0.00015,"simplificationPreservesTopology":true,"invalidSourceRepair":"make_valid; retain polygonal components; discard zero-area collapsed lines","legalBoundaryIndependentlyVerified":false,"areaId":"35f26765-71ea-46bc-b6f8-e29833fc7617"},"geometry":{"type":"MultiPolygon","coordinates":[[[[100.543826,14.024726],[100.54,14.027003],[100.55069708409067,14.037842071933346],[100.552593,14.039408],[100.55453,14.041725],[100.564297,14.037523],[100.564041,14.031622],[100.561031,14.032068],[100.561559,14.02863],[100.558347,14.028969],[100.557517,14.022087],[100.543826,14.024726]]],[[[100.550698,14.037843],[100.55069708409067,14.037842071933346],[100.550376,14.037613],[100.550698,14.037843]]]]},"bbox":[100.54,14.022087,100.564297,14.041725]},{"type":"Feature","id":"d41f0ac2-a29c-4d46-bf2f-17b86be88130","properties":{"id":"d41f0ac2-a29c-4d46-bf2f-17b86be88130","code":"06130114","provinceCode":"13","nameTh":"องค์การบริหารส่วนตำบล บางหลวง","nameEn":null,"geometryType":"MUNICIPALITY","sourceUrl":"https://landometer.com/api/v2/citymeter-v3/grocery/info/geom/d41f0ac2-a29c-4d46-bf2f-17b86be88130/MUNICIPALITY","sourceSha256":"898933d914aa8806b0066fc31762e11665790ef731c933b1abaae4f7ffc8a705","retrievedAt":"2026-10-04T05:42:26.530139+00:00","boundaryVintage":null,"geometryStatus":"native_source_polygon_display_simplified","simplificationToleranceDegrees":0.00015,"simplificationPreservesTopology":true,"invalidSourceRepair":"make_valid; retain polygonal components; discard zero-area collapsed lines","legalBoundaryIndependentlyVerified":false,"areaId":"d41f0ac2-a29c-4d46-bf2f-17b86be88130"},"geometry":{"type":"Polygon","coordinates":[[[100.499529,13.997489],[100.495538,14.000082],[100.485526,13.998265],[100.472194,14.008396],[100.450089,14.015219],[100.449919,14.015588],[100.458125,14.028066],[100.479668,14.016205],[100.482991,14.014587],[100.484247,14.017264],[100.486242,14.019158],[100.489968,14.026767],[100.489631,14.025869],[100.513378,14.013625],[100.519262,14.003726],[100.521829,14.011441],[100.513678,13.98553],[100.515415,13.994459],[100.510725,13.996311],[100.507816,13.999773],[100.499529,13.997489]]]},"bbox":[100.449919,13.98553,100.521829,14.028066]},{"type":"Feature","id":"390e77a6-2787-48e0-a4f5-ea491cf2eabf","properties":{"id":"390e77a6-2787-48e0-a4f5-ea491cf2eabf","code":"06130115","provinceCode":"13","nameTh":"องค์การบริหารส่วนตำบล บ้านฉาง","nameEn":null,"geometryType":"MUNICIPALITY","sourceUrl":"https://landometer.com/api/v2/citymeter-v3/grocery/info/geom/390e77a6-2787-48e0-a4f5-ea491cf2eabf/MUNICIPALITY","sourceSha256":"55e83603c06fc501c797ad387ac88666f5cca96c67ebb96a7e82d19752eb4bd3","retrievedAt":"2026-10-04T05:42:26.547036+00:00","boundaryVintage":null,"geometryStatus":"native_source_polygon_display_simplified","simplificationToleranceDegrees":0.00015,"simplificationPreservesTopology":true,"invalidSourceRepair":"make_valid; retain polygonal components; discard zero-area collapsed lines","legalBoundaryIndependentlyVerified":false,"areaId":"390e77a6-2787-48e0-a4f5-ea491cf2eabf"},"geometry":{"type":"Polygon","coordinates":[[[100.489631,14.025869],[100.495543,14.038363],[100.493529,14.039591],[100.493563,14.040022],[100.492908,14.040471],[100.496604,14.047146],[100.521339,14.031974],[100.523959,14.031871],[100.523968,14.025166],[100.51577,14.026172],[100.516977,14.021867],[100.514805,14.013383],[100.521827,14.011442],[100.519262,14.003726],[100.513378,14.013625],[100.489631,14.025869]]]},"bbox":[100.489631,14.003726,100.523968,14.047146]},{"type":"Feature","id":"ef5ce3da-ae74-4e69-8533-83f260831d04","properties":{"id":"ef5ce3da-ae74-4e69-8533-83f260831d04","code":"06130116","provinceCode":"13","nameTh":"องค์การบริหารส่วนตำบล สวนพริกไทย","nameEn":null,"geometryType":"MUNICIPALITY","sourceUrl":"https://landometer.com/api/v2/citymeter-v3/grocery/info/geom/ef5ce3da-ae74-4e69-8533-83f260831d04/MUNICIPALITY","sourceSha256":"22a3319ffab9fa11c98b29853ade5940b82c97bdbd30c9493f22c22301713740","retrievedAt":"2026-10-04T05:42:26.570296+00:00","boundaryVintage":null,"geometryStatus":"native_source_polygon_display_simplified","simplificationToleranceDegrees":0.00015,"simplificationPreservesTopology":true,"invalidSourceRepair":"make_valid; retain polygonal components; discard zero-area collapsed lines","legalBoundaryIndependentlyVerified":false,"areaId":"ef5ce3da-ae74-4e69-8533-83f260831d04"},"geometry":{"type":"Polygon","coordinates":[[[100.591331,13.996614],[100.588748,14.004479],[100.580309,14.004397],[100.579619,14.002222],[100.571629,14.002191],[100.570551,14.004601],[100.570369,14.005613],[100.564077,14.010436],[100.563486,14.01451],[100.556188,14.01419],[100.556933,14.017364],[100.558347,14.028969],[100.561559,14.02863],[100.561031,14.032068],[100.564041,14.031622],[100.564297,14.037523],[100.564082,14.030707],[100.574741,14.030337],[100.576262,14.028682],[100.591369,14.03323],[100.596216,14.032871],[100.594667,14.042042],[100.597369,14.028448],[100.600797,14.000857],[100.597527,14.000666],[100.591331,13.996614]]]},"bbox":[100.556188,13.996614,100.600797,14.042042]},{"type":"Feature","id":"d878d331-1fc8-4594-a151-3680aa01ba02","properties":{"id":"d878d331-1fc8-4594-a151-3680aa01ba02","code":"06130203","provinceCode":"13","nameTh":"องค์การบริหารส่วนตำบล คลองเจ็ด","nameEn":null,"geometryType":"MUNICIPALITY","sourceUrl":"https://landometer.com/api/v2/citymeter-v3/grocery/info/geom/d878d331-1fc8-4594-a151-3680aa01ba02/MUNICIPALITY","sourceSha256":"7d3c2789dc947d9f71e2fdaa54000144f715ee1062e95f1971b7d466b282bc1c","retrievedAt":"2026-10-04T05:42:26.575207+00:00","boundaryVintage":null,"geometryStatus":"native_source_polygon_display_simplified","simplificationToleranceDegrees":0.00015,"simplificationPreservesTopology":true,"invalidSourceRepair":"make_valid; retain polygonal components; discard zero-area collapsed lines","legalBoundaryIndependentlyVerified":false,"areaId":"d878d331-1fc8-4594-a151-3680aa01ba02"},"geometry":{"type":"Polygon","coordinates":[[[100.755051,14.211074],[100.755503,14.044766],[100.752684,14.043806],[100.744144,14.040138],[100.743599,14.205051],[100.742602,14.204551],[100.742599,14.205046],[100.755051,14.211074]]]},"bbox":[100.742599,14.040138,100.755503,14.211074]},{"type":"Feature","id":"2d0a513f-539f-45dc-a5bf-ef0f9a4262cc","properties":{"id":"2d0a513f-539f-45dc-a5bf-ef0f9a4262cc","code":"06130204","provinceCode":"13","nameTh":"องค์การบริหารส่วนตำบล คลองสาม","nameEn":null,"geometryType":"MUNICIPALITY","sourceUrl":"https://landometer.com/api/v2/citymeter-v3/grocery/info/geom/2d0a513f-539f-45dc-a5bf-ef0f9a4262cc/MUNICIPALITY","sourceSha256":"3596d3115a898c5f4abdb3d72022fdb929ebd0170d280dd0119415decb097667","retrievedAt":"2026-10-04T05:42:26.580472+00:00","boundaryVintage":null,"geometryStatus":"native_source_polygon_display_simplified","simplificationToleranceDegrees":0.00015,"simplificationPreservesTopology":true,"invalidSourceRepair":"make_valid; retain polygonal components; discard zero-area collapsed lines","legalBoundaryIndependentlyVerified":false,"areaId":"2d0a513f-539f-45dc-a5bf-ef0f9a4262cc"},"geometry":{"type":"MultiPolygon","coordinates":[[[[100.67653019551418,14.009573603893358],[100.67678,14.009674],[100.676532,14.009574],[100.67653019551418,14.009573603893358]]],[[[100.652898,14.160551],[100.673461,14.17135],[100.673465,14.170865],[100.674461,14.171379],[100.675674,14.012431],[100.674772,14.012239],[100.675107,14.011608],[100.676024,14.011494],[100.677514,14.012051],[100.677386,14.011737],[100.676894,14.011529],[100.676487,14.010651],[100.675297,14.010306],[100.675699,14.009721],[100.67653019551418,14.009573603893358],[100.671949,14.008568],[100.653224,14.007464],[100.654276,14.007655],[100.654275,14.007862],[100.653277,14.007649],[100.65249712848613,14.159693069067039],[100.653336,14.160144],[100.652898,14.160551]]],[[[100.652494,14.160303],[100.65249712848613,14.159693069067039],[100.652497,14.159693],[100.652494,14.160303]]]]},"bbox":[100.652494,14.007464,100.677514,14.171379]},{"type":"Feature","id":"06bde057-8811-4ae6-bcbc-ed478c3a1e93","properties":{"id":"06bde057-8811-4ae6-bcbc-ed478c3a1e93","code":"06130205","provinceCode":"13","nameTh":"องค์การบริหารส่วนตำบล คลองสี่","nameEn":null,"geometryType":"MUNICIPALITY","sourceUrl":"https://landometer.com/api/v2/citymeter-v3/grocery/info/geom/06bde057-8811-4ae6-bcbc-ed478c3a1e93/MUNICIPALITY","sourceSha256":"b4d33e689001e53e7645671577638dae327c7125d6f623d4ae0be482c23eb4e6","retrievedAt":"2026-10-04T05:42:26.580385+00:00","boundaryVintage":null,"geometryStatus":"native_source_polygon_display_simplified","simplificationToleranceDegrees":0.00015,"simplificationPreservesTopology":true,"invalidSourceRepair":"make_valid; retain polygonal components; discard zero-area collapsed lines","legalBoundaryIndependentlyVerified":false,"areaId":"06bde057-8811-4ae6-bcbc-ed478c3a1e93"},"geometry":{"type":"MultiPolygon","coordinates":[[[[100.6983236024443,14.018276537198917],[100.698753,14.018471],[100.698324,14.018276],[100.6983236024443,14.018276537198917]]],[[[100.699404,14.019208],[100.698045,14.018653],[100.6983236024443,14.018276537198917],[100.682625,14.01117],[100.678961,14.00974],[100.675243,14.008856],[100.671949,14.008568],[100.6763,14.009497],[100.676724,14.009621],[100.675699,14.009721],[100.675297,14.010306],[100.676487,14.010651],[100.676894,14.011529],[100.677386,14.011737],[100.677514,14.012051],[100.676024,14.011494],[100.675107,14.011608],[100.674772,14.012239],[100.675674,14.012431],[100.674461,14.171379],[100.673465,14.170865],[100.673461,14.17135],[100.692266,14.181274],[100.698704,14.184334],[100.698443,14.184208],[100.699101,14.184285],[100.699735,14.183726],[100.698882,14.183309],[100.698442,14.020936],[100.697556,14.020605],[100.698194,14.019967],[100.700156,14.020592],[100.700253,14.020235],[100.699404,14.019208]]]]},"bbox":[100.671949,14.008568,100.700253,14.184334]},{"type":"Feature","id":"0107c719-d34e-4803-b84c-581f7518f16e","properties":{"id":"0107c719-d34e-4803-b84c-581f7518f16e","code":"06130206","provinceCode":"13","nameTh":"องค์การบริหารส่วนตำบล คลองหก","nameEn":null,"geometryType":"MUNICIPALITY","sourceUrl":"https://landometer.com/api/v2/citymeter-v3/grocery/info/geom/0107c719-d34e-4803-b84c-581f7518f16e/MUNICIPALITY","sourceSha256":"c2068e1a63cb972b5f937fdc674ecbeac0ef9875600d9d994414b6658b180b57","retrievedAt":"2026-10-04T05:42:26.578029+00:00","boundaryVintage":null,"geometryStatus":"native_source_polygon_display_simplified","simplificationToleranceDegrees":0.00015,"simplificationPreservesTopology":true,"invalidSourceRepair":"make_valid; retain polygonal components; discard zero-area collapsed lines","legalBoundaryIndependentlyVerified":false,"areaId":"0107c719-d34e-4803-b84c-581f7518f16e"},"geometry":{"type":"MultiPolygon","coordinates":[[[[100.744467,14.040296],[100.744671,14.040397],[100.744195,14.040161],[100.744467,14.040296]]],[[[100.731565,14.031361],[100.722427,14.03128],[100.721318,14.03086],[100.720949,14.030608],[100.718158,14.028758],[100.720926,14.030594],[100.72104,14.194134],[100.72189393248469,14.194551191447532],[100.721452,14.194989],[100.723195,14.195779],[100.731677,14.199902],[100.741291,14.204504],[100.743158,14.205386],[100.742599,14.205046],[100.742602,14.204551],[100.743599,14.205051],[100.744144,14.040138],[100.743254,14.039721],[100.74323,14.039255],[100.743013,14.039251],[100.742994,14.038312],[100.742674,14.038131],[100.731554,14.033285],[100.731565,14.031361]]]]},"bbox":[100.718158,14.028758,100.744671,14.205386]},{"type":"Feature","id":"3283e610-700f-4e38-a402-20acf4a50221","properties":{"id":"3283e610-700f-4e38-a402-20acf4a50221","code":"06130207","provinceCode":"13","nameTh":"องค์การบริหารส่วนตำบล คลองห้า","nameEn":null,"geometryType":"MUNICIPALITY","sourceUrl":"https://landometer.com/api/v2/citymeter-v3/grocery/info/geom/3283e610-700f-4e38-a402-20acf4a50221/MUNICIPALITY","sourceSha256":"cc6e4c2c9ebb1c70b936ec3c99febc9390cb6e457a8ce7b73649753799bd64fb","retrievedAt":"2026-10-04T05:42:26.619689+00:00","boundaryVintage":null,"geometryStatus":"native_source_polygon_display_simplified","simplificationToleranceDegrees":0.00015,"simplificationPreservesTopology":true,"invalidSourceRepair":"make_valid; retain polygonal components; discard zero-area collapsed lines","legalBoundaryIndependentlyVerified":false,"areaId":"3283e610-700f-4e38-a402-20acf4a50221"},"geometry":{"type":"Polygon","coordinates":[[[100.699101,14.184285],[100.698443,14.184208],[100.721452,14.194989],[100.721821,14.194758],[100.721894,14.194551],[100.72104,14.194134],[100.720926,14.030594],[100.712751,14.025174],[100.709857,14.025161],[100.70986,14.023861],[100.704077,14.020804],[100.698324,14.018276],[100.698045,14.018653],[100.699404,14.019208],[100.700253,14.020235],[100.700156,14.020592],[100.698194,14.019967],[100.697556,14.020605],[100.698442,14.020936],[100.698882,14.183309],[100.699735,14.183726],[100.699101,14.184285]]]},"bbox":[100.697556,14.018276,100.721894,14.194989]},{"type":"Feature","id":"eb42d95f-e87d-4842-b6c8-01824b39c268","properties":{"id":"eb42d95f-e87d-4842-b6c8-01824b39c268","code":"06130402","provinceCode":"13","nameTh":"องค์การบริหารส่วนตำบล นพรัตน์","nameEn":null,"geometryType":"MUNICIPALITY","sourceUrl":"https://landometer.com/api/v2/citymeter-v3/grocery/info/geom/eb42d95f-e87d-4842-b6c8-01824b39c268/MUNICIPALITY","sourceSha256":"dc410e2c7058973e38242e89f3772b53cd93d4a104ce4f077c2602d8e5b5c5e0","retrievedAt":"2026-10-04T05:42:26.606996+00:00","boundaryVintage":null,"geometryStatus":"native_source_polygon_display_simplified","simplificationToleranceDegrees":0.00015,"simplificationPreservesTopology":true,"invalidSourceRepair":"make_valid; retain polygonal components; discard zero-area collapsed lines","legalBoundaryIndependentlyVerified":false,"areaId":"eb42d95f-e87d-4842-b6c8-01824b39c268"},"geometry":{"type":"Polygon","coordinates":[[[100.846296,14.152996],[100.845967,14.253707],[100.844968,14.253252],[100.844967,14.253705],[100.891545,14.275951],[100.891571,14.245761],[100.891588,14.24365],[100.891776,14.243651],[100.891858,14.222454],[100.88061,14.222326],[100.880631,14.191661],[100.857401,14.191193],[100.85795,14.153094],[100.846296,14.152996]]]},"bbox":[100.844967,14.152996,100.891858,14.275951]},{"type":"Feature","id":"aa28e3b1-345f-437c-b854-d17806175352","properties":{"id":"aa28e3b1-345f-437c-b854-d17806175352","code":"06130403","provinceCode":"13","nameTh":"องค์การบริหารส่วนตำบล บึงกาสาม","nameEn":null,"geometryType":"MUNICIPALITY","sourceUrl":"https://landometer.com/api/v2/citymeter-v3/grocery/info/geom/aa28e3b1-345f-437c-b854-d17806175352/MUNICIPALITY","sourceSha256":"541f7f36f6e760c606a6f4500028549168eeca341639ece573f5821febc7bdd4","retrievedAt":"2026-10-04T05:42:26.616538+00:00","boundaryVintage":null,"geometryStatus":"native_source_polygon_display_simplified","simplificationToleranceDegrees":0.00015,"simplificationPreservesTopology":true,"invalidSourceRepair":"make_valid; retain polygonal components; discard zero-area collapsed lines","legalBoundaryIndependentlyVerified":false,"areaId":"aa28e3b1-345f-437c-b854-d17806175352"},"geometry":{"type":"MultiPolygon","coordinates":[[[[100.83455,14.157111],[100.83554882730854,14.157123388555766],[100.835549,14.157123],[100.83455,14.157111]]],[[[100.800479,14.232672],[100.821499,14.242746],[100.826727,14.245114],[100.832996,14.248144],[100.835317,14.249208],[100.840785,14.251813],[100.844917,14.253812],[100.845865,14.254257],[100.845084,14.25389],[100.844968,14.253252],[100.845967,14.253707],[100.84616,14.157255],[100.800848,14.156775],[100.800854,14.152289],[100.800479,14.232672]]]]},"bbox":[100.800479,14.152289,100.84616,14.254257]},{"type":"Feature","id":"b5b8c1cf-65de-461e-9095-778e06f49e62","properties":{"id":"b5b8c1cf-65de-461e-9095-778e06f49e62","code":"06130404","provinceCode":"13","nameTh":"องค์การบริหารส่วนตำบล บึงชำอ้อ","nameEn":null,"geometryType":"MUNICIPALITY","sourceUrl":"https://landometer.com/api/v2/citymeter-v3/grocery/info/geom/b5b8c1cf-65de-461e-9095-778e06f49e62/MUNICIPALITY","sourceSha256":"e1c84fb82de56de4259e44c9d59ec63076cf9036b7453d2e68900bcc6c28ed03","retrievedAt":"2026-10-04T05:42:26.655242+00:00","boundaryVintage":null,"geometryStatus":"native_source_polygon_display_simplified","simplificationToleranceDegrees":0.00015,"simplificationPreservesTopology":true,"invalidSourceRepair":"make_valid; retain polygonal components; discard zero-area collapsed lines","legalBoundaryIndependentlyVerified":false,"areaId":"b5b8c1cf-65de-461e-9095-778e06f49e62"},"geometry":{"type":"Polygon","coordinates":[[[100.755354,14.112879],[100.755051,14.211074],[100.800479,14.232672],[100.800882,14.131667],[100.755358,14.112564],[100.755393,14.109793],[100.755354,14.112879]]]},"bbox":[100.755051,14.109793,100.800882,14.232672]},{"type":"Feature","id":"9c9219bb-c888-4f54-a184-f559375ab0b9","properties":{"id":"9c9219bb-c888-4f54-a184-f559375ab0b9","code":"06130405","provinceCode":"13","nameTh":"องค์การบริหารส่วนตำบล บึงบอน","nameEn":null,"geometryType":"MUNICIPALITY","sourceUrl":"https://landometer.com/api/v2/citymeter-v3/grocery/info/geom/9c9219bb-c888-4f54-a184-f559375ab0b9/MUNICIPALITY","sourceSha256":"9493a3244d5d56815d1feb877136a8bb0b0d5ea85bcfd49553f2b33309a4c6b0","retrievedAt":"2026-10-04T05:42:26.642285+00:00","boundaryVintage":null,"geometryStatus":"native_source_polygon_display_simplified","simplificationToleranceDegrees":0.00015,"simplificationPreservesTopology":true,"invalidSourceRepair":"make_valid; retain polygonal components; discard zero-area collapsed lines","legalBoundaryIndependentlyVerified":false,"areaId":"9c9219bb-c888-4f54-a184-f559375ab0b9"},"geometry":{"type":"Polygon","coordinates":[[[100.755503,14.044766],[100.755354,14.112879],[100.755358,14.112564],[100.800882,14.131667],[100.80098,14.060099],[100.758787,14.045677],[100.755503,14.044766]]]},"bbox":[100.755354,14.044766,100.80098,14.131667]},{"type":"Feature","id":"0563ba45-880f-46ee-b6a6-51a4cef77d8e","properties":{"id":"0563ba45-880f-46ee-b6a6-51a4cef77d8e","code":"06130406","provinceCode":"13","nameTh":"องค์การบริหารส่วนตำบล บึงบา","nameEn":null,"geometryType":"MUNICIPALITY","sourceUrl":"https://landometer.com/api/v2/citymeter-v3/grocery/info/geom/0563ba45-880f-46ee-b6a6-51a4cef77d8e/MUNICIPALITY","sourceSha256":"7f1d69b946bb19c4f464c5ff9db5568a1afe1b6dbb2ff21712ad364121f33504","retrievedAt":"2026-10-04T05:42:26.658942+00:00","boundaryVintage":null,"geometryStatus":"native_source_polygon_display_simplified","simplificationToleranceDegrees":0.00015,"simplificationPreservesTopology":true,"invalidSourceRepair":"make_valid; retain polygonal components; discard zero-area collapsed lines","legalBoundaryIndependentlyVerified":false,"areaId":"0563ba45-880f-46ee-b6a6-51a4cef77d8e"},"geometry":{"type":"MultiPolygon","coordinates":[[[[100.83455,14.157111],[100.846271,14.157257],[100.846775,14.075993],[100.823883,14.067865],[100.80098,14.060099],[100.800848,14.156775],[100.812922,14.156895],[100.811923,14.156885],[100.812284,14.107397],[100.835016,14.107618],[100.83455,14.157111]]],[[[100.833557,14.157119],[100.835541,14.157141],[100.842108,14.157212],[100.833557,14.157119]]]]},"bbox":[100.800848,14.060099,100.846775,14.157257]},{"type":"Feature","id":"e3fa11ce-fc0a-4ac6-8d5f-b215f2ccda14","properties":{"id":"e3fa11ce-fc0a-4ac6-8d5f-b215f2ccda14","code":"06130407","provinceCode":"13","nameTh":"องค์การบริหารส่วนตำบล ศาลาครุ","nameEn":null,"geometryType":"MUNICIPALITY","sourceUrl":"https://landometer.com/api/v2/citymeter-v3/grocery/info/geom/e3fa11ce-fc0a-4ac6-8d5f-b215f2ccda14/MUNICIPALITY","sourceSha256":"f1397eef6c3d73ecf424c77034801f020bba8bfb19b3d9f1b3c43e5db0bcfbf7","retrievedAt":"2026-10-04T05:42:26.654333+00:00","boundaryVintage":null,"geometryStatus":"native_source_polygon_display_simplified","simplificationToleranceDegrees":0.00015,"simplificationPreservesTopology":true,"invalidSourceRepair":"make_valid; retain polygonal components; discard zero-area collapsed lines","legalBoundaryIndependentlyVerified":false,"areaId":"e3fa11ce-fc0a-4ac6-8d5f-b215f2ccda14"},"geometry":{"type":"MultiPolygon","coordinates":[[[[100.947117,14.252521],[100.946969,14.250255],[100.94641,14.249824],[100.945746,14.249912],[100.945372,14.249478],[100.94593,14.248427],[100.94557,14.246336],[100.946474,14.244077],[100.946443,14.241754],[100.946827,14.239727],[100.946735,14.238004],[100.946436,14.237135],[100.913982,14.221456],[100.91391,14.214337],[100.913936,14.209342],[100.913885,14.20344],[100.913879,14.196224],[100.913814,14.180508],[100.913786,14.177769],[100.913809,14.180075],[100.879983,14.179817],[100.880045,14.170691],[100.868787,14.170679],[100.868729,14.158453],[100.857874,14.158373],[100.857401,14.191193],[100.880631,14.191661],[100.88061,14.222326],[100.891858,14.222454],[100.89177600232566,14.243650398816445],[100.892304,14.243705],[100.951118,14.271684],[100.951848,14.270192],[100.950407,14.268694],[100.949752,14.266197],[100.950263,14.26394],[100.950666,14.26338],[100.950566,14.262602],[100.951275,14.262146],[100.950855,14.261466],[100.950638,14.259943],[100.949679,14.258151],[100.948187,14.257786],[100.948588,14.25612],[100.949321,14.255101],[100.948371,14.254355],[100.947117,14.252521]]],[[[100.891776,14.243651],[100.89177600232566,14.243650398816445],[100.891642,14.24365],[100.891776,14.243651]]]]},"bbox":[100.857401,14.158373,100.951852,14.271684]},{"type":"Feature","id":"e14b4337-1bd3-411e-ab2a-a9329869fc13","properties":{"id":"e14b4337-1bd3-411e-ab2a-a9329869fc13","code":"06130408","provinceCode":"13","nameTh":"เทศบาลตำบล หนองสามวัง","nameEn":null,"geometryType":"MUNICIPALITY","sourceUrl":"https://landometer.com/api/v2/citymeter-v3/grocery/info/geom/e14b4337-1bd3-411e-ab2a-a9329869fc13/MUNICIPALITY","sourceSha256":"29461057146cdb5a171ad8dc9386e1193ac551ddfcc4ae51a89bd4fd88420542","retrievedAt":"2026-10-04T05:42:26.658870+00:00","boundaryVintage":null,"geometryStatus":"native_source_polygon_display_simplified","simplificationToleranceDegrees":0.00015,"simplificationPreservesTopology":true,"invalidSourceRepair":"make_valid; retain polygonal components; discard zero-area collapsed lines","legalBoundaryIndependentlyVerified":false,"areaId":"e14b4337-1bd3-411e-ab2a-a9329869fc13"},"geometry":{"type":"Polygon","coordinates":[[[100.85795,14.153094],[100.857874,14.158373],[100.868729,14.158453],[100.868787,14.170679],[100.880045,14.170691],[100.879983,14.179817],[100.913809,14.180075],[100.913814,14.180508],[100.913527,14.116136],[100.914138,14.099629],[100.846775,14.075993],[100.846296,14.152996],[100.85795,14.153094]]]},"bbox":[100.846296,14.075993,100.914138,14.180508]},{"type":"Feature","id":"b7bacf36-0e8a-4d7c-9425-85a167affd48","properties":{"id":"b7bacf36-0e8a-4d7c-9425-85a167affd48","code":"06130504","provinceCode":"13","nameTh":"องค์การบริหารส่วนตำบล บ่อเงิน","nameEn":null,"geometryType":"MUNICIPALITY","sourceUrl":"https://landometer.com/api/v2/citymeter-v3/grocery/info/geom/b7bacf36-0e8a-4d7c-9425-85a167affd48/MUNICIPALITY","sourceSha256":"a8227a5a9e8f9e175babc909eccca33f0b35cac5381568a922518c868fbed0aa","retrievedAt":"2026-10-04T05:42:26.692239+00:00","boundaryVintage":null,"geometryStatus":"native_source_polygon_display_simplified","simplificationToleranceDegrees":0.00015,"simplificationPreservesTopology":true,"invalidSourceRepair":"make_valid; retain polygonal components; discard zero-area collapsed lines","legalBoundaryIndependentlyVerified":false,"areaId":"b7bacf36-0e8a-4d7c-9425-85a167affd48"},"geometry":{"type":"MultiPolygon","coordinates":[[[[100.422451,14.101923],[100.423607,14.099755],[100.427838,14.096551],[100.426066,14.093728],[100.42541,14.079023],[100.422942,14.075425],[100.423732,14.060274],[100.423536,14.059848],[100.42274,14.059615],[100.421626,14.063314],[100.420895,14.063691],[100.420283,14.06464],[100.410808,14.068523],[100.400526,14.066041],[100.406801,14.078056],[100.403493,14.079861],[100.404616,14.08105],[100.386043,14.089415],[100.362796,14.096504],[100.346265,14.098965],[100.348117,14.104457],[100.34214,14.10606],[100.34404,14.115031],[100.345423,14.114047],[100.347875,14.11365],[100.354992,14.113548],[100.366029,14.114831],[100.370557,14.114933],[100.381317,14.11509],[100.385563,14.114654],[100.394572,14.115113],[100.403848,14.115079],[100.414512,14.114709],[100.419201,14.114017],[100.422083,14.113992],[100.422081,14.103848],[100.422451,14.101923]]],[[[100.346566,14.099915],[100.34656601307589,14.099915001452876],[100.346244,14.098972],[100.346566,14.099915]]]]},"bbox":[100.34214,14.059615,100.427838,14.115113]},{"type":"Feature","id":"3342a632-d94b-4f54-b0ac-54373e37d950","properties":{"id":"3342a632-d94b-4f54-b0ac-54373e37d950","code":"06130505","provinceCode":"13","nameTh":"องค์การบริหารส่วนตำบล หน้าไม้","nameEn":null,"geometryType":"MUNICIPALITY","sourceUrl":"https://landometer.com/api/v2/citymeter-v3/grocery/info/geom/3342a632-d94b-4f54-b0ac-54373e37d950/MUNICIPALITY","sourceSha256":"86c458f12c51b0a6141c4d9ffdf7d5ae9011c2dd66c2a74d3a23a3ade8770a7e","retrievedAt":"2026-10-04T05:42:26.704558+00:00","boundaryVintage":null,"geometryStatus":"native_source_polygon_display_simplified","simplificationToleranceDegrees":0.00015,"simplificationPreservesTopology":true,"invalidSourceRepair":"make_valid; retain polygonal components; discard zero-area collapsed lines","legalBoundaryIndependentlyVerified":false,"areaId":"3342a632-d94b-4f54-b0ac-54373e37d950"},"geometry":{"type":"Polygon","coordinates":[[[100.375355,14.055134],[100.373709,14.048942],[100.389085,14.046133],[100.38621,14.042882],[100.389336,14.03948],[100.387999,14.03037],[100.384073,14.033268],[100.378235,14.032704],[100.380687,14.025095],[100.378119,14.019454],[100.37738,14.000354],[100.381047,13.994429],[100.380499,13.988812],[100.364584,13.992277],[100.361344,13.994302],[100.356171,14.000727],[100.355761,14.000446],[100.347508,14.014671],[100.343727,14.022008],[100.341635,14.027793],[100.336677,14.037664],[100.334599,14.043722],[100.333084,14.048962],[100.331633,14.056392],[100.332063,14.065078],[100.334977,14.078229],[100.337807,14.085316],[100.340661,14.093835],[100.341444,14.097446],[100.341534,14.101349],[100.34214,14.10606],[100.348117,14.104457],[100.345081,14.095565],[100.349117,14.094758],[100.34382,14.078978],[100.364674,14.069126],[100.362297,14.06005],[100.368128,14.059802],[100.367747,14.056074],[100.375355,14.055134]]]},"bbox":[100.331625,13.988812,100.389336,14.10606]},{"type":"Feature","id":"11cfa527-fa2b-4d3e-adef-584aa4d50c35","properties":{"id":"11cfa527-fa2b-4d3e-adef-584aa4d50c35","code":"06130506","provinceCode":"13","nameTh":"องค์การบริหารส่วนตำบล คูบางหลวง","nameEn":null,"geometryType":"MUNICIPALITY","sourceUrl":"https://landometer.com/api/v2/citymeter-v3/grocery/info/geom/11cfa527-fa2b-4d3e-adef-584aa4d50c35/MUNICIPALITY","sourceSha256":"8cde2bce408069b2b16086a82560596ec7fb904dc0d6dbf3cada4ddf6efc3930","retrievedAt":"2026-10-04T05:42:26.700870+00:00","boundaryVintage":null,"geometryStatus":"native_source_polygon_display_simplified","simplificationToleranceDegrees":0.00015,"simplificationPreservesTopology":true,"invalidSourceRepair":"make_valid; retain polygonal components; discard zero-area collapsed lines","legalBoundaryIndependentlyVerified":false,"areaId":"11cfa527-fa2b-4d3e-adef-584aa4d50c35"},"geometry":{"type":"Polygon","coordinates":[[[100.495543,14.038363],[100.486242,14.019158],[100.484247,14.017264],[100.482991,14.014587],[100.469305,14.021947],[100.464737,14.024042],[100.458267,14.027981],[100.449939,14.015543],[100.442607,14.018905],[100.443487,14.039964],[100.446914,14.047694],[100.452321,14.087198],[100.457221,14.085053],[100.469679,14.07877],[100.473687,14.075951],[100.480332,14.0707],[100.478047,14.06827],[100.478169,14.065796],[100.478535,14.065095],[100.482932,14.060957],[100.480435,14.057227],[100.496604,14.047146],[100.492912,14.04049],[100.493563,14.040022],[100.493529,14.039591],[100.495543,14.038363]]]},"bbox":[100.442607,14.014587,100.496604,14.087198]},{"type":"Feature","id":"99c15183-81fb-4eb7-9abc-ba52f1f22489","properties":{"id":"99c15183-81fb-4eb7-9abc-ba52f1f22489","code":"06130507","provinceCode":"13","nameTh":"องค์การบริหารส่วนตำบล ลาดหลุมแก้ว","nameEn":null,"geometryType":"MUNICIPALITY","sourceUrl":"https://landometer.com/api/v2/citymeter-v3/grocery/info/geom/99c15183-81fb-4eb7-9abc-ba52f1f22489/MUNICIPALITY","sourceSha256":"e7fb7f80b0cdaedfeaca1f790907fb25bbe9cedcc0dd32672094beb317b28fa3","retrievedAt":"2026-10-04T05:42:26.725339+00:00","boundaryVintage":null,"geometryStatus":"native_source_polygon_display_simplified","simplificationToleranceDegrees":0.00015,"simplificationPreservesTopology":true,"invalidSourceRepair":"make_valid; retain polygonal components; discard zero-area collapsed lines","legalBoundaryIndependentlyVerified":false,"areaId":"99c15183-81fb-4eb7-9abc-ba52f1f22489"},"geometry":{"type":"Polygon","coordinates":[[[100.439317,13.996802],[100.430706,13.999094],[100.427624,13.990508],[100.425608,13.990898],[100.423613,13.983804],[100.424579,13.983545],[100.382059,13.994609],[100.381081,13.994776],[100.381047,13.994429],[100.380873,13.994472],[100.37738,14.000354],[100.378119,14.019454],[100.380687,14.025095],[100.378235,14.032704],[100.384073,14.033268],[100.387999,14.03037],[100.401553,14.025278],[100.401581,14.027822],[100.403774,14.028391],[100.411098,14.024443],[100.442273,14.016663],[100.439317,13.996802]]]},"bbox":[100.37738,13.983545,100.442273,14.033268]},{"type":"Feature","id":"33e557f8-0caf-4dea-8f75-931cc2b50e69","properties":{"id":"33e557f8-0caf-4dea-8f75-931cc2b50e69","code":"06130508","provinceCode":"13","nameTh":"องค์การบริหารส่วนตำบล ระแหง","nameEn":null,"geometryType":"MUNICIPALITY","sourceUrl":"https://landometer.com/api/v2/citymeter-v3/grocery/info/geom/33e557f8-0caf-4dea-8f75-931cc2b50e69/MUNICIPALITY","sourceSha256":"d6cf91dd4990b9015613549b1fae3e5b4ed67e94d8ed1d619724f3a6bd300d96","retrievedAt":"2026-10-04T05:42:26.751921+00:00","boundaryVintage":null,"geometryStatus":"native_source_polygon_display_simplified","simplificationToleranceDegrees":0.00015,"simplificationPreservesTopology":true,"invalidSourceRepair":"make_valid; retain polygonal components; discard zero-area collapsed lines","legalBoundaryIndependentlyVerified":false,"areaId":"33e557f8-0caf-4dea-8f75-931cc2b50e69"},"geometry":{"type":"Polygon","coordinates":[[[100.386043,14.089415],[100.404616,14.08105],[100.403493,14.079861],[100.406801,14.078056],[100.400526,14.066041],[100.397769,14.055889],[100.401313,14.029717],[100.403774,14.028391],[100.404258,14.028516],[100.401581,14.027822],[100.401553,14.025278],[100.387999,14.03037],[100.389336,14.03948],[100.38621,14.042882],[100.389085,14.046133],[100.373709,14.048942],[100.375355,14.055134],[100.367747,14.056074],[100.368128,14.059802],[100.362297,14.06005],[100.364674,14.069126],[100.34382,14.078978],[100.349117,14.094758],[100.345081,14.095565],[100.346566,14.099915],[100.346265,14.098965],[100.362796,14.096504],[100.386043,14.089415]]]},"bbox":[100.34382,14.025278,100.406801,14.099916]},{"type":"Feature","id":"228dc210-3246-4030-a389-dc367c46a463","properties":{"id":"228dc210-3246-4030-a389-dc367c46a463","code":"06130606","provinceCode":"13","nameTh":"องค์การบริหารส่วนตำบล บึงคอไห","nameEn":null,"geometryType":"MUNICIPALITY","sourceUrl":"https://landometer.com/api/v2/citymeter-v3/grocery/info/geom/228dc210-3246-4030-a389-dc367c46a463/MUNICIPALITY","sourceSha256":"292f8da2d3eccab12841fef53222b32ee3698bfd70acbf010380197c1a969279","retrievedAt":"2026-10-04T05:42:26.752191+00:00","boundaryVintage":null,"geometryStatus":"native_source_polygon_display_simplified","simplificationToleranceDegrees":0.00015,"simplificationPreservesTopology":true,"invalidSourceRepair":"make_valid; retain polygonal components; discard zero-area collapsed lines","legalBoundaryIndependentlyVerified":false,"areaId":"228dc210-3246-4030-a389-dc367c46a463"},"geometry":{"type":"Polygon","coordinates":[[[100.881504,14.005748],[100.844215,14.009268],[100.845933,14.044033],[100.845985,14.043783],[100.853496,14.04623],[100.853535,14.046719],[100.858782,14.048601],[100.914836,14.068209],[100.914343,13.983447],[100.914384,14.007079],[100.881512,14.006344],[100.881504,14.005748]]]},"bbox":[100.844215,13.983447,100.914836,14.068209]},{"type":"Feature","id":"e5e3f99a-8c72-49c8-9aaf-d0444da8cfe0","properties":{"id":"e5e3f99a-8c72-49c8-9aaf-d0444da8cfe0","code":"06130607","provinceCode":"13","nameTh":"องค์การบริหารส่วนตำบล บึงคำพร้อย","nameEn":null,"geometryType":"MUNICIPALITY","sourceUrl":"https://landometer.com/api/v2/citymeter-v3/grocery/info/geom/e5e3f99a-8c72-49c8-9aaf-d0444da8cfe0/MUNICIPALITY","sourceSha256":"ee8de1826e95314ad14727111813fca22a01c1069d1ef1a5eece59c55cc24349","retrievedAt":"2026-10-04T05:42:26.754694+00:00","boundaryVintage":null,"geometryStatus":"native_source_polygon_display_simplified","simplificationToleranceDegrees":0.00015,"simplificationPreservesTopology":true,"invalidSourceRepair":"make_valid; retain polygonal components; discard zero-area collapsed lines","legalBoundaryIndependentlyVerified":false,"areaId":"e5e3f99a-8c72-49c8-9aaf-d0444da8cfe0"},"geometry":{"type":"Polygon","coordinates":[[[100.726065,13.925884],[100.728443,13.923167],[100.728573,13.917273],[100.728569,13.917453],[100.703282,13.916759],[100.704853,13.920455],[100.707908,13.931592],[100.706037,13.931585],[100.705845,13.963104],[100.706571,13.991808],[100.706032,13.992164],[100.705578,13.992128],[100.70562,13.99376],[100.706382,13.993867],[100.708419,13.994959],[100.714977,13.99502],[100.717945,13.996047],[100.719386,13.996924],[100.720015,13.999841],[100.734123,14.005181],[100.755207,14.01361],[100.756087,14.013449],[100.756298,14.012973],[100.755468,14.012664],[100.753367,13.982658],[100.748791,13.971044],[100.7496,13.950875],[100.749456,13.947544],[100.746612,13.947784],[100.726661,13.947101],[100.726065,13.925884]]]},"bbox":[100.703282,13.916759,100.756298,14.01361]},{"type":"Feature","id":"0fcc69cc-3003-4106-9862-d0c51cd0a054","properties":{"id":"0fcc69cc-3003-4106-9862-d0c51cd0a054","code":"06130608","provinceCode":"13","nameTh":"องค์การบริหารส่วนตำบล บึงทองหลาง","nameEn":null,"geometryType":"MUNICIPALITY","sourceUrl":"https://landometer.com/api/v2/citymeter-v3/grocery/info/geom/0fcc69cc-3003-4106-9862-d0c51cd0a054/MUNICIPALITY","sourceSha256":"6fcb02613fbb3250cb866a6484ed8dd8fdcf154b235f49e12505d3d5f46c4bfc","retrievedAt":"2026-10-04T05:42:26.764136+00:00","boundaryVintage":null,"geometryStatus":"native_source_polygon_display_simplified","simplificationToleranceDegrees":0.00015,"simplificationPreservesTopology":true,"invalidSourceRepair":"make_valid; retain polygonal components; discard zero-area collapsed lines","legalBoundaryIndependentlyVerified":false,"areaId":"0fcc69cc-3003-4106-9862-d0c51cd0a054"},"geometry":{"type":"Polygon","coordinates":[[[100.800281,14.029224],[100.800544,14.029316],[100.800475,14.028366],[100.845933,14.044033],[100.841712,13.951795],[100.839771,13.93795],[100.879258,13.941955],[100.865631,13.93995],[100.863308,13.939143],[100.854284,13.9385],[100.839658,13.936533],[100.815348,13.933765],[100.793042,13.931582],[100.793224,13.949303],[100.800281,14.029224]]]},"bbox":[100.793042,13.931582,100.879258,14.044033]},{"type":"Feature","id":"426acbe3-5364-447c-aa79-f47ca7217fc4","properties":{"id":"426acbe3-5364-447c-aa79-f47ca7217fc4","code":"06130609","provinceCode":"13","nameTh":"องค์การบริหารส่วนตำบล พืชอุดม","nameEn":null,"geometryType":"MUNICIPALITY","sourceUrl":"https://landometer.com/api/v2/citymeter-v3/grocery/info/geom/426acbe3-5364-447c-aa79-f47ca7217fc4/MUNICIPALITY","sourceSha256":"bb9b8e298c5ef4e0f0a791a495f749d2f33e3dd5452d97d8f344124247a9bbf1","retrievedAt":"2026-10-04T05:42:26.769103+00:00","boundaryVintage":null,"geometryStatus":"native_source_polygon_display_simplified","simplificationToleranceDegrees":0.00015,"simplificationPreservesTopology":true,"invalidSourceRepair":"make_valid; retain polygonal components; discard zero-area collapsed lines","legalBoundaryIndependentlyVerified":false,"areaId":"426acbe3-5364-447c-aa79-f47ca7217fc4"},"geometry":{"type":"Polygon","coordinates":[[[100.881512,14.006344],[100.914384,14.007079],[100.914341,13.977167],[100.913983,13.946491],[100.880665,13.942171],[100.881512,14.006344]]]},"bbox":[100.880665,13.942171,100.914384,14.007079]},{"type":"Feature","id":"08db875b-ddc9-48d3-81e8-42feab9ef906","properties":{"id":"08db875b-ddc9-48d3-81e8-42feab9ef906","code":"06130610","provinceCode":"13","nameTh":"องค์การบริหารส่วนตำบล ลำไทร","nameEn":null,"geometryType":"MUNICIPALITY","sourceUrl":"https://landometer.com/api/v2/citymeter-v3/grocery/info/geom/08db875b-ddc9-48d3-81e8-42feab9ef906/MUNICIPALITY","sourceSha256":"f62c4c263a69818989a5cff45d1ab99743bcfc92129b91ca9171b29a35f400c8","retrievedAt":"2026-10-04T05:42:26.784231+00:00","boundaryVintage":null,"geometryStatus":"native_source_polygon_display_simplified","simplificationToleranceDegrees":0.00015,"simplificationPreservesTopology":true,"invalidSourceRepair":"make_valid; retain polygonal components; discard zero-area collapsed lines","legalBoundaryIndependentlyVerified":false,"areaId":"08db875b-ddc9-48d3-81e8-42feab9ef906"},"geometry":{"type":"Polygon","coordinates":[[[100.841712,13.951795],[100.844215,14.009268],[100.881504,14.005748],[100.880665,13.942171],[100.839771,13.93795],[100.841712,13.951795]],[[100.872043,13.949018],[100.872352,13.962207],[100.851127,13.959842],[100.851089,13.946214],[100.872043,13.949018]]]},"bbox":[100.839771,13.93795,100.881504,14.009268]},{"type":"Feature","id":"38c6a985-7052-4369-8d8d-cd3eced0c613","properties":{"id":"38c6a985-7052-4369-8d8d-cd3eced0c613","code":"06130611","provinceCode":"13","nameTh":"องค์การบริหารส่วนตำบล ลำลูกกา","nameEn":null,"geometryType":"MUNICIPALITY","sourceUrl":"https://landometer.com/api/v2/citymeter-v3/grocery/info/geom/38c6a985-7052-4369-8d8d-cd3eced0c613/MUNICIPALITY","sourceSha256":"e781646e1f6ad2fb29f45a80bd1d1de7954613d6fb533219c129bc466026e062","retrievedAt":"2026-10-04T05:42:26.789523+00:00","boundaryVintage":null,"geometryStatus":"native_source_polygon_display_simplified","simplificationToleranceDegrees":0.00015,"simplificationPreservesTopology":true,"invalidSourceRepair":"make_valid; retain polygonal components; discard zero-area collapsed lines","legalBoundaryIndependentlyVerified":false,"areaId":"38c6a985-7052-4369-8d8d-cd3eced0c613"},"geometry":{"type":"Polygon","coordinates":[[[100.793042,13.931582],[100.769729,13.924232],[100.770156,13.924377],[100.772163,13.954374],[100.7496,13.950837],[100.748791,13.971044],[100.753367,13.982658],[100.755468,14.012664],[100.756298,14.012973],[100.756087,14.013449],[100.755207,14.01361],[100.777697,14.02166],[100.800281,14.029224],[100.793224,13.949303],[100.793042,13.931582]]]},"bbox":[100.748791,13.924232,100.800281,14.029224]},{"type":"Feature","id":"5cb67510-f8b8-4e7e-9d84-3114a4418983","properties":{"id":"5cb67510-f8b8-4e7e-9d84-3114a4418983","code":"06130703","provinceCode":"13","nameTh":"องค์การบริหารส่วนตำบล กระแชง","nameEn":null,"geometryType":"MUNICIPALITY","sourceUrl":"https://landometer.com/api/v2/citymeter-v3/grocery/info/geom/5cb67510-f8b8-4e7e-9d84-3114a4418983/MUNICIPALITY","sourceSha256":"fb9d48b68803ce8d1d03009dd65be29af1ae44f2924d0849db07ac2407cfa116","retrievedAt":"2026-10-04T05:42:26.931915+00:00","boundaryVintage":null,"geometryStatus":"native_source_polygon_display_simplified","simplificationToleranceDegrees":0.00015,"simplificationPreservesTopology":true,"invalidSourceRepair":"make_valid; retain polygonal components; discard zero-area collapsed lines","legalBoundaryIndependentlyVerified":false,"areaId":"5cb67510-f8b8-4e7e-9d84-3114a4418983"},"geometry":{"type":"Polygon","coordinates":[[[100.553323,14.040232],[100.551373,14.038339],[100.547371,14.035507],[100.544995,14.032943],[100.52536,14.037936],[100.525208,14.042025],[100.524385,14.042379],[100.524574,14.042798],[100.524979,14.042892],[100.531006,14.040647],[100.536683,14.041599],[100.540091,14.046886],[100.542234,14.046235],[100.544273,14.048908],[100.549536,14.049777],[100.55011,14.052984],[100.553017,14.050261],[100.554924,14.046476],[100.554562,14.042106],[100.554409,14.042171],[100.553323,14.040232]]]},"bbox":[100.524385,14.032943,100.554924,14.052984]},{"type":"Feature","id":"3bd951a9-81c2-4962-904c-f0285522666f","properties":{"id":"3bd951a9-81c2-4962-904c-f0285522666f","code":"06130704","provinceCode":"13","nameTh":"องค์การบริหารส่วนตำบล คลองควาย","nameEn":null,"geometryType":"MUNICIPALITY","sourceUrl":"https://landometer.com/api/v2/citymeter-v3/grocery/info/geom/3bd951a9-81c2-4962-904c-f0285522666f/MUNICIPALITY","sourceSha256":"327f24d52206a8237d6fbdc466fe19d90e51c2ff6b8a3470a05d8513bf471ec2","retrievedAt":"2026-10-04T05:42:26.935016+00:00","boundaryVintage":null,"geometryStatus":"native_source_polygon_display_simplified","simplificationToleranceDegrees":0.00015,"simplificationPreservesTopology":true,"invalidSourceRepair":"make_valid; retain polygonal components; discard zero-area collapsed lines","legalBoundaryIndependentlyVerified":false,"areaId":"3bd951a9-81c2-4962-904c-f0285522666f"},"geometry":{"type":"Polygon","coordinates":[[[100.529568,14.086439],[100.526873,14.084656],[100.523704,14.079364],[100.524442,14.07608],[100.524235,14.076519],[100.506384,14.07297],[100.505647,14.074266],[100.495348,14.073077],[100.493009,14.076478],[100.479475,14.081753],[100.458315,14.096376],[100.452329,14.087256],[100.448164,14.08913],[100.430685,14.095459],[100.427392,14.097017],[100.423607,14.099755],[100.422451,14.101923],[100.422081,14.103848],[100.422083,14.113992],[100.430634,14.114318],[100.437974,14.113887],[100.441059,14.114016],[100.45329,14.116364],[100.46275,14.112724],[100.466481,14.11191],[100.475696,14.111122],[100.479063,14.107685],[100.480256,14.105038],[100.482193,14.105456],[100.482594,14.10452],[100.48359,14.104734],[100.484392,14.102861],[100.485388,14.103076],[100.487458,14.098243],[100.503985,14.096213],[100.515145,14.098626],[100.517246,14.095754],[100.527834,14.089638],[100.529568,14.086439]]]},"bbox":[100.422039,14.07297,100.529568,14.116364]},{"type":"Feature","id":"908e6994-d0e3-4559-9bd1-c19c19d9f11a","properties":{"id":"908e6994-d0e3-4559-9bd1-c19c19d9f11a","code":"06130705","provinceCode":"13","nameTh":"องค์การบริหารส่วนตำบล เชียงรากน้อย","nameEn":null,"geometryType":"MUNICIPALITY","sourceUrl":"https://landometer.com/api/v2/citymeter-v3/grocery/info/geom/908e6994-d0e3-4559-9bd1-c19c19d9f11a/MUNICIPALITY","sourceSha256":"8dae526af0931321d130132160c31e9937c6c07a5e9032490c2043299191377e","retrievedAt":"2026-10-04T05:42:26.934969+00:00","boundaryVintage":null,"geometryStatus":"native_source_polygon_display_simplified","simplificationToleranceDegrees":0.00015,"simplificationPreservesTopology":true,"invalidSourceRepair":"make_valid; retain polygonal components; discard zero-area collapsed lines","legalBoundaryIndependentlyVerified":false,"areaId":"908e6994-d0e3-4559-9bd1-c19c19d9f11a"},"geometry":{"type":"Polygon","coordinates":[[[100.543325,14.095296],[100.545184,14.096835],[100.548296,14.102253],[100.550009,14.110682],[100.553575,14.111455],[100.553103,14.111882],[100.55264,14.113297],[100.55285,14.113655],[100.553368,14.11386],[100.55342,14.114646],[100.553839,14.115135],[100.553025,14.115732],[100.552612,14.117077],[100.551961,14.116998],[100.551664,14.11724],[100.551794,14.118344],[100.552326,14.118479],[100.552764,14.118107],[100.552876,14.118758],[100.553653,14.118805],[100.554467,14.119644],[100.556088,14.120269],[100.557512,14.119858],[100.560206,14.118157],[100.560644,14.119161],[100.560812,14.120776],[100.561107,14.120879],[100.561697,14.121861],[100.562804,14.122471],[100.566809,14.122626],[100.568366,14.122377],[100.570711,14.122778],[100.573607,14.122654],[100.574251,14.122927],[100.575259,14.12414],[100.577793,14.125794],[100.579641,14.127346],[100.58214,14.128637],[100.586073,14.096138],[100.575506,14.092936],[100.549365,14.07963],[100.548915,14.079978],[100.549758,14.0805],[100.54314,14.091772],[100.545367,14.093559],[100.543325,14.095296]]]},"bbox":[100.54314,14.07963,100.586073,14.128637]},{"type":"Feature","id":"b4ddbeb6-e774-48fa-a944-d868a11f82e6","properties":{"id":"b4ddbeb6-e774-48fa-a944-d868a11f82e6","code":"06130707","provinceCode":"13","nameTh":"องค์การบริหารส่วนตำบล ท้ายเกาะ","nameEn":null,"geometryType":"MUNICIPALITY","sourceUrl":"https://landometer.com/api/v2/citymeter-v3/grocery/info/geom/b4ddbeb6-e774-48fa-a944-d868a11f82e6/MUNICIPALITY","sourceSha256":"7fbd395dfefb7fb6b6937480ba49f767ca82436452475632fd85e0cd6cd409ee","retrievedAt":"2026-10-04T05:42:26.934861+00:00","boundaryVintage":null,"geometryStatus":"native_source_polygon_display_simplified","simplificationToleranceDegrees":0.00015,"simplificationPreservesTopology":true,"invalidSourceRepair":"make_valid; retain polygonal components; discard zero-area collapsed lines","legalBoundaryIndependentlyVerified":false,"areaId":"b4ddbeb6-e774-48fa-a944-d868a11f82e6"},"geometry":{"type":"Polygon","coordinates":[[[100.482193,14.105456],[100.480256,14.105038],[100.479063,14.107685],[100.475696,14.111122],[100.48178,14.111845],[100.491859,14.114062],[100.495797,14.115395],[100.500008,14.11779],[100.501994,14.119252],[100.502013,14.119794],[100.508624,14.12496],[100.513112,14.127225],[100.514419,14.12835],[100.517731,14.130117],[100.519232,14.126198],[100.522006,14.123912],[100.530169,14.119909],[100.532763,14.119125],[100.535505,14.117866],[100.534285,14.113983],[100.519877,14.106922],[100.513853,14.105489],[100.511073,14.103205],[100.511246,14.101249],[100.513082,14.098607],[100.503985,14.096213],[100.487458,14.098243],[100.485388,14.103076],[100.484392,14.102861],[100.48359,14.104734],[100.482594,14.10452],[100.482193,14.105456]]]},"bbox":[100.475696,14.096213,100.535505,14.130117]},{"type":"Feature","id":"51cbbe56-32cd-4dcd-95eb-70f6d485e47c","properties":{"id":"51cbbe56-32cd-4dcd-95eb-70f6d485e47c","code":"06130708","provinceCode":"13","nameTh":"องค์การบริหารส่วนตำบล บางกระบือ","nameEn":null,"geometryType":"MUNICIPALITY","sourceUrl":"https://landometer.com/api/v2/citymeter-v3/grocery/info/geom/51cbbe56-32cd-4dcd-95eb-70f6d485e47c/MUNICIPALITY","sourceSha256":"17b0308c3c87c6567a84a5c4032a6d1f761906ed92e196925f33bdb63ed5b089","retrievedAt":"2026-10-04T05:42:26.934771+00:00","boundaryVintage":null,"geometryStatus":"native_source_polygon_display_simplified","simplificationToleranceDegrees":0.00015,"simplificationPreservesTopology":true,"invalidSourceRepair":"make_valid; retain polygonal components; discard zero-area collapsed lines","legalBoundaryIndependentlyVerified":false,"areaId":"51cbbe56-32cd-4dcd-95eb-70f6d485e47c"},"geometry":{"type":"MultiPolygon","coordinates":[[[[100.511246,14.101249],[100.511073,14.103205],[100.513853,14.105489],[100.519877,14.106922],[100.534285,14.113983],[100.535505,14.117866],[100.53276434071424,14.119124384405824],[100.536874,14.118044],[100.537811,14.118971],[100.542441,14.117603],[100.545225,14.116322],[100.546428,14.116027],[100.548288,14.114364],[100.549094,14.114247],[100.550357,14.113426],[100.551094,14.112533],[100.551367,14.111093],[100.552676,14.111296],[100.550009,14.110682],[100.548296,14.102253],[100.545184,14.096835],[100.529568,14.086439],[100.527834,14.089638],[100.517246,14.095754],[100.515145,14.098626],[100.503985,14.096213],[100.513082,14.098607],[100.511246,14.101249]]],[[[100.532609,14.119167],[100.532763,14.119125],[100.53276434071424,14.119124384405824],[100.532609,14.119167]]]]},"bbox":[100.503985,14.086439,100.552676,14.119167]},{"type":"Feature","id":"c167b286-7b7c-439d-bbb7-907f1f926b6c","properties":{"id":"c167b286-7b7c-439d-bbb7-907f1f926b6c","code":"06130709","provinceCode":"13","nameTh":"องค์การบริหารส่วนตำบล บางโพธิ์เหนือ","nameEn":null,"geometryType":"MUNICIPALITY","sourceUrl":"https://landometer.com/api/v2/citymeter-v3/grocery/info/geom/c167b286-7b7c-439d-bbb7-907f1f926b6c/MUNICIPALITY","sourceSha256":"d439ba2d46c46c3cd2aa018989ba7865a3fe92604ba774c831001cc82006e875","retrievedAt":"2026-10-04T05:42:26.984321+00:00","boundaryVintage":null,"geometryStatus":"native_source_polygon_display_simplified","simplificationToleranceDegrees":0.00015,"simplificationPreservesTopology":true,"invalidSourceRepair":"make_valid; retain polygonal components; discard zero-area collapsed lines","legalBoundaryIndependentlyVerified":false,"areaId":"c167b286-7b7c-439d-bbb7-907f1f926b6c"},"geometry":{"type":"Polygon","coordinates":[[[100.521521,14.031916],[100.480435,14.057227],[100.482932,14.060957],[100.481743,14.062144],[100.4819,14.069107],[100.48997,14.061781],[100.4953,14.057455],[100.521705,14.057645],[100.515448,14.052613],[100.512174,14.047662],[100.525865,14.042562],[100.524979,14.042892],[100.524574,14.042798],[100.524385,14.042379],[100.525208,14.042025],[100.52536,14.037936],[100.544995,14.032943],[100.542902,14.030044],[100.538688,14.031419],[100.53547,14.031769],[100.534218,14.032235],[100.531971,14.031277],[100.521521,14.031916]]]},"bbox":[100.480435,14.030044,100.544995,14.069107]},{"type":"Feature","id":"c9f4b3d6-6f4a-482a-aabf-26e01cf576fa","properties":{"id":"c9f4b3d6-6f4a-482a-aabf-26e01cf576fa","code":"06130710","provinceCode":"13","nameTh":"องค์การบริหารส่วนตำบล บ้านงิ้ว","nameEn":null,"geometryType":"MUNICIPALITY","sourceUrl":"https://landometer.com/api/v2/citymeter-v3/grocery/info/geom/c9f4b3d6-6f4a-482a-aabf-26e01cf576fa/MUNICIPALITY","sourceSha256":"42815aefd28eb2c5e8b9338e08347ca183129ed736e39c5687c0f1c024ab5ec1","retrievedAt":"2026-10-04T05:42:27.019279+00:00","boundaryVintage":null,"geometryStatus":"native_source_polygon_display_simplified","simplificationToleranceDegrees":0.00015,"simplificationPreservesTopology":true,"invalidSourceRepair":"make_valid; retain polygonal components; discard zero-area collapsed lines","legalBoundaryIndependentlyVerified":false,"areaId":"c9f4b3d6-6f4a-482a-aabf-26e01cf576fa"},"geometry":{"type":"Polygon","coordinates":[[[100.526873,14.084656],[100.544034,14.096069],[100.543325,14.095296],[100.545367,14.093559],[100.54314,14.091772],[100.549758,14.0805],[100.548915,14.079978],[100.549365,14.07963],[100.543682,14.076736],[100.539979,14.074443],[100.536238,14.0729],[100.531061,14.067401],[100.525066,14.073305],[100.523704,14.079364],[100.526873,14.084656]]]},"bbox":[100.523704,14.067401,100.549758,14.096069]},{"type":"Feature","id":"2b550a79-f253-491f-b56e-ce60f1a3c4b5","properties":{"id":"2b550a79-f253-491f-b56e-ce60f1a3c4b5","code":"06130711","provinceCode":"13","nameTh":"องค์การบริหารส่วนตำบล บ้านปทุม","nameEn":null,"geometryType":"MUNICIPALITY","sourceUrl":"https://landometer.com/api/v2/citymeter-v3/grocery/info/geom/2b550a79-f253-491f-b56e-ce60f1a3c4b5/MUNICIPALITY","sourceSha256":"ba94a3bf956e2288f0d8e7c9ab94215feb1cc01db7fcc7aa70d3f91e4f6a9da8","retrievedAt":"2026-10-04T05:42:27.017428+00:00","boundaryVintage":null,"geometryStatus":"native_source_polygon_display_simplified","simplificationToleranceDegrees":0.00015,"simplificationPreservesTopology":true,"invalidSourceRepair":"make_valid; retain polygonal components; discard zero-area collapsed lines","legalBoundaryIndependentlyVerified":false,"areaId":"2b550a79-f253-491f-b56e-ce60f1a3c4b5"},"geometry":{"type":"MultiPolygon","coordinates":[[[[100.550039,14.052586],[100.549871,14.051649],[100.55011,14.052984],[100.550039,14.052586]]],[[[100.563924,14.057794],[100.553017,14.050261],[100.55011,14.052984],[100.531116,14.067459],[100.536238,14.0729],[100.539979,14.074443],[100.543682,14.076736],[100.575506,14.092936],[100.586073,14.096138],[100.58928,14.074246],[100.58554,14.073466],[100.585302,14.07451],[100.580338,14.079783],[100.575528,14.082299],[100.571198,14.081976],[100.569221,14.078628],[100.566175,14.071112],[100.56595,14.061303],[100.563924,14.057794]]]]},"bbox":[100.531116,14.050261,100.58928,14.096138]}]}
