{"type":"FeatureCollection","metadata":{"provinceCode":"74","source":"CityMETER native source fine polygons","retrievedAt":"2026-10-04T05:48:11.947192+00:00","total":37,"retrieved":37,"displaySimplificationToleranceDegrees":0.00015,"legalBoundaryIndependentlyVerified":false},"features":[{"type":"Feature","id":"44e3211f-1ee3-45d0-8f82-7cfe572f4877","properties":{"id":"44e3211f-1ee3-45d0-8f82-7cfe572f4877","code":"03740102","provinceCode":"74","nameTh":"เทศบาลนคร สมุทรสาคร","nameEn":null,"geometryType":"MUNICIPALITY","sourceUrl":"https://landometer.com/api/v2/citymeter-v3/grocery/info/geom/44e3211f-1ee3-45d0-8f82-7cfe572f4877/MUNICIPALITY","sourceSha256":"956d3d4b05208087d0de5363ea37ddab1c2bf2d868e3b7ced97998bcd5ccc829","retrievedAt":"2026-10-04T05:44:21.216311+00:00","boundaryVintage":null,"geometryStatus":"native_source_polygon_display_simplified","simplificationToleranceDegrees":0.00015,"simplificationPreservesTopology":true,"invalidSourceRepair":"make_valid; retain polygonal components; discard zero-area collapsed lines","legalBoundaryIndependentlyVerified":false,"areaId":"44e3211f-1ee3-45d0-8f82-7cfe572f4877"},"geometry":{"type":"MultiPolygon","coordinates":[[[[100.265542,13.553427],[100.270014,13.564756],[100.278165,13.563952],[100.276163,13.562024],[100.278238,13.561912],[100.278513,13.560558],[100.284384,13.561844],[100.284819,13.560285],[100.28746,13.560742],[100.289264,13.557622],[100.291471,13.559489],[100.293332,13.557873],[100.294718,13.559318],[100.296282,13.557447],[100.303797,13.559274],[100.306385,13.553666],[100.285442,13.543369],[100.280101,13.542646],[100.282574,13.53686],[100.281409,13.532172],[100.278755,13.53156],[100.278231,13.529847],[100.274397,13.527557],[100.268275,13.528928],[100.263688,13.528183],[100.262068,13.528552],[100.260887,13.52848],[100.256281,13.533059],[100.258164,13.535281],[100.26052,13.547539],[100.263234,13.550116],[100.26271017382868,13.552423234357667],[100.265542,13.553427]]],[[[100.26271,13.552424],[100.26271017382868,13.552423234357667],[100.261976,13.552163],[100.26271,13.552424]]]]},"bbox":[100.256281,13.527557,100.306385,13.564756]},{"type":"Feature","id":"c0a26d58-6b6b-4c64-bfd5-b62d6b14fd47","properties":{"id":"c0a26d58-6b6b-4c64-bfd5-b62d6b14fd47","code":"03740201","provinceCode":"74","nameTh":"เทศบาลนคร อ้อมน้อย","nameEn":null,"geometryType":"MUNICIPALITY","sourceUrl":"https://landometer.com/api/v2/citymeter-v3/grocery/info/geom/c0a26d58-6b6b-4c64-bfd5-b62d6b14fd47/MUNICIPALITY","sourceSha256":"bef8b11284ed7d9f43c53f0cba7edbf93981ca22ab9faef5c5847d8d187f0828","retrievedAt":"2026-10-04T05:44:21.080754+00:00","boundaryVintage":null,"geometryStatus":"native_source_polygon_display_simplified","simplificationToleranceDegrees":0.00015,"simplificationPreservesTopology":true,"invalidSourceRepair":"make_valid; retain polygonal components; discard zero-area collapsed lines","legalBoundaryIndependentlyVerified":false,"areaId":"c0a26d58-6b6b-4c64-bfd5-b62d6b14fd47"},"geometry":{"type":"Polygon","coordinates":[[[100.331343,13.720077],[100.33125,13.720505],[100.333111,13.720838],[100.334572,13.718562],[100.335431,13.717944],[100.336709,13.716465],[100.336078,13.715459],[100.337545,13.714798],[100.338772,13.712769],[100.337823,13.712279],[100.336117,13.710823],[100.33511,13.711204],[100.334144,13.713062],[100.332325,13.712464],[100.332897,13.711546],[100.333403,13.709757],[100.333483,13.708387],[100.333071,13.706918],[100.333427,13.706488],[100.332312,13.704175],[100.332083,13.701991],[100.332298,13.702001],[100.332353,13.699918],[100.330709,13.699665],[100.330558,13.699175],[100.331302,13.697239],[100.332027,13.692834],[100.331693,13.692847],[100.331847,13.691901],[100.317723,13.6897],[100.309367,13.685516],[100.301524,13.686976],[100.298957,13.685721],[100.294133,13.68084],[100.293928,13.680162],[100.287713,13.681875],[100.28532,13.677697],[100.283076,13.678344],[100.281459,13.676087],[100.277901,13.676221],[100.272183,13.680233],[100.266059,13.679225],[100.262828,13.681521],[100.262865,13.683423],[100.260507,13.683654],[100.26016,13.684682],[100.262032,13.685408],[100.263957,13.684568],[100.267083,13.683828],[100.268161,13.683153],[100.269103,13.683086],[100.270747,13.683396],[100.271228,13.683898],[100.274792,13.685905],[100.275741,13.686822],[100.276182,13.687621],[100.276968,13.688243],[100.277988,13.690429],[100.277841,13.690815],[100.278115,13.691134],[100.278158,13.692818],[100.28254,13.692851],[100.286851,13.694235],[100.286018,13.697155],[100.283719,13.697318],[100.283787,13.701614],[100.285218,13.701402],[100.28562,13.703965],[100.28419,13.704145],[100.284663,13.707705],[100.286512,13.708201],[100.286344,13.709542],[100.285848,13.710358],[100.285498,13.711708],[100.283542,13.711805],[100.283646,13.714065],[100.284439,13.714038],[100.285055,13.714826],[100.288869,13.714983],[100.28913,13.716714],[100.290065,13.71779],[100.292774,13.718765],[100.294603,13.716745],[100.296596,13.717787],[100.296967,13.717744],[100.297981,13.71554],[100.298063,13.714189],[100.300738,13.714761],[100.303067,13.714872],[100.304014,13.715183],[100.303549,13.71635],[100.303296,13.716228],[100.302272,13.718054],[100.3019,13.717895],[100.300816,13.720058],[100.301527,13.720228],[100.305296,13.719486],[100.306533,13.719883],[100.30722,13.719841],[100.306449,13.721663],[100.306497,13.723942],[100.308729,13.724807],[100.30897,13.724411],[100.30909,13.721703],[100.310116,13.721824],[100.310483,13.721601],[100.312115,13.72203],[100.31283,13.721833],[100.315599,13.723011],[100.316035,13.720089],[100.318724,13.720238],[100.3204,13.720915],[100.320741,13.719763],[100.32222,13.720056],[100.322593,13.718609],[100.324052,13.71883],[100.324214,13.717327],[100.327186,13.717879],[100.327139,13.718464],[100.331343,13.720077]]]},"bbox":[100.26016,13.676087,100.338772,13.72481]},{"type":"Feature","id":"c7e9a16e-0ed0-42a1-a4b7-7a09f4b4f347","properties":{"id":"c7e9a16e-0ed0-42a1-a4b7-7a09f4b4f347","code":"04740202","provinceCode":"74","nameTh":"เทศบาลเมือง กระทุ่มแบน","nameEn":null,"geometryType":"MUNICIPALITY","sourceUrl":"https://landometer.com/api/v2/citymeter-v3/grocery/info/geom/c7e9a16e-0ed0-42a1-a4b7-7a09f4b4f347/MUNICIPALITY","sourceSha256":"b67530272a1985f0bd210cda6d153d5d29b97fb8e4fc09baf15532ca38ae03ce","retrievedAt":"2026-10-04T05:44:21.079073+00:00","boundaryVintage":null,"geometryStatus":"native_source_polygon_display_simplified","simplificationToleranceDegrees":0.00015,"simplificationPreservesTopology":true,"invalidSourceRepair":"make_valid; retain polygonal components; discard zero-area collapsed lines","legalBoundaryIndependentlyVerified":false,"areaId":"c7e9a16e-0ed0-42a1-a4b7-7a09f4b4f347"},"geometry":{"type":"MultiPolygon","coordinates":[[[[100.230386,13.644528],[100.23054722756999,13.644448283918624],[100.230547,13.644448],[100.230386,13.644528]]],[[[100.255798,13.65653],[100.265347,13.661145],[100.269923,13.65833],[100.273344,13.656744],[100.272416,13.656796],[100.270076,13.653938],[100.267255,13.654405],[100.265897,13.65162],[100.263964,13.653109],[100.257229,13.650286],[100.257366,13.649331],[100.255717,13.649652],[100.256354,13.648135],[100.251755,13.648773],[100.233337,13.642504],[100.232927,13.642975],[100.232608,13.642687],[100.231791,13.643832],[100.23054722756999,13.644448283918624],[100.234836,13.649799],[100.240913,13.650778],[100.245601,13.655099],[100.2487,13.654129],[100.249461,13.657754],[100.252327,13.656188],[100.255798,13.65653]]]]},"bbox":[100.230386,13.642504,100.273344,13.661145]},{"type":"Feature","id":"aa6a69d1-d43e-40bd-9af9-298396cf23fc","properties":{"id":"aa6a69d1-d43e-40bd-9af9-298396cf23fc","code":"04740205","provinceCode":"74","nameTh":"เทศบาลเมือง คลองมะเดื่อ","nameEn":null,"geometryType":"MUNICIPALITY","sourceUrl":"https://landometer.com/api/v2/citymeter-v3/grocery/info/geom/aa6a69d1-d43e-40bd-9af9-298396cf23fc/MUNICIPALITY","sourceSha256":"44c0fca822ebb048720d1a68fb76dc6089f09bb926f05a6e03374515e690ff6d","retrievedAt":"2026-10-04T05:44:21.080092+00:00","boundaryVintage":null,"geometryStatus":"native_source_polygon_display_simplified","simplificationToleranceDegrees":0.00015,"simplificationPreservesTopology":true,"invalidSourceRepair":"make_valid; retain polygonal components; discard zero-area collapsed lines","legalBoundaryIndependentlyVerified":false,"areaId":"aa6a69d1-d43e-40bd-9af9-298396cf23fc"},"geometry":{"type":"MultiPolygon","coordinates":[[[[100.317211,13.624362],[100.31723,13.62375],[100.315493,13.623684],[100.313985,13.623677],[100.313672,13.623721],[100.312509,13.619587],[100.311203,13.619798],[100.309885,13.619455],[100.309116,13.619657],[100.30896,13.620648],[100.307662,13.620718],[100.30698,13.621099],[100.306542,13.621037],[100.306296,13.621386],[100.304618,13.621368],[100.303306,13.620973],[100.301316,13.621315],[100.296334,13.620999],[100.291809,13.621666],[100.291524,13.621142],[100.290069,13.621754],[100.287252,13.621561],[100.287077,13.62235],[100.285954,13.622424],[100.285309,13.619985],[100.282008,13.620377],[100.281794,13.620318],[100.281638,13.619706],[100.280478,13.620866],[100.275553,13.62067],[100.276694,13.625131],[100.274758,13.625937],[100.277494,13.632982],[100.275454,13.633866],[100.278798,13.642458],[100.273702,13.647498],[100.268382,13.648425],[100.266702,13.651868],[100.266141,13.652122],[100.267255,13.654405],[100.270076,13.653938],[100.272416,13.656796],[100.288344,13.653414],[100.288465,13.655234],[100.303259,13.657728],[100.30346991943965,13.654660641826979],[100.303262,13.654661],[100.305025,13.642293],[100.313339,13.6397],[100.315026,13.63361],[100.313675,13.624268],[100.31384,13.623891],[100.314732,13.623699],[100.317211,13.624362]]],[[[100.30347,13.65466],[100.30346991943965,13.654660641826979],[100.304423,13.654659],[100.30347,13.65466]]]]},"bbox":[100.266141,13.619455,100.317267,13.657728]},{"type":"Feature","id":"e5cdc8d5-e013-4ca4-9b03-01851ac19154","properties":{"id":"e5cdc8d5-e013-4ca4-9b03-01851ac19154","code":"05740103","provinceCode":"74","nameTh":"เทศบาลตำบล บางปลา","nameEn":null,"geometryType":"MUNICIPALITY","sourceUrl":"https://landometer.com/api/v2/citymeter-v3/grocery/info/geom/e5cdc8d5-e013-4ca4-9b03-01851ac19154/MUNICIPALITY","sourceSha256":"af1a9185f1c34d36f6aa487102c1b679470481efd5798e689bc273c24befb955","retrievedAt":"2026-10-04T05:44:21.079651+00:00","boundaryVintage":null,"geometryStatus":"native_source_polygon_display_simplified","simplificationToleranceDegrees":0.00015,"simplificationPreservesTopology":true,"invalidSourceRepair":"make_valid; retain polygonal components; discard zero-area collapsed lines","legalBoundaryIndependentlyVerified":false,"areaId":"e5cdc8d5-e013-4ca4-9b03-01851ac19154"},"geometry":{"type":"Polygon","coordinates":[[[100.246831,13.596548],[100.270941,13.598438],[100.272886,13.591343],[100.265487,13.589634],[100.265821,13.587086],[100.261227,13.58586],[100.261292,13.584696],[100.250384,13.584275],[100.233696,13.580304],[100.234497,13.57784],[100.231394,13.576061],[100.228124,13.581189],[100.231165,13.589761],[100.227877,13.593041],[100.233572,13.593874],[100.234767,13.598469],[100.238014,13.5975],[100.237395,13.595695],[100.246982,13.59343],[100.246831,13.596548]]]},"bbox":[100.227877,13.576061,100.272886,13.598469]},{"type":"Feature","id":"72ae9b2c-9972-45df-b83c-c68a4a5675cd","properties":{"id":"72ae9b2c-9972-45df-b83c-c68a4a5675cd","code":"05740104","provinceCode":"74","nameTh":"เทศบาลตำบล บางหญ้าแพรก","nameEn":null,"geometryType":"MUNICIPALITY","sourceUrl":"https://landometer.com/api/v2/citymeter-v3/grocery/info/geom/72ae9b2c-9972-45df-b83c-c68a4a5675cd/MUNICIPALITY","sourceSha256":"8e1c5ff5826ca315cec3359e0c403d3c0aee4313e49134d8c96dbabb68c50f9f","retrievedAt":"2026-10-04T05:44:21.080345+00:00","boundaryVintage":null,"geometryStatus":"native_source_polygon_display_simplified","simplificationToleranceDegrees":0.00015,"simplificationPreservesTopology":true,"invalidSourceRepair":"make_valid; retain polygonal components; discard zero-area collapsed lines","legalBoundaryIndependentlyVerified":false,"areaId":"72ae9b2c-9972-45df-b83c-c68a4a5675cd"},"geometry":{"type":"Polygon","coordinates":[[[100.28889,13.508791],[100.290141,13.507693],[100.287332,13.503212],[100.283416,13.505266],[100.281853,13.506643],[100.275061,13.505108],[100.274888,13.504184],[100.274711,13.504573],[100.274448,13.504602],[100.273311,13.502746],[100.272271,13.49943],[100.271114,13.493235],[100.27016,13.490679],[100.266044,13.485299],[100.260172,13.480507],[100.258206,13.479697],[100.255274,13.478011],[100.25376,13.477819],[100.251218,13.476471],[100.247772,13.475508],[100.246043,13.474485],[100.245925,13.474163],[100.246194,13.473698],[100.245349,13.473172],[100.244669,13.474558],[100.243226,13.474423],[100.242826,13.473838],[100.242225,13.474499],[100.241727,13.474627],[100.240444,13.474062],[100.240212,13.473367],[100.23728,13.473284],[100.236516,13.474193],[100.236273,13.473888],[100.23647,13.473427],[100.236159,13.473524],[100.235489,13.473239],[100.235113,13.472584],[100.230391,13.472753],[100.229449,13.472538],[100.228854,13.471752],[100.225247,13.486459],[100.225085,13.49924],[100.231463,13.503295],[100.230528,13.506815],[100.23346,13.509181],[100.232791,13.51533],[100.236048,13.517334],[100.23371,13.522935],[100.235288,13.523293],[100.235319,13.523754],[100.238333,13.524164],[100.24094,13.51605],[100.24973,13.516157],[100.253197,13.519247],[100.256082,13.5259],[100.260887,13.52848],[100.262068,13.528552],[100.263688,13.528183],[100.268275,13.528928],[100.274397,13.527557],[100.278231,13.529847],[100.278755,13.53156],[100.281409,13.532172],[100.282574,13.53686],[100.280101,13.542646],[100.285442,13.543369],[100.296126,13.548622],[100.302025,13.54164],[100.308275,13.541375],[100.308183,13.525865],[100.299666,13.525322],[100.296138,13.513207],[100.289012,13.513105],[100.28889,13.508791]]]},"bbox":[100.225085,13.471752,100.308275,13.548622]},{"type":"Feature","id":"c1ce7b8c-d190-4a3f-a151-610feccc2749","properties":{"id":"c1ce7b8c-d190-4a3f-a151-610feccc2749","code":"05740105","provinceCode":"74","nameTh":"เทศบาลตำบล นาดี","nameEn":null,"geometryType":"MUNICIPALITY","sourceUrl":"https://landometer.com/api/v2/citymeter-v3/grocery/info/geom/c1ce7b8c-d190-4a3f-a151-610feccc2749/MUNICIPALITY","sourceSha256":"79927d51b0055437b70096f1596132a4b44029f8164a57b8bccd1bb029f91ddd","retrievedAt":"2026-10-04T05:44:21.216970+00:00","boundaryVintage":null,"geometryStatus":"native_source_polygon_display_simplified","simplificationToleranceDegrees":0.00015,"simplificationPreservesTopology":true,"invalidSourceRepair":"make_valid; retain polygonal components; discard zero-area collapsed lines","legalBoundaryIndependentlyVerified":false,"areaId":"c1ce7b8c-d190-4a3f-a151-610feccc2749"},"geometry":{"type":"Polygon","coordinates":[[[100.316925,13.60909],[100.315229,13.608019],[100.314497,13.605494],[100.317161,13.598588],[100.315044,13.590384],[100.315486,13.586098],[100.319237,13.5845],[100.322404,13.580755],[100.321207,13.580031],[100.31885,13.583765],[100.295055,13.563004],[100.293356,13.564763],[100.29223,13.563407],[100.293745,13.561863],[100.292345,13.560422],[100.290921,13.560124],[100.2896,13.562359],[100.28746,13.560742],[100.287141,13.562808],[100.289187,13.563557],[100.288219,13.565424],[100.280742,13.572992],[100.283149,13.576442],[100.279631,13.577446],[100.282455,13.578813],[100.281451,13.580644],[100.279391,13.581764],[100.270193,13.583299],[100.26886,13.585988],[100.269597,13.590584],[100.272886,13.591343],[100.270941,13.598438],[100.270166,13.598378],[100.27043,13.604921],[100.270641,13.604954],[100.270958,13.6092],[100.272796,13.608723],[100.274013,13.608912],[100.273628,13.611332],[100.276745,13.611446],[100.277111,13.612666],[100.279882,13.612593],[100.281794,13.620318],[100.285309,13.619985],[100.285954,13.622424],[100.287077,13.62235],[100.287252,13.621561],[100.290069,13.621754],[100.291524,13.621142],[100.291809,13.621666],[100.296334,13.620999],[100.301316,13.621315],[100.303306,13.620973],[100.304618,13.621368],[100.306296,13.621386],[100.306542,13.621037],[100.30698,13.621099],[100.307662,13.620718],[100.30896,13.620648],[100.308985,13.619732],[100.309727,13.619486],[100.311203,13.619798],[100.312509,13.619587],[100.312588,13.619772],[100.315281,13.617624],[100.315078,13.611745],[100.316925,13.60909]]]},"bbox":[100.26886,13.560124,100.322404,13.622424]},{"type":"Feature","id":"cbeb16c0-2055-4f35-b7aa-85cb5c9c308a","properties":{"id":"cbeb16c0-2055-4f35-b7aa-85cb5c9c308a","code":"05740106","provinceCode":"74","nameTh":"เทศบาลตำบล ท่าจีน","nameEn":null,"geometryType":"MUNICIPALITY","sourceUrl":"https://landometer.com/api/v2/citymeter-v3/grocery/info/geom/cbeb16c0-2055-4f35-b7aa-85cb5c9c308a/MUNICIPALITY","sourceSha256":"840d2203dbaccc071ba8c021691a751903e970cea386f0bf3acbbe15b244b062","retrievedAt":"2026-10-04T05:44:21.079331+00:00","boundaryVintage":null,"geometryStatus":"native_source_polygon_display_simplified","simplificationToleranceDegrees":0.00015,"simplificationPreservesTopology":true,"invalidSourceRepair":"make_valid; retain polygonal components; discard zero-area collapsed lines","legalBoundaryIndependentlyVerified":false,"areaId":"cbeb16c0-2055-4f35-b7aa-85cb5c9c308a"},"geometry":{"type":"Polygon","coordinates":[[[100.262585,13.552979],[100.263234,13.550116],[100.26052,13.547539],[100.258164,13.535281],[100.256281,13.533059],[100.260974,13.528393],[100.256082,13.5259],[100.253197,13.519247],[100.24973,13.516157],[100.24094,13.51605],[100.238333,13.524164],[100.235144,13.52373],[100.236145,13.536274],[100.233951,13.538438],[100.236589,13.542012],[100.239188,13.542636],[100.240311,13.54347],[100.241159,13.54604],[100.250403,13.545567],[100.253067,13.554015],[100.258645,13.554339],[100.262585,13.552979]]]},"bbox":[100.233951,13.51605,100.263234,13.554339]},{"type":"Feature","id":"6325a8b0-18b8-4ce3-89f8-5bdeae25d5e4","properties":{"id":"6325a8b0-18b8-4ce3-89f8-5bdeae25d5e4","code":"05740114","provinceCode":"74","nameTh":"เทศบาลตำบล คอกกระบือ","nameEn":null,"geometryType":"MUNICIPALITY","sourceUrl":"https://landometer.com/api/v2/citymeter-v3/grocery/info/geom/6325a8b0-18b8-4ce3-89f8-5bdeae25d5e4/MUNICIPALITY","sourceSha256":"e25a86cd3b4223fe2384ca727100465e40ed2fa6685d7ce7e6d3d8ff7e327762","retrievedAt":"2026-10-04T05:44:21.302577+00:00","boundaryVintage":null,"geometryStatus":"native_source_polygon_display_simplified","simplificationToleranceDegrees":0.00015,"simplificationPreservesTopology":true,"invalidSourceRepair":"make_valid; retain polygonal components; discard zero-area collapsed lines","legalBoundaryIndependentlyVerified":false,"areaId":"6325a8b0-18b8-4ce3-89f8-5bdeae25d5e4"},"geometry":{"type":"Polygon","coordinates":[[[100.350181,13.622554],[100.351737,13.621264],[100.342198,13.609028],[100.350376,13.602964],[100.352603,13.598246],[100.338063,13.585193],[100.339566,13.583812],[100.333358,13.580917],[100.319316,13.579682],[100.31885,13.583765],[100.321207,13.580031],[100.322404,13.580755],[100.319237,13.5845],[100.315486,13.586098],[100.315044,13.590384],[100.317161,13.598588],[100.314497,13.605494],[100.315229,13.608019],[100.324908,13.613947],[100.335976,13.614607],[100.339145,13.624885],[100.339675,13.625194],[100.342723,13.625958],[100.348402,13.624346],[100.348717,13.627785],[100.350904,13.624544],[100.350181,13.622554]]]},"bbox":[100.314497,13.579682,100.352603,13.627785]},{"type":"Feature","id":"b904963f-b89e-417b-943c-e52a26d1a8d2","properties":{"id":"b904963f-b89e-417b-943c-e52a26d1a8d2","code":"05740203","provinceCode":"74","nameTh":"เทศบาลตำบล สวนหลวง","nameEn":null,"geometryType":"MUNICIPALITY","sourceUrl":"https://landometer.com/api/v2/citymeter-v3/grocery/info/geom/b904963f-b89e-417b-943c-e52a26d1a8d2/MUNICIPALITY","sourceSha256":"fab2972592d3fef3006169d0e156732e50572fc1263762068138279c10b2c8ed","retrievedAt":"2026-10-04T05:44:21.290061+00:00","boundaryVintage":null,"geometryStatus":"native_source_polygon_display_simplified","simplificationToleranceDegrees":0.00015,"simplificationPreservesTopology":true,"invalidSourceRepair":"make_valid; retain polygonal components; discard zero-area collapsed lines","legalBoundaryIndependentlyVerified":false,"areaId":"b904963f-b89e-417b-943c-e52a26d1a8d2"},"geometry":{"type":"Polygon","coordinates":[[[100.333734,13.683995],[100.333578,13.681366],[100.336069,13.676992],[100.337612,13.677294],[100.338246,13.674982],[100.338801,13.669669],[100.339345,13.667708],[100.340107,13.666719],[100.34018,13.665003],[100.341251,13.661314],[100.340809,13.658803],[100.339767,13.657689],[100.339379,13.655173],[100.319582,13.65502],[100.314825,13.653557],[100.314494,13.654642],[100.30347,13.65466],[100.303259,13.657728],[100.288465,13.655234],[100.288344,13.653414],[100.273307,13.656607],[100.267695,13.6597],[100.268108,13.660013],[100.269786,13.659325],[100.271964,13.663433],[100.280156,13.662861],[100.289612,13.665919],[100.290963,13.674744],[100.294034,13.680132],[100.294133,13.68084],[100.298957,13.685721],[100.301524,13.686976],[100.309367,13.685516],[100.317723,13.6897],[100.331847,13.691901],[100.331693,13.692847],[100.331866,13.692874],[100.332084,13.692708],[100.332031,13.691348],[100.332429,13.688364],[100.333734,13.683995]]]},"bbox":[100.267695,13.653414,100.341302,13.692874]},{"type":"Feature","id":"9ca10c19-bbc3-41bc-83a7-b77024c67758","properties":{"id":"9ca10c19-bbc3-41bc-83a7-b77024c67758","code":"05740204","provinceCode":"74","nameTh":"เทศบาลตำบล ดอนไก่ดี","nameEn":null,"geometryType":"MUNICIPALITY","sourceUrl":"https://landometer.com/api/v2/citymeter-v3/grocery/info/geom/9ca10c19-bbc3-41bc-83a7-b77024c67758/MUNICIPALITY","sourceSha256":"b00ba1bfbcca6a646d604e43dbb463c75a50607d2ce1470453f1c6a48ffcd5d4","retrievedAt":"2026-10-04T05:44:21.296973+00:00","boundaryVintage":null,"geometryStatus":"native_source_polygon_display_simplified","simplificationToleranceDegrees":0.00015,"simplificationPreservesTopology":true,"invalidSourceRepair":"make_valid; retain polygonal components; discard zero-area collapsed lines","legalBoundaryIndependentlyVerified":false,"areaId":"9ca10c19-bbc3-41bc-83a7-b77024c67758"},"geometry":{"type":"MultiPolygon","coordinates":[[[[100.27064,13.604952],[100.270625,13.604939],[100.27063997930013,13.604953043093866],[100.27064,13.604952]]],[[[100.270571,13.608429],[100.265974,13.607827],[100.271197,13.610266],[100.268513,13.61452],[100.265362,13.614999],[100.264989,13.630549],[100.263116,13.63513],[100.26034,13.634958],[100.258884,13.632866],[100.255723,13.638118],[100.256344,13.639492],[100.250938,13.641623],[100.241067,13.638844],[100.24031,13.644878],[100.251755,13.648773],[100.256354,13.648135],[100.255717,13.649652],[100.257366,13.649331],[100.2572290264828,13.6502858153936],[100.263964,13.653109],[100.265897,13.65162],[100.26614159757797,13.652121729438853],[100.266702,13.651868],[100.268382,13.648425],[100.273702,13.647498],[100.278798,13.642458],[100.27545404435986,13.633866113977243],[100.277494,13.632982],[100.274758,13.625937],[100.276694,13.625131],[100.275553,13.62067],[100.280478,13.620866],[100.281638,13.619706],[100.28132,13.618315],[100.279882,13.612593],[100.277111,13.612666],[100.276745,13.611446],[100.273628,13.611332],[100.274013,13.608912],[100.272796,13.608723],[100.270958,13.6092],[100.27063997930013,13.604953043093866],[100.270571,13.608429]],[[100.275452,13.633867],[100.275454,13.633866],[100.27545404435986,13.633866113977243],[100.275452,13.633867]]],[[[100.257229,13.650286],[100.2572290264828,13.6502858153936],[100.255717,13.649652],[100.257229,13.650286]]],[[[100.26658,13.653021],[100.26614159757797,13.652121729438853],[100.266141,13.652122],[100.26658,13.653021]]]]},"bbox":[100.24031,13.604939,100.281638,13.653109]},{"type":"Feature","id":"5a9e4e7b-05fa-4568-b4c8-8d29bde7ccb9","properties":{"id":"5a9e4e7b-05fa-4568-b4c8-8d29bde7ccb9","code":"05740206","provinceCode":"74","nameTh":"เทศบาลตำบล แคราย","nameEn":null,"geometryType":"MUNICIPALITY","sourceUrl":"https://landometer.com/api/v2/citymeter-v3/grocery/info/geom/5a9e4e7b-05fa-4568-b4c8-8d29bde7ccb9/MUNICIPALITY","sourceSha256":"08fa9cdfd005963f2f4f6a95ba05d9f987338c67d23f37de709acc9ea3065662","retrievedAt":"2026-10-04T05:44:21.298863+00:00","boundaryVintage":null,"geometryStatus":"native_source_polygon_display_simplified","simplificationToleranceDegrees":0.00015,"simplificationPreservesTopology":true,"invalidSourceRepair":"make_valid; retain polygonal components; discard zero-area collapsed lines","legalBoundaryIndependentlyVerified":false,"areaId":"5a9e4e7b-05fa-4568-b4c8-8d29bde7ccb9"},"geometry":{"type":"MultiPolygon","coordinates":[[[[100.339384,13.65499],[100.345045,13.654708],[100.346837,13.65534],[100.346846,13.652253],[100.346324,13.649174],[100.344676,13.649228],[100.345449,13.644725],[100.347171,13.645061],[100.347358,13.643638],[100.348606,13.643725],[100.34852,13.641009],[100.350213,13.640961],[100.350242,13.640497],[100.340144,13.639091],[100.336111,13.638837],[100.33225,13.636355],[100.329292,13.632653],[100.327939,13.632246],[100.325666,13.630185],[100.323618,13.63058],[100.324003,13.627702],[100.323269,13.626666],[100.321962,13.625726],[100.317693,13.625196],[100.317176,13.624803],[100.317211,13.624362],[100.314732,13.623699],[100.31384,13.623891],[100.313675,13.624268],[100.315026,13.63361],[100.313339,13.6397],[100.305025,13.642293],[100.303262,13.654661],[100.314494,13.654642],[100.314825,13.653557],[100.319582,13.65502],[100.33937853756986,13.655172991409966],[100.339384,13.65499]]],[[[100.33937841509434,13.655177094339567],[100.339379,13.655173],[100.33937853756986,13.655172991409966],[100.33937841509434,13.655177094339567]]],[[[100.33937841509434,13.655177094339567],[100.339378,13.65518],[100.339374,13.655325],[100.33937841509434,13.655177094339567]]]]},"bbox":[100.303262,13.623699,100.350242,13.65534]},{"type":"Feature","id":"8050f76c-0dfc-477f-9901-8e9408b48464","properties":{"id":"8050f76c-0dfc-477f-9901-8e9408b48464","code":"05740301","provinceCode":"74","nameTh":"เทศบาลตำบล เกษตรพัฒนา","nameEn":null,"geometryType":"MUNICIPALITY","sourceUrl":"https://landometer.com/api/v2/citymeter-v3/grocery/info/geom/8050f76c-0dfc-477f-9901-8e9408b48464/MUNICIPALITY","sourceSha256":"501b665d10830645156b19c99d11247e8ad18f42c6d1ca0a10def726bdd6da7a","retrievedAt":"2026-10-04T05:44:21.297276+00:00","boundaryVintage":null,"geometryStatus":"native_source_polygon_display_simplified","simplificationToleranceDegrees":0.00015,"simplificationPreservesTopology":true,"invalidSourceRepair":"make_valid; retain polygonal components; discard zero-area collapsed lines","legalBoundaryIndependentlyVerified":false,"areaId":"8050f76c-0dfc-477f-9901-8e9408b48464"},"geometry":{"type":"MultiPolygon","coordinates":[[[[100.207147,13.642533],[100.2070633345783,13.642632889514887],[100.207064,13.642633],[100.207147,13.642533]]],[[[100.1459,13.646343],[100.145587,13.646068],[100.142175,13.654655],[100.142406,13.656133],[100.1459,13.646343]]],[[[100.16359,13.676781],[100.165877,13.678744],[100.167925,13.679657],[100.169706,13.679949],[100.171453,13.680568],[100.173409,13.678557],[100.172882,13.677723],[100.170729,13.675905],[100.169661,13.674544],[100.17155,13.673554],[100.174423,13.671279],[100.175743,13.668738],[100.180359,13.664484],[100.183677,13.662118],[100.188972,13.660457],[100.188895,13.659047],[100.19082,13.657687],[100.200358,13.654076],[100.200033,13.651088],[100.204929,13.651478],[100.207016,13.651269],[100.206885,13.648161],[100.206586,13.647582],[100.20593,13.643419],[100.2070633345783,13.642632889514887],[100.20185,13.644658],[100.197261,13.642149],[100.180399,13.653688],[100.17721,13.655465],[100.16966,13.65271],[100.167571,13.653524],[100.16513,13.64996],[100.15949,13.647532],[100.157814,13.652361],[100.146243,13.645382],[100.142406,13.656133],[100.142616,13.657473],[100.14044,13.661596],[100.13732,13.662496],[100.135734,13.665078],[100.134386,13.670547],[100.135747,13.671031],[100.130764,13.680709],[100.13015,13.680643],[100.129961,13.681392],[100.132065,13.681722],[100.132295,13.681372],[100.144238,13.683397],[100.15613,13.684237],[100.156455,13.68062],[100.158426,13.679334],[100.16359,13.676781]],[[100.190607,13.657822],[100.190664,13.657786],[100.190614,13.657818],[100.190607,13.657822]]]]},"bbox":[100.129949,13.642149,100.207147,13.684238]},{"type":"Feature","id":"d3e577d2-6257-40a3-9c00-715e29868b0b","properties":{"id":"d3e577d2-6257-40a3-9c00-715e29868b0b","code":"05740302","provinceCode":"74","nameTh":"เทศบาลตำบล บ้านแพ้ว","nameEn":null,"geometryType":"MUNICIPALITY","sourceUrl":"https://landometer.com/api/v2/citymeter-v3/grocery/info/geom/d3e577d2-6257-40a3-9c00-715e29868b0b/MUNICIPALITY","sourceSha256":"3aa48cb245a0e8d722a73a3a1156749b0358ec17633c99605cf533859f69a462","retrievedAt":"2026-10-04T05:44:21.302433+00:00","boundaryVintage":null,"geometryStatus":"native_source_polygon_display_simplified","simplificationToleranceDegrees":0.00015,"simplificationPreservesTopology":true,"invalidSourceRepair":"make_valid; retain polygonal components; discard zero-area collapsed lines","legalBoundaryIndependentlyVerified":false,"areaId":"d3e577d2-6257-40a3-9c00-715e29868b0b"},"geometry":{"type":"MultiPolygon","coordinates":[[[[100.096061,13.586459],[100.112971,13.594641],[100.112096,13.594218],[100.11209592205307,13.594218077946918],[100.112972,13.594642],[100.114763,13.591536],[100.098724,13.583191],[100.096841,13.583981],[100.096061,13.586459]]],[[[100.112095,13.594219],[100.11209592205307,13.594218077946918],[100.096061,13.586459],[100.112095,13.594219]]]]},"bbox":[100.096061,13.583191,100.114763,13.594642]},{"type":"Feature","id":"56fc0d4f-fffc-464d-9ef5-b71db3f1d073","properties":{"id":"56fc0d4f-fffc-464d-9ef5-b71db3f1d073","code":"05740303","provinceCode":"74","nameTh":"เทศบาลตำบล หลักห้า","nameEn":null,"geometryType":"MUNICIPALITY","sourceUrl":"https://landometer.com/api/v2/citymeter-v3/grocery/info/geom/56fc0d4f-fffc-464d-9ef5-b71db3f1d073/MUNICIPALITY","sourceSha256":"7d31344a78a4af04643c03abe2da002c445cfda686189ea904608db53102db34","retrievedAt":"2026-10-04T05:44:21.318047+00:00","boundaryVintage":null,"geometryStatus":"native_source_polygon_display_simplified","simplificationToleranceDegrees":0.00015,"simplificationPreservesTopology":true,"invalidSourceRepair":"make_valid; retain polygonal components; discard zero-area collapsed lines","legalBoundaryIndependentlyVerified":false,"areaId":"56fc0d4f-fffc-464d-9ef5-b71db3f1d073"},"geometry":{"type":"MultiPolygon","coordinates":[[[[100.045997,13.559314],[100.043806,13.564472],[100.042669,13.568057],[100.041206,13.571279],[100.039513,13.577426],[100.038873,13.577378],[100.03855,13.579515],[100.037222,13.582497],[100.040295,13.583121],[100.038948,13.588496],[100.038783,13.593247],[100.040261,13.593088],[100.042369,13.593616],[100.043015,13.59406],[100.043192,13.594568],[100.041345,13.597685],[100.041201,13.600005],[100.03916,13.602318],[100.038343,13.60431],[100.035539,13.607141],[100.033132,13.608701],[100.032792,13.610467],[100.03111,13.612614],[100.034045,13.614106],[100.034838,13.612631],[100.036994,13.613732],[100.037833,13.612437],[100.043042,13.615049],[100.043256,13.615074],[100.043167,13.614689],[100.043536,13.614716],[100.046222,13.615597],[100.046848,13.616279],[100.047102,13.617267],[100.048962,13.618861],[100.051333,13.619402],[100.051801,13.618598],[100.053876,13.618941],[100.05333,13.622162],[100.054084,13.623907],[100.053954,13.625729],[100.052538,13.627202],[100.052409,13.62796],[100.053106,13.6281],[100.054093,13.628813],[100.055274,13.63056],[100.057395,13.632248],[100.058127,13.634464],[100.058582,13.635089],[100.058517,13.636538],[100.059079,13.636556],[100.062633,13.635123],[100.063332,13.636046],[100.062611,13.642567],[100.062813,13.643287],[100.063422,13.643645],[100.063612,13.642639],[100.064016,13.64201],[100.064703,13.641845],[100.064603,13.643739],[100.065129,13.645382],[100.065584,13.642973],[100.065835,13.644566],[100.066191,13.645147],[100.066574,13.643121],[100.066798,13.644297],[100.067257,13.644891],[100.067564,13.643269],[100.067761,13.644027],[100.068371,13.644385],[100.068561,13.643379],[100.068964,13.64275],[100.069652,13.642585],[100.069539,13.643603],[100.06977,13.644359],[100.070356,13.644651],[100.070533,13.643713],[100.079095,13.6442],[100.080019,13.638641],[100.091301,13.619091],[100.093709,13.610248],[100.097633,13.607793],[100.097767,13.605171],[100.095333,13.602769],[100.096904,13.593215],[100.096061,13.586459],[100.096841,13.583981],[100.09788799124432,13.583541987371612],[100.097732,13.583317],[100.0979,13.582865],[100.101712,13.580337],[100.101443,13.568669],[100.099334,13.566385],[100.09985,13.564566],[100.102315,13.56451],[100.101255,13.56227],[100.103358,13.564119],[100.107496,13.561289],[100.107564,13.557986],[100.112982,13.550902],[100.11574,13.55137],[100.117948,13.547181],[100.117197,13.543225],[100.119182,13.543929],[100.11989,13.542251],[100.121207,13.543398],[100.122337,13.541792],[100.124646,13.542385],[100.125606,13.540338],[100.134712,13.539393],[100.134132,13.536527],[100.136137,13.53625],[100.13676,13.534161],[100.141982,13.53615],[100.146969,13.535972],[100.148875,13.533796],[100.148478,13.533241],[100.147789,13.533127],[100.147604,13.532545],[100.146934,13.532025],[100.146241,13.531598],[100.145754,13.531623],[100.145521,13.531092],[100.144427,13.530696],[100.143618,13.529669],[100.142402,13.529368],[100.141731,13.528569],[100.140187,13.527765],[100.139541,13.527127],[100.138296,13.52675],[100.137482,13.525859],[100.136777,13.525635],[100.135315,13.524509],[100.135274,13.523732],[100.134592,13.523743],[100.13447,13.523115],[100.134073,13.522915],[100.133847,13.522225],[100.130511,13.519074],[100.130507,13.518814],[100.128594,13.516683],[100.127963,13.516498],[100.127068,13.516898],[100.126969,13.517275],[100.1259,13.517794],[100.124145,13.519326],[100.123266,13.519573],[100.122798,13.517925],[100.122283,13.517164],[100.121697,13.514014],[100.121311,13.51368],[100.119822,13.513405],[100.119167,13.512942],[100.118821,13.512059],[100.119245,13.510681],[100.118132,13.510552],[100.117739,13.509375],[100.116554,13.507846],[100.117222,13.506915],[100.117011,13.505944],[100.117474,13.50475],[100.116909,13.504343],[100.116565,13.504713],[100.116235,13.504515],[100.115922,13.504782],[100.115738,13.504382],[100.114819,13.504425],[100.114734,13.504119],[100.114102,13.50379],[100.113892,13.50111],[100.113275,13.500376],[100.11178,13.500923],[100.110441,13.501738],[100.107831,13.502018],[100.106051,13.503113],[100.105637,13.503115],[100.084706,13.497099],[100.083377,13.497042],[100.082574,13.496197],[100.081178,13.496184],[100.079714,13.495474],[100.076221,13.494746],[100.074102,13.493785],[100.071784,13.493594],[100.070508,13.492507],[100.068579,13.492403],[100.067322,13.491217],[100.065267,13.490889],[100.064321,13.489837],[100.063111,13.489994],[100.062046,13.489243],[100.053159,13.485802],[100.052245,13.486717],[100.050588,13.489577],[100.050035,13.490015],[100.046667,13.496051],[100.046504,13.497012],[100.045294,13.496805],[100.0451,13.49704],[100.045334,13.497562],[100.045128,13.497968],[100.044785,13.497645],[100.044349,13.497679],[100.043919,13.498256],[100.043008,13.498731],[100.041971,13.498681],[100.042552,13.50039],[100.042,13.501023],[100.04208,13.502393],[100.04253,13.503762],[100.042182,13.503943],[100.041486,13.503711],[100.040488,13.504189],[100.039142,13.503896],[100.0388,13.504588],[100.038482,13.504632],[100.038267,13.504294],[100.037446,13.505256],[100.036075,13.504587],[100.034467,13.505054],[100.033091,13.506268],[100.032196,13.506295],[100.031388,13.506901],[100.030672,13.506588],[100.03045,13.508008],[100.029427,13.507844],[100.029423,13.508176],[100.028792,13.508628],[100.029626,13.509399],[100.029534,13.509936],[100.028677,13.510365],[100.029018,13.511454],[100.02882,13.512829],[100.028591,13.51334],[100.027839,13.513701],[100.027658,13.514405],[100.02786,13.515254],[100.026691,13.517448],[100.02671,13.518327],[100.027924,13.519194],[100.027846,13.520093],[100.028042,13.520523],[100.030101,13.520934],[100.031264,13.520847],[100.031741,13.521874],[100.032014,13.524669],[100.03127,13.524891],[100.031182,13.525605],[100.030232,13.525681],[100.029968,13.526497],[100.02942,13.527044],[100.029584,13.5276],[100.028894,13.528274],[100.028973,13.528822],[100.029705,13.529257],[100.030426,13.530557],[100.031006,13.530755],[100.031282,13.531384],[100.033637,13.531856],[100.035731,13.533921],[100.03873,13.535164],[100.039101,13.535512],[100.041948,13.536527],[100.043092,13.538673],[100.043455,13.539673],[100.04414,13.544496],[100.044042,13.551967],[100.043833,13.554327],[100.042591,13.557592],[100.045997,13.559314]]],[[[100.09788799124432,13.583541987371612],[100.097888,13.583542],[100.098724,13.583191],[100.09788799124432,13.583541987371612]]]]},"bbox":[100.02668,13.485802,100.148875,13.645382]},{"type":"Feature","id":"897dc04f-d47e-4091-aece-6ad16258dce3","properties":{"id":"897dc04f-d47e-4091-aece-6ad16258dce3","code":"06740107","provinceCode":"74","nameTh":"องค์การบริหารส่วนตำบล กาหลง","nameEn":null,"geometryType":"MUNICIPALITY","sourceUrl":"https://landometer.com/api/v2/citymeter-v3/grocery/info/geom/897dc04f-d47e-4091-aece-6ad16258dce3/MUNICIPALITY","sourceSha256":"3235039f7e3aeed1387667788c7d479904889305ea79396612e4d9cfa1d063e7","retrievedAt":"2026-10-04T05:44:21.313834+00:00","boundaryVintage":null,"geometryStatus":"native_source_polygon_display_simplified","simplificationToleranceDegrees":0.00015,"simplificationPreservesTopology":true,"invalidSourceRepair":"make_valid; retain polygonal components; discard zero-area collapsed lines","legalBoundaryIndependentlyVerified":false,"areaId":"897dc04f-d47e-4091-aece-6ad16258dce3"},"geometry":{"type":"MultiPolygon","coordinates":[[[[100.142955,13.497298],[100.140172,13.490388],[100.14308,13.475175],[100.150019,13.453377],[100.152615,13.449098],[100.150421,13.448379],[100.150309,13.447906],[100.149848,13.448393],[100.150069,13.448094],[100.149806,13.447695],[100.149519,13.447994],[100.149019,13.447889],[100.148494,13.448895],[100.147507,13.448625],[100.147018,13.448394],[100.14714,13.447799],[100.146425,13.447405],[100.146532,13.446962],[100.146024,13.446732],[100.145761,13.447],[100.145689,13.446669],[100.145072,13.446477],[100.144531,13.44738],[100.144085,13.447122],[100.144339,13.446469],[100.144023,13.446306],[100.144041,13.446073],[100.143784,13.446021],[100.143583,13.446373],[100.14293,13.445903],[100.141017,13.445393],[100.14059,13.445585],[100.140189,13.444988],[100.1398,13.445154],[100.139736,13.444864],[100.139209,13.444588],[100.138763,13.445037],[100.138557,13.444439],[100.137913,13.444243],[100.137227,13.44425],[100.136743,13.444779],[100.136575,13.443849],[100.135095,13.443245],[100.134703,13.443598],[100.134418,13.443169],[100.132953,13.445784],[100.12041,13.480102],[100.114501,13.482803],[100.112533,13.491626],[100.113191,13.496166],[100.111588,13.498016],[100.106213,13.4965],[100.106805,13.502433],[100.10824,13.501924],[100.110441,13.501738],[100.11178,13.500923],[100.113275,13.500376],[100.113892,13.50111],[100.114102,13.50379],[100.114734,13.504119],[100.114819,13.504425],[100.115738,13.504382],[100.115922,13.504782],[100.116235,13.504515],[100.116565,13.504713],[100.116909,13.504343],[100.117474,13.50475],[100.117011,13.505944],[100.117222,13.506915],[100.116554,13.507846],[100.117739,13.509375],[100.118132,13.510552],[100.119245,13.510681],[100.118821,13.512059],[100.119167,13.512942],[100.119822,13.513405],[100.12012184727172,13.513472616020241],[100.128539,13.509658],[100.135829,13.511743],[100.137432,13.509683],[100.13875,13.504097],[100.142955,13.497298]]],[[[100.1203866206366,13.513532672230486],[100.12012184727172,13.513472616020241],[100.120121,13.513473],[100.1203866206366,13.513532672230486]]],[[[100.1203866206366,13.513532672230486],[100.120657,13.513594],[100.120624,13.513586],[100.1203866206366,13.513532672230486]]]]},"bbox":[100.106213,13.443169,100.152615,13.513594]},{"type":"Feature","id":"fdd20d18-e0a5-4bf2-adf8-a1473f497666","properties":{"id":"fdd20d18-e0a5-4bf2-adf8-a1473f497666","code":"06740108","provinceCode":"74","nameTh":"องค์การบริหารส่วนตำบล โคกขาม","nameEn":null,"geometryType":"MUNICIPALITY","sourceUrl":"https://landometer.com/api/v2/citymeter-v3/grocery/info/geom/fdd20d18-e0a5-4bf2-adf8-a1473f497666/MUNICIPALITY","sourceSha256":"b330315e1da78776d356b302c869188dd7d4dcb5fdc1d493039dcb0e30944218","retrievedAt":"2026-10-04T05:44:21.376969+00:00","boundaryVintage":null,"geometryStatus":"native_source_polygon_display_simplified","simplificationToleranceDegrees":0.00015,"simplificationPreservesTopology":true,"invalidSourceRepair":"make_valid; retain polygonal components; discard zero-area collapsed lines","legalBoundaryIndependentlyVerified":false,"areaId":"fdd20d18-e0a5-4bf2-adf8-a1473f497666"},"geometry":{"type":"Polygon","coordinates":[[[100.343519,13.577465],[100.347187,13.574626],[100.345513,13.573663],[100.345039,13.567665],[100.34621,13.565623],[100.348888,13.56664],[100.34802,13.565218],[100.350229,13.563834],[100.349479,13.547555],[100.345799,13.529898],[100.348263,13.513512],[100.358655,13.513583],[100.359225,13.488093],[100.358247,13.487575],[100.355325,13.486927],[100.34931,13.486593],[100.348531,13.487132],[100.34557,13.486873],[100.344966,13.486374],[100.344084,13.486777],[100.342172,13.486528],[100.340476,13.486917],[100.339667,13.486667],[100.336764,13.486653],[100.33373,13.487072],[100.332382,13.488336],[100.331111,13.488906],[100.330722,13.488787],[100.330195,13.488011],[100.330322,13.486833],[100.330143,13.486488],[100.32919,13.486995],[100.327864,13.487071],[100.326792,13.488289],[100.326069,13.488708],[100.325552,13.488105],[100.323995,13.488061],[100.319279,13.489211],[100.317179,13.490261],[100.314529,13.490932],[100.31262,13.491133],[100.305455,13.494373],[100.303105,13.494905],[100.302048,13.495776],[100.300095,13.496374],[100.299154,13.49702],[100.29421,13.499168],[100.291778,13.500791],[100.287332,13.503212],[100.290141,13.507693],[100.28889,13.508791],[100.289012,13.513105],[100.296138,13.513207],[100.299666,13.525322],[100.308183,13.525865],[100.308275,13.541375],[100.302025,13.54164],[100.296126,13.548622],[100.306385,13.553666],[100.303797,13.559274],[100.296282,13.557447],[100.294718,13.559318],[100.293332,13.557873],[100.291471,13.559489],[100.289264,13.557622],[100.28746,13.560742],[100.2896,13.562359],[100.290921,13.560124],[100.292345,13.560422],[100.293745,13.561863],[100.29223,13.563407],[100.293356,13.564763],[100.295055,13.563004],[100.318726,13.583657],[100.319316,13.579682],[100.333358,13.580917],[100.340131,13.583958],[100.339438,13.58303],[100.339844,13.583118],[100.342421,13.580725],[100.34153,13.579005],[100.343233,13.578891],[100.343519,13.577465]]]},"bbox":[100.287332,13.486374,100.359225,13.583958]},{"type":"Feature","id":"eb57085e-4522-46fa-ac22-b52a9e39f039","properties":{"id":"eb57085e-4522-46fa-ac22-b52a9e39f039","code":"06740109","provinceCode":"74","nameTh":"องค์การบริหารส่วนตำบล ชัยมงคล","nameEn":null,"geometryType":"MUNICIPALITY","sourceUrl":"https://landometer.com/api/v2/citymeter-v3/grocery/info/geom/eb57085e-4522-46fa-ac22-b52a9e39f039/MUNICIPALITY","sourceSha256":"8433d4985e581f2f665761e58ccb65ab70915098a423a7fd0c48fb39780e1446","retrievedAt":"2026-10-04T05:44:21.379331+00:00","boundaryVintage":null,"geometryStatus":"native_source_polygon_display_simplified","simplificationToleranceDegrees":0.00015,"simplificationPreservesTopology":true,"invalidSourceRepair":"make_valid; retain polygonal components; discard zero-area collapsed lines","legalBoundaryIndependentlyVerified":false,"areaId":"eb57085e-4522-46fa-ac22-b52a9e39f039"},"geometry":{"type":"Polygon","coordinates":[[[100.190965,13.549734],[100.194269,13.547024],[100.195363,13.539759],[100.18748,13.525499],[100.170513,13.5198],[100.165179,13.525789],[100.165116,13.530436],[100.157929,13.532936],[100.160382,13.535245],[100.15858,13.538131],[100.157691,13.537775],[100.158162,13.538364],[100.158952,13.538451],[100.160109,13.539123],[100.161083,13.540331],[100.160683,13.540954],[100.162238,13.541443],[100.162983,13.54246],[100.163315,13.542544],[100.163358,13.543012],[100.162297,13.543336],[100.162117,13.543833],[100.162968,13.544915],[100.163896,13.547026],[100.163093,13.547678],[100.163091,13.548407],[100.162475,13.548737],[100.162868,13.549765],[100.162182,13.552315],[100.161425,13.552819],[100.161042,13.552011],[100.160434,13.551829],[100.160222,13.552243],[100.160474,13.552823],[100.160332,13.55342],[100.159786,13.553836],[100.158968,13.553802],[100.159018,13.555032],[100.159834,13.555231],[100.159831,13.55553],[100.158986,13.556146],[100.158212,13.556036],[100.157864,13.556542],[100.156889,13.556838],[100.156152,13.556227],[100.155638,13.556645],[100.155274,13.557524],[100.154839,13.560547],[100.153802,13.562043],[100.153177,13.563558],[100.152185,13.564789],[100.153116,13.565174],[100.155246,13.565524],[100.158578,13.564683],[100.16104,13.564647],[100.163215,13.565487],[100.162113,13.57448],[100.161588,13.576489],[100.18596,13.575516],[100.18582,13.568539],[100.18243,13.558738],[100.183145,13.55632],[100.187559,13.557134],[100.187965,13.553187],[100.191691,13.552836],[100.190965,13.549734]]]},"bbox":[100.152185,13.5198,100.195363,13.576489]},{"type":"Feature","id":"964fb67a-c434-4ed5-aa6a-8a2550d243ba","properties":{"id":"964fb67a-c434-4ed5-aa6a-8a2550d243ba","code":"06740110","provinceCode":"74","nameTh":"องค์การบริหารส่วนตำบล ท่าทราย","nameEn":null,"geometryType":"MUNICIPALITY","sourceUrl":"https://landometer.com/api/v2/citymeter-v3/grocery/info/geom/964fb67a-c434-4ed5-aa6a-8a2550d243ba/MUNICIPALITY","sourceSha256":"abf902a142963df19d075785fadc4f37e1da5e6001b87b6e0a67fa554dfdc093","retrievedAt":"2026-10-04T05:44:21.376729+00:00","boundaryVintage":null,"geometryStatus":"native_source_polygon_display_simplified","simplificationToleranceDegrees":0.00015,"simplificationPreservesTopology":true,"invalidSourceRepair":"make_valid; retain polygonal components; discard zero-area collapsed lines","legalBoundaryIndependentlyVerified":false,"areaId":"964fb67a-c434-4ed5-aa6a-8a2550d243ba"},"geometry":{"type":"Polygon","coordinates":[[[100.282455,13.578813],[100.279631,13.577446],[100.283149,13.576442],[100.280742,13.572992],[100.288219,13.565424],[100.289187,13.563557],[100.287141,13.562808],[100.28746,13.560742],[100.284819,13.560285],[100.284384,13.561844],[100.278513,13.560558],[100.278238,13.561912],[100.276163,13.562024],[100.278165,13.563952],[100.270014,13.564756],[100.265542,13.553427],[100.26271,13.552424],[100.262585,13.552979],[100.258645,13.554339],[100.253067,13.554015],[100.250403,13.545567],[100.241159,13.54604],[100.240311,13.54347],[100.239188,13.542636],[100.23977,13.546561],[100.235191,13.545928],[100.235334,13.547731],[100.233006,13.547404],[100.232924,13.550796],[100.22664,13.547888],[100.224149,13.551597],[100.219726,13.550281],[100.219607,13.548838],[100.217101,13.55162],[100.216933,13.548822],[100.211833,13.547079],[100.211734,13.544199],[100.202506,13.5438],[100.199584,13.546541],[100.198836,13.548229],[100.202244,13.556323],[100.207582,13.559752],[100.209277,13.564064],[100.212107,13.56361],[100.216178,13.56981],[100.224242,13.57296],[100.230041,13.577698],[100.229586,13.578527],[100.229784,13.578586],[100.231394,13.576061],[100.234497,13.57784],[100.233696,13.580304],[100.250384,13.584275],[100.261292,13.584696],[100.261227,13.58586],[100.265821,13.587086],[100.265487,13.589634],[100.269597,13.590584],[100.26886,13.585988],[100.270193,13.583299],[100.279391,13.581764],[100.281451,13.580644],[100.282455,13.578813]]]},"bbox":[100.198836,13.542636,100.289187,13.590584]},{"type":"Feature","id":"0f73e082-d6c3-45ed-bf4f-53ca570adf24","properties":{"id":"0f73e082-d6c3-45ed-bf4f-53ca570adf24","code":"06740111","provinceCode":"74","nameTh":"องค์การบริหารส่วนตำบล บางโทรัด","nameEn":null,"geometryType":"MUNICIPALITY","sourceUrl":"https://landometer.com/api/v2/citymeter-v3/grocery/info/geom/0f73e082-d6c3-45ed-bf4f-53ca570adf24/MUNICIPALITY","sourceSha256":"18dc903d4bc0550b4ffe08fc69de675c1a8969d1fa9bf190173b099267cd8082","retrievedAt":"2026-10-04T05:44:21.385872+00:00","boundaryVintage":null,"geometryStatus":"native_source_polygon_display_simplified","simplificationToleranceDegrees":0.00015,"simplificationPreservesTopology":true,"invalidSourceRepair":"make_valid; retain polygonal components; discard zero-area collapsed lines","legalBoundaryIndependentlyVerified":false,"areaId":"0f73e082-d6c3-45ed-bf4f-53ca570adf24"},"geometry":{"type":"MultiPolygon","coordinates":[[[[100.170292,13.519454],[100.175562,13.511367],[100.176591,13.507141],[100.178885,13.506343],[100.179678,13.50412],[100.176263,13.498508],[100.175791,13.493408],[100.185766,13.457458],[100.182529,13.456532],[100.181634,13.45659],[100.180612,13.456002],[100.177472,13.455063],[100.176949,13.455802],[100.17642,13.456064],[100.176107,13.455798],[100.17642,13.455309],[100.176333,13.455004],[100.175763,13.454831],[100.175476,13.455115],[100.174668,13.454798],[100.174228,13.45488],[100.173941,13.455297],[100.173742,13.455081],[100.173832,13.454405],[100.172802,13.454193],[100.17259,13.454659],[100.172375,13.454664],[100.172434,13.453912],[100.17181,13.453747],[100.171608,13.453946],[100.171533,13.453664],[100.170526,13.453394],[100.170146,13.454712],[100.169487,13.4547],[100.16938,13.454331],[100.168662,13.454143],[100.168166,13.452993],[100.167135,13.452559],[100.163099,13.451761],[100.161391,13.451681],[100.160228,13.451221],[100.159925,13.450642],[100.158646,13.450249],[100.158367,13.450593],[100.158338,13.450189],[100.158146,13.450575],[100.157887,13.450508],[100.157858,13.450023],[100.156581,13.449636],[100.155803,13.449915],[100.155454,13.449489],[100.154393,13.449349],[100.154295,13.450036],[100.153976,13.450118],[100.153636,13.449913],[100.15367,13.449619],[100.152578,13.449327],[100.150019,13.453377],[100.14308,13.475175],[100.140172,13.490388],[100.142955,13.497298],[100.13875,13.504097],[100.137432,13.509683],[100.135829,13.511743],[100.128539,13.509658],[100.120121,13.513473],[100.121311,13.51368],[100.121697,13.514014],[100.122283,13.517164],[100.122798,13.517925],[100.123266,13.519573],[100.124145,13.519326],[100.1259,13.517794],[100.126969,13.517275],[100.127068,13.516898],[100.127963,13.516498],[100.128594,13.516683],[100.130507,13.518814],[100.130511,13.519074],[100.133847,13.522225],[100.134073,13.522915],[100.13447,13.523115],[100.134592,13.523743],[100.135274,13.523732],[100.135315,13.524509],[100.136777,13.525635],[100.137482,13.525859],[100.138296,13.52675],[100.139541,13.527127],[100.140187,13.527765],[100.141731,13.528569],[100.142402,13.529368],[100.143618,13.529669],[100.144427,13.530696],[100.145521,13.531092],[100.145754,13.531623],[100.146241,13.531598],[100.146934,13.532025],[100.147604,13.532545],[100.147789,13.533127],[100.148478,13.533241],[100.14887,13.533797],[100.150603,13.533737],[100.151263,13.533988],[100.152074,13.535077],[100.153244,13.537582],[100.15446,13.53779],[100.156547,13.536477],[100.157591,13.537618],[100.15858,13.538131],[100.160382,13.535245],[100.157929,13.532936],[100.165116,13.530436],[100.165179,13.525789],[100.170513,13.5198],[100.18748,13.525499],[100.170292,13.519454]]],[[[100.157713,13.537682],[100.157591,13.537618],[100.15769109611925,13.537774593677723],[100.157713,13.537682]]],[[[100.157827,13.537996],[100.15769109611925,13.537774593677723],[100.157691,13.537775],[100.157827,13.537996]]]]},"bbox":[100.120121,13.449327,100.18748,13.538131]},{"type":"Feature","id":"ddfe9583-b5a9-47f6-9466-76644abd5373","properties":{"id":"ddfe9583-b5a9-47f6-9466-76644abd5373","code":"06740112","provinceCode":"74","nameTh":"องค์การบริหารส่วนตำบล บ้านบ่อ","nameEn":null,"geometryType":"MUNICIPALITY","sourceUrl":"https://landometer.com/api/v2/citymeter-v3/grocery/info/geom/ddfe9583-b5a9-47f6-9466-76644abd5373/MUNICIPALITY","sourceSha256":"f7a92ef48cb59ff8b3a6f5deffef1ce1b49821fc71fd43368023c573f9c3eb4c","retrievedAt":"2026-10-04T05:44:21.381046+00:00","boundaryVintage":null,"geometryStatus":"native_source_polygon_display_simplified","simplificationToleranceDegrees":0.00015,"simplificationPreservesTopology":true,"invalidSourceRepair":"make_valid; retain polygonal components; discard zero-area collapsed lines","legalBoundaryIndependentlyVerified":false,"areaId":"ddfe9583-b5a9-47f6-9466-76644abd5373"},"geometry":{"type":"Polygon","coordinates":[[[100.21449,13.465588],[100.208953,13.464179],[100.208546,13.464266],[100.208936,13.462744],[100.207388,13.46205],[100.206677,13.464099],[100.205604,13.463737],[100.204697,13.463727],[100.20445,13.463957],[100.204059,13.463773],[100.20411,13.463234],[100.203513,13.463652],[100.203249,13.463562],[100.203281,13.463152],[100.202838,13.463188],[100.202924,13.46179],[100.200822,13.461366],[100.200319,13.462136],[100.199604,13.462345],[100.198797,13.461762],[100.19879,13.461395],[100.198154,13.461722],[100.198151,13.461107],[100.197935,13.460956],[100.197263,13.461827],[100.196116,13.461785],[100.194727,13.460605],[100.194258,13.4596],[100.193862,13.459896],[100.193394,13.459807],[100.193185,13.460063],[100.192904,13.459206],[100.192486,13.46078],[100.192233,13.460819],[100.192095,13.46048],[100.191481,13.460765],[100.191175,13.460504],[100.191403,13.459244],[100.190873,13.459178],[100.190023,13.459891],[100.189117,13.459556],[100.188717,13.459848],[100.188159,13.459759],[100.187592,13.459468],[100.187488,13.4589],[100.186963,13.458261],[100.187232,13.457623],[100.185766,13.457458],[100.175791,13.493408],[100.176263,13.498508],[100.179678,13.50412],[100.178885,13.506343],[100.176591,13.507141],[100.175562,13.511367],[100.170292,13.519454],[100.18748,13.525499],[100.188842,13.516614],[100.191213,13.51362],[100.189965,13.511869],[100.194423,13.507495],[100.215099,13.465308],[100.21449,13.465588]]]},"bbox":[100.170292,13.457456,100.215099,13.525499]},{"type":"Feature","id":"9fad98d4-0255-4eb4-a0cd-a38d4f720657","properties":{"id":"9fad98d4-0255-4eb4-a0cd-a38d4f720657","code":"06740113","provinceCode":"74","nameTh":"องค์การบริหารส่วนตำบล พันท้ายนรสิงห์","nameEn":null,"geometryType":"MUNICIPALITY","sourceUrl":"https://landometer.com/api/v2/citymeter-v3/grocery/info/geom/9fad98d4-0255-4eb4-a0cd-a38d4f720657/MUNICIPALITY","sourceSha256":"115a522d3565c6aac6d3db0a978513f1f9ab241b99fe20080b0f51063928a6f3","retrievedAt":"2026-10-04T05:44:21.399638+00:00","boundaryVintage":null,"geometryStatus":"native_source_polygon_display_simplified","simplificationToleranceDegrees":0.00015,"simplificationPreservesTopology":true,"invalidSourceRepair":"make_valid; retain polygonal components; discard zero-area collapsed lines","legalBoundaryIndependentlyVerified":false,"areaId":"9fad98d4-0255-4eb4-a0cd-a38d4f720657"},"geometry":{"type":"Polygon","coordinates":[[[100.385542,13.582428],[100.385684,13.581502],[100.385068,13.580907],[100.38516,13.580346],[100.385514,13.580068],[100.384995,13.579129],[100.385607,13.578435],[100.386604,13.577947],[100.386956,13.576676],[100.386165,13.576133],[100.38643,13.575631],[100.387055,13.575448],[100.386647,13.574694],[100.386961,13.574148],[100.38798,13.57429],[100.387521,13.573465],[100.387996,13.572431],[100.388891,13.572561],[100.388892,13.571666],[100.389468,13.571101],[100.389292,13.570478],[100.389488,13.569785],[100.390438,13.569479],[100.390685,13.568977],[100.391485,13.568898],[100.39143,13.568068],[100.390613,13.567579],[100.390989,13.566323],[100.390825,13.565518],[100.391213,13.56517],[100.391414,13.564234],[100.391307,13.563261],[100.392217,13.563104],[100.393121,13.561475],[100.392552,13.56092],[100.392963,13.559531],[100.393365,13.558724],[100.394081,13.558265],[100.394213,13.556066],[100.394751,13.555638],[100.39467,13.554986],[100.395221,13.554511],[100.395576,13.553648],[100.396631,13.553416],[100.397123,13.553036],[100.398031,13.552978],[100.39877,13.553245],[100.39928,13.552722],[100.400233,13.55304],[100.401108,13.552833],[100.401739,13.553197],[100.402444,13.55313],[100.40339,13.553529],[100.404369,13.555059],[100.405058,13.55502],[100.405413,13.554609],[100.406545,13.554416],[100.407386,13.554787],[100.408518,13.554533],[100.409633,13.555046],[100.410599,13.555024],[100.411319,13.555497],[100.411898,13.555476],[100.412299,13.556097],[100.412196,13.556769],[100.412556,13.557241],[100.412987,13.557096],[100.413648,13.557498],[100.41435,13.556874],[100.415214,13.557152],[100.414644,13.551456],[100.416487,13.55039],[100.417944,13.548784],[100.419361,13.547088],[100.42009,13.545241],[100.419506,13.542835],[100.418323,13.540539],[100.417804,13.540153],[100.415881,13.53957],[100.414848,13.538832],[100.414663,13.538438],[100.414877,13.537742],[100.414067,13.535872],[100.406326,13.535797],[100.406825,13.50222],[100.408838,13.49339],[100.404088,13.492877],[100.403628,13.493236],[100.402507,13.493396],[100.402364,13.492473],[100.402048,13.492234],[100.401462,13.492901],[100.400999,13.492769],[100.400799,13.492356],[100.400163,13.492851],[100.399876,13.492515],[100.399474,13.492778],[100.398308,13.49225],[100.398209,13.491612],[100.397184,13.491939],[100.396596,13.491802],[100.396357,13.491255],[100.395942,13.491074],[100.392474,13.490996],[100.392115,13.491142],[100.391908,13.491982],[100.391094,13.491872],[100.390689,13.493188],[100.390298,13.493273],[100.389942,13.492718],[100.38947,13.492882],[100.388122,13.49273],[100.386837,13.492179],[100.386118,13.491571],[100.384502,13.491089],[100.383542,13.491711],[100.383407,13.492193],[100.382227,13.492267],[100.381954,13.491113],[100.382315,13.490572],[100.382216,13.49037],[100.381497,13.490259],[100.381371,13.490625],[100.380548,13.49113],[100.380555,13.490611],[100.38017,13.490459],[100.380165,13.489554],[100.37983,13.489382],[100.379141,13.489405],[100.378809,13.489725],[100.378394,13.489467],[100.376672,13.489323],[100.376368,13.489584],[100.376353,13.490316],[100.376099,13.490616],[100.374504,13.49049],[100.37396,13.489954],[100.373685,13.489994],[100.373364,13.490534],[100.372213,13.490608],[100.366965,13.489713],[100.366213,13.488918],[100.364391,13.488543],[100.364121,13.487784],[100.363551,13.487921],[100.362821,13.487569],[100.362066,13.488026],[100.361425,13.487673],[100.361063,13.488031],[100.36005,13.487989],[100.359599,13.488261],[100.359225,13.488093],[100.358655,13.513583],[100.348263,13.513512],[100.345799,13.529898],[100.349479,13.547555],[100.350229,13.563834],[100.34802,13.565218],[100.348888,13.56664],[100.34621,13.565623],[100.34574,13.566322],[100.345039,13.567665],[100.345513,13.573663],[100.347187,13.574626],[100.343519,13.577465],[100.343233,13.578891],[100.34153,13.579005],[100.342421,13.580725],[100.339844,13.583118],[100.339438,13.58303],[100.340206,13.583938],[100.339566,13.583812],[100.346158,13.585514],[100.34674,13.587228],[100.349787,13.586415],[100.356031,13.588297],[100.357485,13.592448],[100.360039,13.592999],[100.367853,13.599675],[100.378151,13.602991],[100.37844,13.602006],[100.378501,13.598778],[100.378949,13.597474],[100.379091,13.596029],[100.378712,13.595103],[100.378825,13.594472],[100.378518,13.594277],[100.378946,13.593332],[100.379277,13.593351],[100.379967,13.592682],[100.379979,13.592361],[100.380988,13.591722],[100.381003,13.59136],[100.381543,13.591211],[100.382492,13.590243],[100.383009,13.590155],[100.383655,13.58953],[100.384353,13.589534],[100.384442,13.588322],[100.384208,13.587658],[100.384516,13.587417],[100.385089,13.587504],[100.384786,13.587072],[100.38534,13.586438],[100.38488,13.58613],[100.385668,13.585959],[100.385167,13.585424],[100.385796,13.585498],[100.385641,13.585146],[100.385973,13.584977],[100.385277,13.583731],[100.385434,13.583042],[100.38516,13.582639],[100.385542,13.582428]]]},"bbox":[100.339438,13.487569,100.420092,13.602991]},{"type":"Feature","id":"0ff39c42-a1a5-40a7-a8bb-b6eb20825bd2","properties":{"id":"0ff39c42-a1a5-40a7-a8bb-b6eb20825bd2","code":"06740115","provinceCode":"74","nameTh":"องค์การบริหารส่วนตำบล นาโคก","nameEn":null,"geometryType":"MUNICIPALITY","sourceUrl":"https://landometer.com/api/v2/citymeter-v3/grocery/info/geom/0ff39c42-a1a5-40a7-a8bb-b6eb20825bd2/MUNICIPALITY","sourceSha256":"3e75db723bf521724ff91c1cd20b1a64352565c1db343bf037cc495b5f7f3d0e","retrievedAt":"2026-10-04T05:44:21.397260+00:00","boundaryVintage":null,"geometryStatus":"native_source_polygon_display_simplified","simplificationToleranceDegrees":0.00015,"simplificationPreservesTopology":true,"invalidSourceRepair":"make_valid; retain polygonal components; discard zero-area collapsed lines","legalBoundaryIndependentlyVerified":false,"areaId":"0ff39c42-a1a5-40a7-a8bb-b6eb20825bd2"},"geometry":{"type":"Polygon","coordinates":[[[100.111588,13.498016],[100.113191,13.496166],[100.112533,13.491626],[100.114501,13.482803],[100.12041,13.480102],[100.132953,13.445784],[100.134418,13.443169],[100.131289,13.442057],[100.131225,13.442526],[100.131107,13.442221],[100.130517,13.442026],[100.130211,13.442493],[100.13031,13.441817],[100.128664,13.441606],[100.128249,13.441174],[100.127273,13.440869],[100.12696,13.441393],[100.12655,13.441319],[100.126469,13.440671],[100.126102,13.441332],[100.125412,13.441404],[100.124935,13.441105],[100.125182,13.440543],[100.125064,13.440276],[100.123311,13.439674],[100.122966,13.440091],[100.122775,13.43992],[100.122608,13.440062],[100.122312,13.439331],[100.121894,13.439108],[100.121462,13.440079],[100.12119,13.440217],[100.120797,13.439666],[100.120353,13.439679],[100.120373,13.439027],[100.119754,13.439171],[100.119675,13.438934],[100.119395,13.438932],[100.11884,13.439419],[100.117492,13.43875],[100.116662,13.43788],[100.116261,13.437958],[100.116021,13.438386],[100.115581,13.4384],[100.114884,13.437853],[100.115048,13.436906],[100.114806,13.436976],[100.114719,13.437423],[100.114589,13.437156],[100.114095,13.437376],[100.11422,13.436632],[100.110769,13.435487],[100.11006,13.435406],[100.109052,13.43588],[100.108937,13.435457],[100.108344,13.435219],[100.108228,13.435407],[100.10792,13.435328],[100.107742,13.435764],[100.107185,13.435678],[100.107054,13.435328],[100.106659,13.435711],[100.106787,13.434764],[100.10702,13.434569],[100.106259,13.434366],[100.105831,13.434616],[100.104372,13.433413],[100.099822,13.432224],[100.098957,13.431491],[100.093395,13.429673],[100.092885,13.429633],[100.091322,13.430422],[100.091404,13.429685],[100.091031,13.429965],[100.090991,13.429622],[100.090584,13.429345],[100.090026,13.429386],[100.089751,13.429865],[100.089463,13.429858],[100.089289,13.429219],[100.088826,13.429072],[100.088454,13.42847],[100.087819,13.428455],[100.087398,13.428873],[100.086989,13.428937],[100.086614,13.428681],[100.086575,13.428362],[100.08504,13.427839],[100.084616,13.42744],[100.083143,13.42713],[100.081715,13.425975],[100.078917,13.425221],[100.077726,13.428941],[100.078496,13.43735],[100.074091,13.453746],[100.073556,13.455562],[100.073254,13.455903],[100.073319,13.45635],[100.055747,13.481811],[100.054295,13.484329],[100.053298,13.485042],[100.053159,13.485802],[100.062046,13.489243],[100.063111,13.489994],[100.064321,13.489837],[100.065267,13.490889],[100.067322,13.491217],[100.068579,13.492403],[100.070508,13.492507],[100.071784,13.493594],[100.074102,13.493785],[100.076388,13.494803],[100.079714,13.495474],[100.081178,13.496184],[100.082574,13.496197],[100.083377,13.497042],[100.084706,13.497099],[100.105756,13.503141],[100.107324,13.50227],[100.106805,13.502433],[100.106213,13.4965],[100.111588,13.498016]]]},"bbox":[100.053159,13.425205,100.134418,13.503153]},{"type":"Feature","id":"b77b0927-26ef-4991-a162-50aea4db1be3","properties":{"id":"b77b0927-26ef-4991-a162-50aea4db1be3","code":"06740116","provinceCode":"74","nameTh":"องค์การบริหารส่วนตำบล บางกระเจ้า","nameEn":null,"geometryType":"MUNICIPALITY","sourceUrl":"https://landometer.com/api/v2/citymeter-v3/grocery/info/geom/b77b0927-26ef-4991-a162-50aea4db1be3/MUNICIPALITY","sourceSha256":"f867c677d8209688e0aa7765415c93acd51ac7fc376e36ba6fccaf75240a96a8","retrievedAt":"2026-10-04T05:44:21.395258+00:00","boundaryVintage":null,"geometryStatus":"native_source_polygon_display_simplified","simplificationToleranceDegrees":0.00015,"simplificationPreservesTopology":true,"invalidSourceRepair":"make_valid; retain polygonal components; discard zero-area collapsed lines","legalBoundaryIndependentlyVerified":false,"areaId":"b77b0927-26ef-4991-a162-50aea4db1be3"},"geometry":{"type":"MultiPolygon","coordinates":[[[[100.21509880954846,13.465308388594435],[100.215099,13.465308],[100.215084,13.465315],[100.21509880954846,13.465308388594435]]],[[[100.223191,13.467324],[100.223184,13.466881],[100.220545,13.466369],[100.219752,13.467087],[100.21799,13.46667],[100.217565,13.466364],[100.21753,13.465694],[100.217054,13.465457],[100.21617,13.465165],[100.21509880954846,13.465308388594435],[100.194423,13.507495],[100.189965,13.511869],[100.191213,13.51362],[100.188842,13.516614],[100.18748,13.525499],[100.195363,13.539759],[100.194269,13.547024],[100.190965,13.549734],[100.191691,13.552836],[100.187965,13.553187],[100.187639,13.556358],[100.190084,13.556314],[100.199202,13.549289],[100.198836,13.548229],[100.199584,13.546541],[100.202506,13.5438],[100.211734,13.544199],[100.211833,13.547079],[100.216933,13.548822],[100.217101,13.55162],[100.219607,13.548838],[100.219726,13.550281],[100.224149,13.551597],[100.22664,13.547888],[100.232924,13.550796],[100.233006,13.547404],[100.235334,13.547731],[100.235191,13.545928],[100.23977,13.546561],[100.239188,13.542636],[100.236589,13.542012],[100.233951,13.538438],[100.236145,13.536274],[100.235144,13.52373],[100.235319,13.523754],[100.235288,13.523293],[100.23371,13.522935],[100.236048,13.517334],[100.232791,13.51533],[100.23346,13.509181],[100.230528,13.506815],[100.231463,13.503295],[100.225085,13.49924],[100.225247,13.486459],[100.228854,13.471752],[100.227639,13.469869],[100.227935,13.468884],[100.227368,13.468543],[100.226643,13.468757],[100.225801,13.469924],[100.22529,13.469951],[100.224574,13.470429],[100.223874,13.469484],[100.223352,13.469364],[100.222718,13.470111],[100.222304,13.470161],[100.222299,13.469188],[100.223191,13.467324]]]]},"bbox":[100.18748,13.465165,100.23977,13.556358]},{"type":"Feature","id":"9c8f5491-9641-46a1-8bff-651dbd7827f2","properties":{"id":"9c8f5491-9641-46a1-8bff-651dbd7827f2","code":"06740117","provinceCode":"74","nameTh":"องค์การบริหารส่วนตำบล บางน้ำจืด","nameEn":null,"geometryType":"MUNICIPALITY","sourceUrl":"https://landometer.com/api/v2/citymeter-v3/grocery/info/geom/9c8f5491-9641-46a1-8bff-651dbd7827f2/MUNICIPALITY","sourceSha256":"087eff2723ea86079201bf1388d205bc627c1ec1f99cf91cd91c76d3b06cb2e2","retrievedAt":"2026-10-04T05:44:21.455234+00:00","boundaryVintage":null,"geometryStatus":"native_source_polygon_display_simplified","simplificationToleranceDegrees":0.00015,"simplificationPreservesTopology":true,"invalidSourceRepair":"make_valid; retain polygonal components; discard zero-area collapsed lines","legalBoundaryIndependentlyVerified":false,"areaId":"9c8f5491-9641-46a1-8bff-651dbd7827f2"},"geometry":{"type":"Polygon","coordinates":[[[100.366006,13.633624],[100.36721,13.630171],[100.368611,13.630119],[100.369415,13.627561],[100.371572,13.624908],[100.371208,13.624587],[100.371796,13.622731],[100.376482,13.619703],[100.377149,13.606422],[100.378151,13.602988],[100.367853,13.599675],[100.360039,13.592999],[100.357485,13.592448],[100.356031,13.588297],[100.349787,13.586415],[100.34674,13.587228],[100.346158,13.585514],[100.339566,13.583812],[100.338063,13.585193],[100.352603,13.598246],[100.350376,13.602964],[100.342198,13.609028],[100.351737,13.621264],[100.350181,13.622554],[100.350904,13.624544],[100.348717,13.627785],[100.348402,13.624346],[100.342723,13.625958],[100.339675,13.625194],[100.339145,13.624885],[100.335976,13.614607],[100.324908,13.613947],[100.316889,13.609036],[100.315078,13.611745],[100.315281,13.617624],[100.312588,13.619772],[100.313672,13.623721],[100.31723,13.62375],[100.317176,13.624803],[100.317611,13.625166],[100.321962,13.625726],[100.323269,13.626666],[100.324003,13.627702],[100.323618,13.63058],[100.325666,13.630185],[100.327939,13.632246],[100.329292,13.632653],[100.33225,13.636355],[100.336111,13.638837],[100.340144,13.639091],[100.351984,13.640779],[100.35434,13.640889],[100.354764,13.638306],[100.35538,13.63659],[100.357934,13.636944],[100.358697,13.637319],[100.359059,13.63278],[100.364924,13.633891],[100.365588,13.633196],[100.366006,13.633624]]]},"bbox":[100.312588,13.583812,100.378151,13.640925]},{"type":"Feature","id":"34dee09a-3a23-4125-9b0d-ab7c2c3b8358","properties":{"id":"34dee09a-3a23-4125-9b0d-ab7c2c3b8358","code":"06740118","provinceCode":"74","nameTh":"องค์การบริหารส่วนตำบล บ้านเกาะ","nameEn":null,"geometryType":"MUNICIPALITY","sourceUrl":"https://landometer.com/api/v2/citymeter-v3/grocery/info/geom/34dee09a-3a23-4125-9b0d-ab7c2c3b8358/MUNICIPALITY","sourceSha256":"f1674a65e27f44b12df870b75ffba865812cd7b97ea95be62c738fcb2f26d91a","retrievedAt":"2026-10-04T05:44:21.470419+00:00","boundaryVintage":null,"geometryStatus":"native_source_polygon_display_simplified","simplificationToleranceDegrees":0.00015,"simplificationPreservesTopology":true,"invalidSourceRepair":"make_valid; retain polygonal components; discard zero-area collapsed lines","legalBoundaryIndependentlyVerified":false,"areaId":"34dee09a-3a23-4125-9b0d-ab7c2c3b8358"},"geometry":{"type":"Polygon","coordinates":[[[100.265672,13.604363],[100.27043,13.604921],[100.270166,13.598378],[100.246831,13.596548],[100.246982,13.59343],[100.237395,13.595695],[100.238014,13.5975],[100.234767,13.598469],[100.233572,13.593874],[100.227877,13.593041],[100.231165,13.589761],[100.228124,13.581189],[100.229784,13.578586],[100.229586,13.578527],[100.230041,13.577698],[100.224242,13.57296],[100.216178,13.56981],[100.212107,13.56361],[100.209277,13.564064],[100.207582,13.559752],[100.202244,13.556323],[100.199148,13.549162],[100.190084,13.556314],[100.187639,13.556358],[100.187559,13.557134],[100.183145,13.55632],[100.18243,13.558738],[100.18582,13.568539],[100.18596,13.575516],[100.185494,13.575657],[100.185949,13.575649],[100.185795,13.57653],[100.185493,13.576853],[100.183862,13.576678],[100.182944,13.578815],[100.1825,13.578786],[100.181781,13.581119],[100.179624,13.581074],[100.178873,13.580814],[100.178291,13.581313],[100.176648,13.581257],[100.174036,13.583157],[100.173998,13.583337],[100.174633,13.5838],[100.176076,13.583645],[100.177013,13.584222],[100.178239,13.583758],[100.179175,13.584437],[100.18124,13.584904],[100.181242,13.586333],[100.181855,13.586947],[100.182901,13.587316],[100.184364,13.586046],[100.184465,13.585188],[100.183574,13.584339],[100.184214,13.583434],[100.186206,13.584089],[100.186489,13.585556],[100.18713,13.585848],[100.187767,13.585451],[100.187842,13.585142],[100.1876,13.584902],[100.187985,13.584591],[100.188032,13.583976],[100.189034,13.583538],[100.19137,13.584309],[100.19163,13.585488],[100.192473,13.585912],[100.192924,13.585808],[100.193102,13.585172],[100.193857,13.584972],[100.195234,13.585291],[100.196235,13.584858],[100.196559,13.584217],[100.197956,13.584262],[100.200054,13.586328],[100.199996,13.587906],[100.19948,13.588234],[100.199399,13.588705],[100.200583,13.588248],[100.201413,13.588299],[100.201876,13.588494],[100.202484,13.589398],[100.202595,13.589941],[100.202201,13.59111],[100.201503,13.591342],[100.201229,13.591035],[100.201338,13.590385],[100.200778,13.590259],[100.200163,13.590639],[100.199877,13.591381],[100.200064,13.592147],[100.200691,13.592722],[100.202413,13.593198],[100.202792,13.592562],[100.203925,13.592968],[100.210305,13.583254],[100.211719,13.587637],[100.214266,13.587241],[100.214766,13.587385],[100.214985,13.58717],[100.216089,13.58762],[100.216553,13.587567],[100.218743,13.590149],[100.219121,13.590303],[100.219308,13.590863],[100.219904,13.59124],[100.220134,13.592037],[100.221122,13.593111],[100.2218,13.593517],[100.2221,13.594044],[100.223678,13.595052],[100.223322,13.595986],[100.223508,13.597031],[100.224794,13.599079],[100.227268,13.601738],[100.227701,13.60316],[100.227965,13.605516],[100.231075,13.605462],[100.232845,13.605073],[100.233202,13.605202],[100.238794,13.603732],[100.244442,13.602797],[100.248112,13.603471],[100.249397,13.603291],[100.249495,13.604037],[100.251743,13.604016],[100.251988,13.605776],[100.25263,13.607803],[100.254415,13.607539],[100.255446,13.606734],[100.258186,13.607102],[100.25842,13.608002],[100.259753,13.607913],[100.265411,13.608711],[100.265672,13.604363]]]},"bbox":[100.173976,13.549162,100.27043,13.608711]},{"type":"Feature","id":"d796af28-ff11-45ce-b2f5-caaf12835b28","properties":{"id":"d796af28-ff11-45ce-b2f5-caaf12835b28","code":"06740207","provinceCode":"74","nameTh":"องค์การบริหารส่วนตำบล ท่าไม้","nameEn":null,"geometryType":"MUNICIPALITY","sourceUrl":"https://landometer.com/api/v2/citymeter-v3/grocery/info/geom/d796af28-ff11-45ce-b2f5-caaf12835b28/MUNICIPALITY","sourceSha256":"721c47780767124f80cda81527b814e52af38703828faacfc32a1ccf1e35a98c","retrievedAt":"2026-10-04T05:44:21.455340+00:00","boundaryVintage":null,"geometryStatus":"native_source_polygon_display_simplified","simplificationToleranceDegrees":0.00015,"simplificationPreservesTopology":true,"invalidSourceRepair":"make_valid; retain polygonal components; discard zero-area collapsed lines","legalBoundaryIndependentlyVerified":false,"areaId":"d796af28-ff11-45ce-b2f5-caaf12835b28"},"geometry":{"type":"MultiPolygon","coordinates":[[[[100.267695,13.6597],[100.26769507071299,13.659700318208438],[100.268518,13.659194],[100.267695,13.6597]]],[[[100.240839,13.679836],[100.243644,13.67464],[100.252091,13.678933],[100.254614,13.678861],[100.255402,13.680469],[100.255749,13.680721],[100.258578,13.679619],[100.260275,13.681775],[100.26050750250592,13.683653950772323],[100.262865,13.683423],[100.262828,13.681521],[100.266059,13.679225],[100.272183,13.680233],[100.277901,13.676221],[100.281459,13.676087],[100.283076,13.678344],[100.28532,13.677697],[100.287713,13.681875],[100.294034,13.680132],[100.290963,13.674744],[100.289612,13.665919],[100.280156,13.662861],[100.271964,13.663433],[100.269786,13.659325],[100.268108,13.660013],[100.26769507071299,13.659700318208438],[100.265347,13.661145],[100.255798,13.65653],[100.252327,13.656188],[100.249461,13.657754],[100.245866,13.66647],[100.239887,13.664827],[100.238991,13.666237],[100.233485,13.663525],[100.231802,13.665589],[100.22887,13.665375],[100.227283,13.669168],[100.228879,13.671482],[100.228372,13.67335],[100.240839,13.679836]]],[[[100.26050750250592,13.683653950772323],[100.260507,13.683654],[100.260507,13.683668],[100.26050750250592,13.683653950772323]]]]},"bbox":[100.227283,13.656188,100.294034,13.683668]},{"type":"Feature","id":"6ce772c3-db6a-4301-aff4-61d6473e0916","properties":{"id":"6ce772c3-db6a-4301-aff4-61d6473e0916","code":"06740208","provinceCode":"74","nameTh":"องค์การบริหารส่วนตำบล ท่าเสา","nameEn":null,"geometryType":"MUNICIPALITY","sourceUrl":"https://landometer.com/api/v2/citymeter-v3/grocery/info/geom/6ce772c3-db6a-4301-aff4-61d6473e0916/MUNICIPALITY","sourceSha256":"cd5a3043e3b7d44aff92fd1548696a6bd37c764f1303f50b1074162c5ac59b98","retrievedAt":"2026-10-04T05:44:21.461683+00:00","boundaryVintage":null,"geometryStatus":"native_source_polygon_display_simplified","simplificationToleranceDegrees":0.00015,"simplificationPreservesTopology":true,"invalidSourceRepair":"make_valid; retain polygonal components; discard zero-area collapsed lines","legalBoundaryIndependentlyVerified":false,"areaId":"6ce772c3-db6a-4301-aff4-61d6473e0916"},"geometry":{"type":"MultiPolygon","coordinates":[[[[100.27064,13.604952],[100.27063997930013,13.604953043093866],[100.270641,13.604954],[100.27064,13.604952]]],[[[100.263116,13.63513],[100.264989,13.630549],[100.265362,13.614999],[100.268513,13.61452],[100.271197,13.610266],[100.265974,13.607827],[100.270571,13.608429],[100.270625,13.604939],[100.265722,13.604261],[100.265411,13.608711],[100.259753,13.607913],[100.25842,13.608002],[100.258186,13.607102],[100.255446,13.606734],[100.254415,13.607539],[100.25263,13.607803],[100.251988,13.605776],[100.251743,13.604016],[100.249495,13.604037],[100.249397,13.603291],[100.248112,13.603471],[100.244442,13.602797],[100.243081,13.602901],[100.238794,13.603732],[100.233202,13.605202],[100.23233,13.605122],[100.231075,13.605462],[100.227965,13.605516],[100.227904,13.604494],[100.227351,13.605452],[100.227927,13.607804],[100.228047,13.615916],[100.227442,13.619975],[100.2269,13.621126],[100.225263,13.622282],[100.22315,13.622215],[100.22064,13.621156],[100.218447,13.620708],[100.216569,13.620641],[100.214693,13.621033],[100.213839,13.622338],[100.213144,13.624254],[100.213232,13.626244],[100.213712,13.628308],[100.215048,13.629296],[100.21677,13.629441],[100.218568,13.629127],[100.222625,13.626657],[100.224892,13.626187],[100.227005,13.626176],[100.22967,13.627158],[100.231479,13.628909],[100.232904,13.632117],[100.233175,13.63908],[100.232608,13.642687],[100.232927,13.642975],[100.233337,13.642504],[100.24031,13.644878],[100.241067,13.638844],[100.250938,13.641623],[100.256344,13.639492],[100.255723,13.638118],[100.258884,13.632866],[100.26034,13.634958],[100.263116,13.63513]]]]},"bbox":[100.213144,13.602797,100.271197,13.644878]},{"type":"Feature","id":"595e00d0-d070-44af-866c-4b8f88242452","properties":{"id":"595e00d0-d070-44af-866c-4b8f88242452","code":"06740209","provinceCode":"74","nameTh":"องค์การบริหารส่วนตำบล บางยาง","nameEn":null,"geometryType":"MUNICIPALITY","sourceUrl":"https://landometer.com/api/v2/citymeter-v3/grocery/info/geom/595e00d0-d070-44af-866c-4b8f88242452/MUNICIPALITY","sourceSha256":"c0b62a8a4bb8e2cb06b4728b6f25adb142b30d3ce4c63a96100f833e7f58a44a","retrievedAt":"2026-10-04T05:44:21.457199+00:00","boundaryVintage":null,"geometryStatus":"native_source_polygon_display_simplified","simplificationToleranceDegrees":0.00015,"simplificationPreservesTopology":true,"invalidSourceRepair":"make_valid; retain polygonal components; discard zero-area collapsed lines","legalBoundaryIndependentlyVerified":false,"areaId":"595e00d0-d070-44af-866c-4b8f88242452"},"geometry":{"type":"MultiPolygon","coordinates":[[[[100.230547,13.644448],[100.23054722756999,13.644448283918624],[100.230835,13.644306],[100.230547,13.644448]]],[[[100.240913,13.650778],[100.234836,13.649799],[100.23054722756999,13.644448283918624],[100.227956,13.643775],[100.226148,13.642252],[100.221123,13.638986],[100.218772,13.638385],[100.216428,13.639163],[100.214558,13.64055],[100.211955,13.644074],[100.207147,13.642533],[100.20593,13.643419],[100.206586,13.647582],[100.206885,13.648161],[100.207016,13.651269],[100.206493,13.651647],[100.206485,13.652038],[100.207726,13.651982],[100.208557,13.652363],[100.208745,13.652602],[100.207771,13.652981],[100.21325,13.659943],[100.213465,13.660506],[100.21303,13.660965],[100.21292,13.661475],[100.200016,13.674676],[100.19897814406421,13.67722964552987],[100.200768,13.677777],[100.202227,13.677911],[100.203651,13.678616],[100.205763,13.680821],[100.206281,13.680572],[100.206649,13.681539],[100.206941,13.681439],[100.207448,13.682258],[100.208252,13.682304],[100.209807,13.684823],[100.211921,13.683885],[100.211839,13.683399],[100.212454,13.683447],[100.212346,13.68302],[100.211382,13.682721],[100.211338,13.682394],[100.211868,13.681429],[100.212371,13.681728],[100.224172,13.681411],[100.224892,13.680086],[100.225625,13.680276],[100.226125,13.679247],[100.225563,13.678848],[100.226413,13.677523],[100.22696,13.677283],[100.226741,13.676892],[100.227156,13.672738],[100.228372,13.67335],[100.228879,13.671482],[100.227283,13.669168],[100.22887,13.665375],[100.231802,13.665589],[100.233485,13.663525],[100.238991,13.666237],[100.239887,13.664827],[100.245866,13.66647],[100.249461,13.657754],[100.2487,13.654129],[100.245601,13.655099],[100.240913,13.650778]]],[[[100.19897814406421,13.67722964552987],[100.198719,13.677128],[100.198978,13.67723],[100.19897814406421,13.67722964552987]]]]},"bbox":[100.198719,13.638385,100.249461,13.684823]},{"type":"Feature","id":"f12522bd-b0ee-4445-95a8-fbb931e881c1","properties":{"id":"f12522bd-b0ee-4445-95a8-fbb931e881c1","code":"06740210","provinceCode":"74","nameTh":"องค์การบริหารส่วนตำบล หนองนกไข่","nameEn":null,"geometryType":"MUNICIPALITY","sourceUrl":"https://landometer.com/api/v2/citymeter-v3/grocery/info/geom/f12522bd-b0ee-4445-95a8-fbb931e881c1/MUNICIPALITY","sourceSha256":"b08050a406d73fc6f19b4e170829ff2af19e9f64857b98244745e562bb22d7b0","retrievedAt":"2026-10-04T05:44:21.473319+00:00","boundaryVintage":null,"geometryStatus":"native_source_polygon_display_simplified","simplificationToleranceDegrees":0.00015,"simplificationPreservesTopology":true,"invalidSourceRepair":"make_valid; retain polygonal components; discard zero-area collapsed lines","legalBoundaryIndependentlyVerified":false,"areaId":"f12522bd-b0ee-4445-95a8-fbb931e881c1"},"geometry":{"type":"MultiPolygon","coordinates":[[[[100.188843,13.65915],[100.188972,13.660457],[100.183677,13.662118],[100.180359,13.664484],[100.175743,13.668738],[100.174423,13.671279],[100.17155,13.673554],[100.169661,13.674544],[100.170729,13.675905],[100.172882,13.677723],[100.173409,13.678557],[100.171351,13.68063],[100.172692,13.681519],[100.173281,13.68273],[100.174072,13.682787],[100.174617,13.682156],[100.175017,13.682159],[100.175836,13.684253],[100.176294,13.684696],[100.176277,13.686668],[100.176547,13.687206],[100.176973,13.687352],[100.176917,13.687953],[100.178495,13.688678],[100.179475,13.688583],[100.180193,13.688931],[100.180745,13.688538],[100.181808,13.689021],[100.18207,13.688866],[100.182613,13.687895],[100.183289,13.685331],[100.189087,13.674011],[100.190172,13.674865],[100.192853,13.674148],[100.19422,13.674143],[100.195865,13.675722],[100.196249,13.676401],[100.19897814406421,13.67722964552987],[100.200016,13.674676],[100.21292,13.661475],[100.21303,13.660965],[100.213465,13.660506],[100.21325,13.659943],[100.207771,13.652981],[100.208745,13.652602],[100.208557,13.652363],[100.207726,13.651982],[100.206485,13.652038],[100.206493,13.651647],[100.207016,13.651269],[100.204929,13.651478],[100.200033,13.651088],[100.200358,13.654076],[100.19082,13.657687],[100.188843,13.65915]]],[[[100.199466,13.677421],[100.19897814406421,13.67722964552987],[100.198978,13.67723],[100.199466,13.677421]]]]},"bbox":[100.169661,13.651088,100.213465,13.689021]},{"type":"Feature","id":"a557fe6d-a9dd-4d25-8eaf-cf24d27f137b","properties":{"id":"a557fe6d-a9dd-4d25-8eaf-cf24d27f137b","code":"06740304","provinceCode":"74","nameTh":"องค์การบริหารส่วนตำบล บ้านแพ้ว","nameEn":null,"geometryType":"MUNICIPALITY","sourceUrl":"https://landometer.com/api/v2/citymeter-v3/grocery/info/geom/a557fe6d-a9dd-4d25-8eaf-cf24d27f137b/MUNICIPALITY","sourceSha256":"f2ab272b906bf896a3018dbc0b2971dcb0d887b5e81cf5a2072557672405e2f3","retrievedAt":"2026-10-04T05:44:21.490229+00:00","boundaryVintage":null,"geometryStatus":"native_source_polygon_display_simplified","simplificationToleranceDegrees":0.00015,"simplificationPreservesTopology":true,"invalidSourceRepair":"make_valid; retain polygonal components; discard zero-area collapsed lines","legalBoundaryIndependentlyVerified":false,"areaId":"a557fe6d-a9dd-4d25-8eaf-cf24d27f137b"},"geometry":{"type":"MultiPolygon","coordinates":[[[[100.107551,13.640546],[100.116616,13.625204],[100.115832,13.622233],[100.11846,13.607116],[100.127806,13.610012],[100.131271,13.603498],[100.096061,13.586459],[100.096904,13.593215],[100.095333,13.602769],[100.097767,13.605171],[100.097633,13.607793],[100.093709,13.610248],[100.091301,13.619091],[100.080019,13.638641],[100.079095,13.6442],[100.070533,13.643713],[100.070356,13.644651],[100.06977,13.644359],[100.069539,13.643603],[100.069652,13.642585],[100.068964,13.64275],[100.068561,13.643379],[100.068371,13.644385],[100.067761,13.644027],[100.067564,13.643269],[100.067257,13.644891],[100.066798,13.644297],[100.066574,13.643121],[100.066191,13.645147],[100.065835,13.644566],[100.065584,13.642973],[100.065129,13.645382],[100.064603,13.643739],[100.064703,13.641845],[100.064016,13.64201],[100.063612,13.642639],[100.06342184120702,13.643644906653712],[100.062813,13.643287],[100.062611,13.642567],[100.063332,13.636046],[100.062633,13.635123],[100.059079,13.636556],[100.058517,13.636538],[100.058455,13.639379],[100.057654,13.63995],[100.057274,13.641138],[100.056852,13.644693],[100.057122,13.646004],[100.056808,13.647305],[100.057277,13.649078],[100.058053,13.650736],[100.057892,13.651906],[100.059171,13.652518],[100.060882,13.656744],[100.060918,13.657489],[100.060415,13.658942],[100.060268,13.660286],[100.062039,13.659899],[100.063366,13.659879],[100.064581,13.660022],[100.066228,13.660594],[100.067159,13.660436],[100.067271,13.660716],[100.070325,13.660246],[100.070524,13.659037],[100.075802,13.659191],[100.075676,13.658498],[100.076851,13.658573],[100.076895,13.65744],[100.080099,13.657755],[100.081883,13.657299],[100.084107,13.657209],[100.086533,13.650761],[100.093231,13.653072],[100.094726,13.650346],[100.099653,13.652113],[100.101037,13.651155],[100.102358,13.649842],[100.1052840858535,13.649278858129694],[100.108665,13.643692],[100.107551,13.640546]],[[100.06342198512041,13.643644991253051],[100.062187,13.650177],[100.06342184120702,13.643644906653712],[100.06342198512041,13.643644991253051]],[[100.063605,13.642677],[100.063422,13.643645],[100.06342198512041,13.643644991253051],[100.063605,13.642677]]],[[[100.105482,13.649253],[100.1052840858535,13.649278858129694],[100.105284,13.649279],[100.105482,13.649253]]]]},"bbox":[100.056808,13.586459,100.131271,13.660716]},{"type":"Feature","id":"40a3c817-4d0f-4fac-82bf-a1a19f6cfb33","properties":{"id":"40a3c817-4d0f-4fac-82bf-a1a19f6cfb33","code":"06740305","provinceCode":"74","nameTh":"องค์การบริหารส่วนตำบล คลองตัน","nameEn":null,"geometryType":"MUNICIPALITY","sourceUrl":"https://landometer.com/api/v2/citymeter-v3/grocery/info/geom/40a3c817-4d0f-4fac-82bf-a1a19f6cfb33/MUNICIPALITY","sourceSha256":"886b858248731a8ff7ab0e7d84d897bd5683662125deca4bca37daa24006377d","retrievedAt":"2026-10-04T05:44:21.472886+00:00","boundaryVintage":null,"geometryStatus":"native_source_polygon_display_simplified","simplificationToleranceDegrees":0.00015,"simplificationPreservesTopology":true,"invalidSourceRepair":"make_valid; retain polygonal components; discard zero-area collapsed lines","legalBoundaryIndependentlyVerified":false,"areaId":"40a3c817-4d0f-4fac-82bf-a1a19f6cfb33"},"geometry":{"type":"MultiPolygon","coordinates":[[[[100.20185,13.644658],[100.206799,13.642589],[100.167259,13.621205],[100.166254,13.62296],[100.160537,13.622541],[100.153171,13.630476],[100.153103,13.6348],[100.150112,13.634909],[100.145587,13.646068],[100.1459,13.646343],[100.146243,13.645382],[100.157814,13.652361],[100.15949,13.647532],[100.16513,13.64996],[100.167571,13.653524],[100.16966,13.65271],[100.17721,13.655465],[100.180399,13.653688],[100.197261,13.642149],[100.20185,13.644658]]],[[[100.158676,13.623075],[100.158791,13.622951],[100.158764,13.622981],[100.158676,13.623075]]]]},"bbox":[100.145587,13.621205,100.206799,13.655465]},{"type":"Feature","id":"52909032-a66c-489b-8c5b-fa0b1fca4c86","properties":{"id":"52909032-a66c-489b-8c5b-fa0b1fca4c86","code":"06740306","provinceCode":"74","nameTh":"องค์การบริหารส่วนตำบล สวนส้ม","nameEn":null,"geometryType":"MUNICIPALITY","sourceUrl":"https://landometer.com/api/v2/citymeter-v3/grocery/info/geom/52909032-a66c-489b-8c5b-fa0b1fca4c86/MUNICIPALITY","sourceSha256":"d7dece7847f6ca81843ac63bd8e43aa54e1e47882d7640bdbe668575e74e7f8b","retrievedAt":"2026-10-04T05:44:21.532497+00:00","boundaryVintage":null,"geometryStatus":"native_source_polygon_display_simplified","simplificationToleranceDegrees":0.00015,"simplificationPreservesTopology":true,"invalidSourceRepair":"make_valid; retain polygonal components; discard zero-area collapsed lines","legalBoundaryIndependentlyVerified":false,"areaId":"52909032-a66c-489b-8c5b-fa0b1fca4c86"},"geometry":{"type":"Polygon","coordinates":[[[100.222625,13.626657],[100.218568,13.629127],[100.21677,13.629441],[100.215048,13.629296],[100.213712,13.628308],[100.213232,13.626244],[100.213144,13.624254],[100.213839,13.622338],[100.214693,13.621033],[100.216569,13.620641],[100.218447,13.620708],[100.22064,13.621156],[100.22315,13.622215],[100.225263,13.622282],[100.2269,13.621126],[100.227442,13.619975],[100.228047,13.615916],[100.228067,13.614467],[100.227832,13.615752],[100.227187,13.615885],[100.227232,13.614952],[100.224175,13.614217],[100.223416,13.616232],[100.213306,13.612902],[100.212438,13.618271],[100.212802,13.616017],[100.210451,13.620403],[100.204267,13.614636],[100.19823,13.615581],[100.195049,13.612064],[100.189444,13.616395],[100.185678,13.616718],[100.173276,13.610509],[100.173791,13.608374],[100.162593,13.607795],[100.163129,13.601314],[100.160097,13.599935],[100.158012,13.594491],[100.151016,13.592326],[100.146411,13.597314],[100.144778,13.59664],[100.140511,13.606704],[100.1407,13.606792],[100.140547,13.607173],[100.167259,13.621205],[100.206799,13.642589],[100.207147,13.642533],[100.211955,13.644074],[100.214558,13.64055],[100.216428,13.639163],[100.218772,13.638385],[100.221123,13.638986],[100.226148,13.642252],[100.227956,13.643775],[100.230386,13.644528],[100.231791,13.643832],[100.232723,13.642526],[100.233175,13.63908],[100.233159,13.636019],[100.232904,13.632117],[100.231479,13.628909],[100.22967,13.627158],[100.227005,13.626176],[100.224892,13.626187],[100.222625,13.626657]]]},"bbox":[100.140511,13.592326,100.233175,13.644528]},{"type":"Feature","id":"181230ac-f7c9-49b7-b2de-fb794659caf5","properties":{"id":"181230ac-f7c9-49b7-b2de-fb794659caf5","code":"06740307","provinceCode":"74","nameTh":"องค์การบริหารส่วนตำบล หลักสอง","nameEn":null,"geometryType":"MUNICIPALITY","sourceUrl":"https://landometer.com/api/v2/citymeter-v3/grocery/info/geom/181230ac-f7c9-49b7-b2de-fb794659caf5/MUNICIPALITY","sourceSha256":"ddb10bc3c2ef5839ec5fce5a72be3e9a4df2294bedb64cc2a6b16c21d81b2228","retrievedAt":"2026-10-04T05:44:21.540175+00:00","boundaryVintage":null,"geometryStatus":"native_source_polygon_display_simplified","simplificationToleranceDegrees":0.00015,"simplificationPreservesTopology":true,"invalidSourceRepair":"make_valid; retain polygonal components; discard zero-area collapsed lines","legalBoundaryIndependentlyVerified":false,"areaId":"181230ac-f7c9-49b7-b2de-fb794659caf5"},"geometry":{"type":"Polygon","coordinates":[[[100.167259,13.621205],[100.141238,13.607543],[100.14101,13.60804],[100.131271,13.603498],[100.127806,13.610012],[100.11846,13.607116],[100.115832,13.622233],[100.116616,13.625204],[100.107551,13.640546],[100.108665,13.643692],[100.105284,13.649279],[100.111627,13.651648],[100.116875,13.653035],[100.121767,13.653835],[100.119995,13.658896],[100.126188,13.643551],[100.129218,13.641013],[100.133417,13.642224],[100.134778,13.636455],[100.133932,13.63224],[100.135517,13.628586],[100.134203,13.622717],[100.143018,13.617973],[100.148748,13.618441],[100.150726,13.620397],[100.155767,13.622948],[100.159906,13.62322],[100.160537,13.622541],[100.166254,13.62296],[100.167259,13.621205]]]},"bbox":[100.105284,13.603498,100.167259,13.658896]},{"type":"Feature","id":"a7ac35ff-3621-4477-9eee-aefafef1fecc","properties":{"id":"a7ac35ff-3621-4477-9eee-aefafef1fecc","code":"06740308","provinceCode":"74","nameTh":"องค์การบริหารส่วนตำบล หลักสาม","nameEn":null,"geometryType":"MUNICIPALITY","sourceUrl":"https://landometer.com/api/v2/citymeter-v3/grocery/info/geom/a7ac35ff-3621-4477-9eee-aefafef1fecc/MUNICIPALITY","sourceSha256":"19db4e2c6c082205f3e8d36159ed6d677b89975bdc31fe739e44acbf6a7be08b","retrievedAt":"2026-10-04T05:44:21.539835+00:00","boundaryVintage":null,"geometryStatus":"native_source_polygon_display_simplified","simplificationToleranceDegrees":0.00015,"simplificationPreservesTopology":true,"invalidSourceRepair":"make_valid; retain polygonal components; discard zero-area collapsed lines","legalBoundaryIndependentlyVerified":false,"areaId":"a7ac35ff-3621-4477-9eee-aefafef1fecc"},"geometry":{"type":"Polygon","coordinates":[[[100.152679,13.587362],[100.158201,13.588541],[100.160006,13.587713],[100.159326,13.585244],[100.162204,13.585534],[100.163364,13.583989],[100.167741,13.584804],[100.168782,13.586495],[100.170193,13.582784],[100.174286,13.584433],[100.173732,13.583283],[100.176648,13.581257],[100.178291,13.581313],[100.178873,13.580814],[100.179624,13.581074],[100.181781,13.581119],[100.1825,13.578786],[100.182944,13.578815],[100.183862,13.576678],[100.185584,13.576838],[100.185964,13.575808],[100.185949,13.575649],[100.183593,13.575705],[100.161588,13.576489],[100.162113,13.57448],[100.163215,13.565487],[100.16104,13.564647],[100.158578,13.564683],[100.155246,13.565524],[100.153116,13.565174],[100.152185,13.564789],[100.153177,13.563558],[100.153802,13.562043],[100.154839,13.560547],[100.155274,13.557524],[100.155668,13.556606],[100.156203,13.556236],[100.156889,13.556838],[100.157864,13.556542],[100.158171,13.55605],[100.159224,13.556029],[100.159891,13.555346],[100.159036,13.555064],[100.158956,13.553833],[100.159786,13.553836],[100.160332,13.55342],[100.160482,13.552936],[100.160319,13.551924],[100.160984,13.551964],[100.161425,13.552819],[100.16221,13.552269],[100.162868,13.549765],[100.162475,13.548737],[100.163091,13.548407],[100.163093,13.547678],[100.163909,13.546908],[100.162098,13.543563],[100.163358,13.543012],[100.163325,13.542566],[100.162983,13.54246],[100.162238,13.541443],[100.160683,13.540954],[100.161098,13.540426],[100.160598,13.539634],[100.158952,13.538451],[100.158077,13.538307],[100.156658,13.536505],[100.156218,13.536545],[100.15446,13.53779],[100.153244,13.537582],[100.152074,13.535077],[100.151076,13.533882],[100.148875,13.533796],[100.146969,13.535972],[100.141982,13.53615],[100.13676,13.534161],[100.136137,13.53625],[100.134132,13.536527],[100.134712,13.539393],[100.125606,13.540338],[100.124646,13.542385],[100.122337,13.541792],[100.121207,13.543398],[100.11989,13.542251],[100.119182,13.543929],[100.117197,13.543225],[100.117948,13.547181],[100.11574,13.55137],[100.112982,13.550902],[100.107564,13.557986],[100.107496,13.561289],[100.103358,13.564119],[100.101255,13.56227],[100.102315,13.56451],[100.09985,13.564566],[100.099334,13.566385],[100.101443,13.568669],[100.101762,13.579983],[100.101712,13.580337],[100.0979,13.582865],[100.097732,13.583317],[100.097888,13.583542],[100.098724,13.583191],[100.114763,13.591536],[100.112972,13.594642],[100.112095,13.594219],[100.131271,13.603498],[100.14101,13.60804],[100.141238,13.607543],[100.140547,13.607173],[100.1407,13.606792],[100.140511,13.606704],[100.144778,13.59664],[100.146411,13.597314],[100.150816,13.592542],[100.150727,13.58935],[100.152679,13.587362]]]},"bbox":[100.097732,13.533704,100.185964,13.60804]},{"type":"Feature","id":"fd622b6b-bba0-4176-9ed3-73d13275ec55","properties":{"id":"fd622b6b-bba0-4176-9ed3-73d13275ec55","code":"06740309","provinceCode":"74","nameTh":"องค์การบริหารส่วนตำบล อำแพง","nameEn":null,"geometryType":"MUNICIPALITY","sourceUrl":"https://landometer.com/api/v2/citymeter-v3/grocery/info/geom/fd622b6b-bba0-4176-9ed3-73d13275ec55/MUNICIPALITY","sourceSha256":"622cedf14216adbb32b81e30e0d065d446ef1b4dbe2abf23600e170f219b3baa","retrievedAt":"2026-10-04T05:44:21.540100+00:00","boundaryVintage":null,"geometryStatus":"native_source_polygon_display_simplified","simplificationToleranceDegrees":0.00015,"simplificationPreservesTopology":true,"invalidSourceRepair":"make_valid; retain polygonal components; discard zero-area collapsed lines","legalBoundaryIndependentlyVerified":false,"areaId":"fd622b6b-bba0-4176-9ed3-73d13275ec55"},"geometry":{"type":"Polygon","coordinates":[[[100.203925,13.592968],[100.202751,13.592574],[100.202559,13.59313],[100.202157,13.593176],[100.200775,13.592776],[100.200064,13.592147],[100.199895,13.591146],[100.200299,13.590487],[100.201247,13.590312],[100.201244,13.591075],[100.20153,13.591353],[100.201791,13.591276],[100.202403,13.590881],[100.202594,13.589684],[100.201601,13.588349],[100.200583,13.588248],[100.199399,13.588705],[100.19948,13.588234],[100.199996,13.587906],[100.200089,13.586445],[100.198137,13.584361],[100.196808,13.584137],[100.196384,13.584317],[100.196002,13.584994],[100.195194,13.585296],[100.193765,13.584979],[100.192976,13.585228],[100.192924,13.585808],[100.192473,13.585912],[100.19163,13.585488],[100.19137,13.584309],[100.189227,13.583534],[100.188032,13.583976],[100.187985,13.584591],[100.1876,13.584902],[100.187842,13.585142],[100.187767,13.585451],[100.18713,13.585848],[100.186489,13.585556],[100.186179,13.584067],[100.184754,13.583504],[100.184095,13.583482],[100.183574,13.584339],[100.184465,13.585188],[100.184364,13.586046],[100.182901,13.587316],[100.181855,13.586947],[100.181242,13.586333],[100.181279,13.584926],[100.179175,13.584437],[100.178283,13.583769],[100.176943,13.584222],[100.176076,13.583645],[100.174633,13.5838],[100.173998,13.583337],[100.174104,13.583075],[100.173732,13.583283],[100.174286,13.584433],[100.170193,13.582784],[100.168782,13.586495],[100.167741,13.584804],[100.163364,13.583989],[100.162204,13.585534],[100.159326,13.585244],[100.160006,13.587713],[100.158201,13.588541],[100.152679,13.587362],[100.150727,13.58935],[100.150816,13.592542],[100.151016,13.592326],[100.158012,13.594491],[100.160097,13.599935],[100.163129,13.601314],[100.162593,13.607795],[100.173791,13.608374],[100.173276,13.610509],[100.185678,13.616718],[100.189444,13.616395],[100.195049,13.612064],[100.19823,13.615581],[100.204267,13.614636],[100.210451,13.620403],[100.212802,13.616017],[100.213306,13.612902],[100.223416,13.616232],[100.224175,13.614217],[100.227232,13.614952],[100.227187,13.615885],[100.227832,13.615752],[100.228055,13.615331],[100.228104,13.611783],[100.227927,13.607804],[100.227351,13.605452],[100.227904,13.604494],[100.227516,13.602317],[100.226957,13.601311],[100.22399,13.597987],[100.223298,13.596339],[100.223678,13.595052],[100.2221,13.594044],[100.2218,13.593517],[100.221122,13.593111],[100.220134,13.592037],[100.219904,13.59124],[100.219308,13.590863],[100.219121,13.590303],[100.218743,13.590149],[100.216567,13.587579],[100.216089,13.58762],[100.214985,13.58717],[100.214766,13.587385],[100.214266,13.587241],[100.211719,13.587637],[100.210305,13.583254],[100.203925,13.592968]]]},"bbox":[100.150727,13.582784,100.228104,13.620403]},{"type":"Feature","id":"2274348b-ba47-4c2d-b5b3-f404a521ece4","properties":{"id":"2274348b-ba47-4c2d-b5b3-f404a521ece4","code":"06740310","provinceCode":"74","nameTh":"องค์การบริหารส่วนตำบล เจ็ดริ้ว","nameEn":null,"geometryType":"MUNICIPALITY","sourceUrl":"https://landometer.com/api/v2/citymeter-v3/grocery/info/geom/2274348b-ba47-4c2d-b5b3-f404a521ece4/MUNICIPALITY","sourceSha256":"59b4bd608b3273650b3a07ff363bb27b456c52e00c79a0a8a37d9a1d0f3d85bc","retrievedAt":"2026-10-04T05:44:21.561697+00:00","boundaryVintage":null,"geometryStatus":"native_source_polygon_display_simplified","simplificationToleranceDegrees":0.00015,"simplificationPreservesTopology":true,"invalidSourceRepair":"make_valid; retain polygonal components; discard zero-area collapsed lines","legalBoundaryIndependentlyVerified":false,"areaId":"2274348b-ba47-4c2d-b5b3-f404a521ece4"},"geometry":{"type":"Polygon","coordinates":[[[100.142616,13.657473],[100.142175,13.654655],[100.149856,13.635324],[100.150112,13.634909],[100.153103,13.6348],[100.153171,13.630476],[100.159906,13.62322],[100.155767,13.622948],[100.150726,13.620397],[100.148748,13.618441],[100.143018,13.617973],[100.134203,13.622717],[100.135517,13.628586],[100.133932,13.63224],[100.134778,13.636455],[100.133417,13.642224],[100.129218,13.641013],[100.126188,13.643551],[100.119995,13.658896],[100.117478,13.66638],[100.123445,13.667078],[100.121333,13.672551],[100.123347,13.673129],[100.122639,13.675434],[100.120959,13.679139],[100.129022,13.681265],[100.129961,13.681392],[100.13015,13.680643],[100.130764,13.680709],[100.135747,13.671031],[100.134386,13.670547],[100.135734,13.665078],[100.13732,13.662496],[100.14044,13.661596],[100.142616,13.657473]]]},"bbox":[100.117478,13.617973,100.159906,13.681392]}]}
