{"type":"FeatureCollection","metadata":{"provinceCode":"75","source":"CityMETER native source fine polygons","retrievedAt":"2026-10-04T05:48:12.029797+00:00","total":35,"retrieved":35,"displaySimplificationToleranceDegrees":0.00015,"legalBoundaryIndependentlyVerified":false},"features":[{"type":"Feature","id":"fa99bf00-7ccf-4461-8062-799cf212d993","properties":{"id":"fa99bf00-7ccf-4461-8062-799cf212d993","code":"04750102","provinceCode":"75","nameTh":"เทศบาลเมือง สมุทรสงคราม","nameEn":null,"geometryType":"MUNICIPALITY","sourceUrl":"https://landometer.com/api/v2/citymeter-v3/grocery/info/geom/fa99bf00-7ccf-4461-8062-799cf212d993/MUNICIPALITY","sourceSha256":"e9df248bd50d22546a069fa14676970cc761b6b681ac5e6f4f477f76d61edbfb","retrievedAt":"2026-10-04T05:44:21.813428+00:00","boundaryVintage":null,"geometryStatus":"native_source_polygon_display_simplified","simplificationToleranceDegrees":0.00015,"simplificationPreservesTopology":true,"invalidSourceRepair":"make_valid; retain polygonal components; discard zero-area collapsed lines","legalBoundaryIndependentlyVerified":false,"areaId":"fa99bf00-7ccf-4461-8062-799cf212d993"},"geometry":{"type":"Polygon","coordinates":[[[100.007508,13.416065],[100.006798,13.415394],[100.007315,13.415085],[100.005293,13.413971],[100.007214,13.408591],[100.006719,13.403753],[100.004716,13.40173],[100.003548,13.392466],[100.000612,13.388425],[99.997569,13.385202],[99.997982,13.382996],[99.993773,13.37972],[99.987847,13.379226],[99.986975,13.379719],[99.986925,13.379551],[99.984683,13.381015],[99.979511,13.378712],[99.982413,13.393581],[99.982585,13.393407],[99.985764,13.399196],[99.988151,13.406082],[99.985832,13.413297],[99.989038,13.417182],[99.988643,13.418938],[99.990321,13.423087],[99.990999,13.424217],[99.99689,13.416259],[100.003356,13.421623],[100.007514,13.419092],[100.007508,13.416065]]]},"bbox":[99.979511,13.378712,100.007514,13.424217]},{"type":"Feature","id":"0e0c900d-b047-4b28-b324-c01ab6082928","properties":{"id":"0e0c900d-b047-4b28-b324-c01ab6082928","code":"05750105","provinceCode":"75","nameTh":"เทศบาลตำบล บางจะเกร็ง","nameEn":null,"geometryType":"MUNICIPALITY","sourceUrl":"https://landometer.com/api/v2/citymeter-v3/grocery/info/geom/0e0c900d-b047-4b28-b324-c01ab6082928/MUNICIPALITY","sourceSha256":"874c870429adb0602a381223eac35420a5f08eb26010dbe1c78d5d8201380c10","retrievedAt":"2026-10-04T05:44:21.800645+00:00","boundaryVintage":null,"geometryStatus":"native_source_polygon_display_simplified","simplificationToleranceDegrees":0.00015,"simplificationPreservesTopology":true,"invalidSourceRepair":"make_valid; retain polygonal components; discard zero-area collapsed lines","legalBoundaryIndependentlyVerified":false,"areaId":"0e0c900d-b047-4b28-b324-c01ab6082928"},"geometry":{"type":"Polygon","coordinates":[[[100.025589,13.363714],[100.024374,13.362757],[100.023109,13.36231],[100.023185,13.36178],[100.022254,13.361563],[100.022079,13.361961],[100.021555,13.361845],[100.019438,13.362766],[100.019019,13.362863],[100.018815,13.362678],[100.015578,13.363746],[100.01503,13.364179],[100.014934,13.364813],[100.014608,13.365024],[100.013803,13.364893],[100.011716,13.365362],[100.01078,13.365284],[100.010459,13.365578],[100.00812,13.366068],[100.006885,13.366676],[100.000028,13.368177],[99.99972,13.367927],[99.999118,13.368107],[99.997042,13.364657],[99.992549,13.375443],[99.989442,13.377908],[99.986925,13.379551],[99.986975,13.379719],[99.987847,13.379226],[99.993773,13.37972],[99.997982,13.382996],[99.997569,13.385202],[100.000612,13.388425],[100.004461,13.386068],[100.00844,13.387358],[100.014608,13.386737],[100.014139,13.381697],[100.018322,13.382265],[100.02286,13.380129],[100.02565,13.379595],[100.023506,13.375515],[100.025227,13.371947],[100.030215,13.369073],[100.033083,13.370504],[100.032272,13.369679],[100.030537,13.368829],[100.028789,13.367425],[100.025589,13.363714]]]},"bbox":[99.986925,13.361563,100.033083,13.388425]},{"type":"Feature","id":"2e44ec15-d882-424b-81c2-7fc61592d9a5","properties":{"id":"2e44ec15-d882-424b-81c2-7fc61592d9a5","code":"05750201","provinceCode":"75","nameTh":"เทศบาลตำบล กระดังงา","nameEn":null,"geometryType":"MUNICIPALITY","sourceUrl":"https://landometer.com/api/v2/citymeter-v3/grocery/info/geom/2e44ec15-d882-424b-81c2-7fc61592d9a5/MUNICIPALITY","sourceSha256":"55f99e1c0beb72213fe5ddb849c3bae1709e38f5060462174c9ad214c505f0d5","retrievedAt":"2026-10-04T05:44:21.881003+00:00","boundaryVintage":null,"geometryStatus":"native_source_polygon_display_simplified","simplificationToleranceDegrees":0.00015,"simplificationPreservesTopology":true,"invalidSourceRepair":"make_valid; retain polygonal components; discard zero-area collapsed lines","legalBoundaryIndependentlyVerified":false,"areaId":"2e44ec15-d882-424b-81c2-7fc61592d9a5"},"geometry":{"type":"Polygon","coordinates":[[[99.949261,13.463429],[99.952059,13.458604],[99.944419,13.458933],[99.937798,13.471515],[99.942646,13.472033],[99.946018,13.46784],[99.949031,13.467799],[99.949261,13.463429]]]},"bbox":[99.937798,13.458604,99.952059,13.472033]},{"type":"Feature","id":"14989bd1-29ae-42c3-9fd2-98ae8eec7880","properties":{"id":"14989bd1-29ae-42c3-9fd2-98ae8eec7880","code":"05750202","provinceCode":"75","nameTh":"เทศบาลตำบล บางนกแขวก","nameEn":null,"geometryType":"MUNICIPALITY","sourceUrl":"https://landometer.com/api/v2/citymeter-v3/grocery/info/geom/14989bd1-29ae-42c3-9fd2-98ae8eec7880/MUNICIPALITY","sourceSha256":"333b32d3fc08402b0bd1ecbfc8562974b604b73ce3d85ae50631bacb45a4f386","retrievedAt":"2026-10-04T05:44:21.813957+00:00","boundaryVintage":null,"geometryStatus":"native_source_polygon_display_simplified","simplificationToleranceDegrees":0.00015,"simplificationPreservesTopology":true,"invalidSourceRepair":"make_valid; retain polygonal components; discard zero-area collapsed lines","legalBoundaryIndependentlyVerified":false,"areaId":"14989bd1-29ae-42c3-9fd2-98ae8eec7880"},"geometry":{"type":"Polygon","coordinates":[[[99.923571,13.49235],[99.913458,13.510483],[99.914374,13.511072],[99.920491,13.513584],[99.921993,13.513723],[99.924253,13.514543],[99.925416,13.51412],[99.926457,13.513193],[99.926785,13.511809],[99.927786,13.511349],[99.927796,13.511053],[99.927273,13.510847],[99.927296,13.509869],[99.928365,13.509403],[99.928721,13.508675],[99.932281,13.504279],[99.926751,13.499908],[99.929775,13.496962],[99.932637,13.488938],[99.933615,13.485292],[99.931417,13.482743],[99.923571,13.49235]]]},"bbox":[99.913458,13.482743,99.933615,13.514543]},{"type":"Feature","id":"9c622bec-6feb-4650-8f19-9c2947f2e0b8","properties":{"id":"9c622bec-6feb-4650-8f19-9c2947f2e0b8","code":"05750203","provinceCode":"75","nameTh":"เทศบาลตำบล บางยี่รงค์","nameEn":null,"geometryType":"MUNICIPALITY","sourceUrl":"https://landometer.com/api/v2/citymeter-v3/grocery/info/geom/9c622bec-6feb-4650-8f19-9c2947f2e0b8/MUNICIPALITY","sourceSha256":"dd5c4bdf91f93b9aad6d23d841cee4ac3f529418c47a4e2b9a2e138365fdb9f6","retrievedAt":"2026-10-04T05:44:21.806616+00:00","boundaryVintage":null,"geometryStatus":"native_source_polygon_display_simplified","simplificationToleranceDegrees":0.00015,"simplificationPreservesTopology":true,"invalidSourceRepair":"make_valid; retain polygonal components; discard zero-area collapsed lines","legalBoundaryIndependentlyVerified":false,"areaId":"9c622bec-6feb-4650-8f19-9c2947f2e0b8"},"geometry":{"type":"Polygon","coordinates":[[[99.895879,13.47533],[99.895427,13.481704],[99.896019,13.483322],[99.897983,13.486164],[99.899568,13.487741],[99.899877,13.488989],[99.902315,13.489859],[99.903447,13.492284],[99.905417,13.492606],[99.906747,13.493303],[99.906883,13.493889],[99.907539,13.493941],[99.909689,13.495129],[99.912078,13.496024],[99.912029,13.496429],[99.912443,13.49683],[99.91308,13.496654],[99.913368,13.497859],[99.914241,13.498103],[99.914077,13.498723],[99.914715,13.499405],[99.915034,13.499169],[99.915459,13.499514],[99.918937,13.500658],[99.923571,13.49235],[99.931589,13.482483],[99.93011,13.484019],[99.920226,13.479956],[99.92024,13.475435],[99.923434,13.466422],[99.921177,13.463182],[99.919792,13.462853],[99.91779,13.465399],[99.91372,13.465118],[99.910075,13.469157],[99.904752,13.466319],[99.90037,13.473459],[99.896211,13.470071],[99.8941,13.47425],[99.894523,13.474638],[99.894889,13.474536],[99.895468,13.474803],[99.895879,13.47533]]]},"bbox":[99.8941,13.462853,99.931589,13.500658]},{"type":"Feature","id":"80af998b-250b-4424-baa8-fe5a7fe6b711","properties":{"id":"80af998b-250b-4424-baa8-fe5a7fe6b711","code":"05750204","provinceCode":"75","nameTh":"เทศบาลตำบล บางกระบือ","nameEn":null,"geometryType":"MUNICIPALITY","sourceUrl":"https://landometer.com/api/v2/citymeter-v3/grocery/info/geom/80af998b-250b-4424-baa8-fe5a7fe6b711/MUNICIPALITY","sourceSha256":"a03fdcf8a5e6208c62a019f6e9dfd170d8742c984eb5bf0ba73805cb6be35b29","retrievedAt":"2026-10-04T05:44:21.800842+00:00","boundaryVintage":null,"geometryStatus":"native_source_polygon_display_simplified","simplificationToleranceDegrees":0.00015,"simplificationPreservesTopology":true,"invalidSourceRepair":"make_valid; retain polygonal components; discard zero-area collapsed lines","legalBoundaryIndependentlyVerified":false,"areaId":"80af998b-250b-4424-baa8-fe5a7fe6b711"},"geometry":{"type":"Polygon","coordinates":[[[99.977768,13.469166],[99.976991,13.46691],[99.974928,13.462675],[99.977805,13.460404],[99.978565,13.457978],[99.972482,13.456397],[99.97298,13.454163],[99.971597,13.453851],[99.971334,13.453137],[99.965768,13.452127],[99.966215,13.448798],[99.96505,13.457473],[99.959491,13.457867],[99.958367,13.467839],[99.963801,13.471563],[99.969795,13.471937],[99.977614,13.470618],[99.978262,13.464515],[99.977768,13.469166]]]},"bbox":[99.958367,13.448798,99.978569,13.471937]},{"type":"Feature","id":"92f1b976-6fde-404c-a4e7-377da366f578","properties":{"id":"92f1b976-6fde-404c-a4e7-377da366f578","code":"05750301","provinceCode":"75","nameTh":"เทศบาลตำบล เหมืองใหม่","nameEn":null,"geometryType":"MUNICIPALITY","sourceUrl":"https://landometer.com/api/v2/citymeter-v3/grocery/info/geom/92f1b976-6fde-404c-a4e7-377da366f578/MUNICIPALITY","sourceSha256":"69fbb5dde0d241322ec2036052bfbb9f14892da04e3a61eb6d6174ba026b86a1","retrievedAt":"2026-10-04T05:44:21.805030+00:00","boundaryVintage":null,"geometryStatus":"native_source_polygon_display_simplified","simplificationToleranceDegrees":0.00015,"simplificationPreservesTopology":true,"invalidSourceRepair":"make_valid; retain polygonal components; discard zero-area collapsed lines","legalBoundaryIndependentlyVerified":false,"areaId":"92f1b976-6fde-404c-a4e7-377da366f578"},"geometry":{"type":"Polygon","coordinates":[[[99.919267,13.442295],[99.924334,13.441815],[99.929877,13.442765],[99.932695,13.44212],[99.927199,13.433761],[99.923475,13.435738],[99.925152,13.437001],[99.924168,13.437749],[99.917784,13.437559],[99.91911,13.439289],[99.917896,13.43999],[99.916758,13.438411],[99.915091,13.439486],[99.910717,13.433063],[99.908959,13.435038],[99.911474,13.437969],[99.904253,13.445104],[99.901663,13.441986],[99.900077,13.443904],[99.8956,13.445422],[99.891332,13.445857],[99.891119,13.446322],[99.890558,13.446713],[99.890789,13.447651],[99.890357,13.448471],[99.890919,13.449203],[99.892744,13.447801],[99.89545,13.446882],[99.898205,13.446828],[99.899399,13.447114],[99.901275,13.448059],[99.904307,13.450808],[99.906601,13.453082],[99.908105,13.455393],[99.908731,13.455741],[99.909829,13.455671],[99.911839,13.454835],[99.913521,13.453204],[99.915277,13.450541],[99.916947,13.445638],[99.917783,13.444043],[99.919267,13.442295]]]},"bbox":[99.89035,13.433063,99.932695,13.455783]},{"type":"Feature","id":"229870b7-b9cc-42a9-a122-3871fe0bba8e","properties":{"id":"229870b7-b9cc-42a9-a122-3871fe0bba8e","code":"05750302","provinceCode":"75","nameTh":"เทศบาลตำบล อัมพวา","nameEn":null,"geometryType":"MUNICIPALITY","sourceUrl":"https://landometer.com/api/v2/citymeter-v3/grocery/info/geom/229870b7-b9cc-42a9-a122-3871fe0bba8e/MUNICIPALITY","sourceSha256":"984a3c3e19607568d8492b1378a408bf152f90bc7e632eb73ccc6e5fd8e6c41a","retrievedAt":"2026-10-04T05:44:21.801325+00:00","boundaryVintage":null,"geometryStatus":"native_source_polygon_display_simplified","simplificationToleranceDegrees":0.00015,"simplificationPreservesTopology":true,"invalidSourceRepair":"make_valid; retain polygonal components; discard zero-area collapsed lines","legalBoundaryIndependentlyVerified":false,"areaId":"229870b7-b9cc-42a9-a122-3871fe0bba8e"},"geometry":{"type":"Polygon","coordinates":[[[99.969837,13.424976],[99.969577,13.424978],[99.970501,13.420774],[99.971834,13.417974],[99.971892,13.417184],[99.965943,13.412597],[99.965336,13.411064],[99.965562,13.40872],[99.961927,13.407945],[99.96019,13.408247],[99.959476,13.408531],[99.958589,13.409352],[99.958169,13.410131],[99.9584,13.410514],[99.95791,13.411079],[99.961159,13.418558],[99.961002,13.420551],[99.961276,13.418827],[99.960697,13.422475],[99.957653,13.423547],[99.95067,13.421058],[99.948607,13.423285],[99.949044,13.429373],[99.949499,13.429382],[99.949118,13.430409],[99.94929,13.432805],[99.957951,13.430007],[99.958413,13.438186],[99.9614,13.434748],[99.95919,13.428149],[99.96808,13.425454],[99.969673,13.425493],[99.969837,13.424976]]]},"bbox":[99.948607,13.407945,99.971914,13.438186]},{"type":"Feature","id":"0e2b2cfe-1006-403b-9535-56f1af3d1de6","properties":{"id":"0e2b2cfe-1006-403b-9535-56f1af3d1de6","code":"05750311","provinceCode":"75","nameTh":"เทศบาลตำบล สวนหลวง","nameEn":null,"geometryType":"MUNICIPALITY","sourceUrl":"https://landometer.com/api/v2/citymeter-v3/grocery/info/geom/0e2b2cfe-1006-403b-9535-56f1af3d1de6/MUNICIPALITY","sourceSha256":"3560a3a0efeb0b49ade80e83b537008a2f3766ae3025d02efc137994ba90ed46","retrievedAt":"2026-10-04T05:44:21.882734+00:00","boundaryVintage":null,"geometryStatus":"native_source_polygon_display_simplified","simplificationToleranceDegrees":0.00015,"simplificationPreservesTopology":true,"invalidSourceRepair":"make_valid; retain polygonal components; discard zero-area collapsed lines","legalBoundaryIndependentlyVerified":false,"areaId":"0e2b2cfe-1006-403b-9535-56f1af3d1de6"},"geometry":{"type":"Polygon","coordinates":[[[99.961159,13.418558],[99.95791,13.411079],[99.9584,13.410514],[99.958192,13.410089],[99.95797,13.410751],[99.957531,13.410444],[99.956637,13.40904],[99.956789,13.408711],[99.957619,13.408319],[99.957694,13.407949],[99.957449,13.407335],[99.95675,13.40727],[99.956657,13.406585],[99.956395,13.40636],[99.955758,13.406027],[99.954904,13.406121],[99.954213,13.407135],[99.953267,13.407065],[99.953098,13.406007],[99.952183,13.40593],[99.951699,13.405455],[99.950817,13.405205],[99.950209,13.404545],[99.948828,13.404506],[99.947755,13.404078],[99.947089,13.403617],[99.947044,13.403218],[99.943089,13.401638],[99.927974,13.399933],[99.933282,13.408007],[99.938441,13.412709],[99.938339,13.415739],[99.942311,13.419132],[99.941533,13.423409],[99.946253,13.429318],[99.949044,13.429373],[99.948607,13.423285],[99.95067,13.421058],[99.957653,13.423547],[99.960697,13.422475],[99.961159,13.418558]]]},"bbox":[99.927974,13.399933,99.961159,13.429373]},{"type":"Feature","id":"0c2dc970-4a34-4a46-a0ec-d96dd65e2b9e","properties":{"id":"0c2dc970-4a34-4a46-a0ec-d96dd65e2b9e","code":"06750103","provinceCode":"75","nameTh":"องค์การบริหารส่วนตำบล คลองเขิน","nameEn":null,"geometryType":"MUNICIPALITY","sourceUrl":"https://landometer.com/api/v2/citymeter-v3/grocery/info/geom/0c2dc970-4a34-4a46-a0ec-d96dd65e2b9e/MUNICIPALITY","sourceSha256":"46b358b0b4a7cdf171d10715ea1607a20a76ffb07600d3f5022d795a2b68e0bf","retrievedAt":"2026-10-04T05:44:21.886712+00:00","boundaryVintage":null,"geometryStatus":"native_source_polygon_display_simplified","simplificationToleranceDegrees":0.00015,"simplificationPreservesTopology":true,"invalidSourceRepair":"make_valid; retain polygonal components; discard zero-area collapsed lines","legalBoundaryIndependentlyVerified":false,"areaId":"0c2dc970-4a34-4a46-a0ec-d96dd65e2b9e"},"geometry":{"type":"MultiPolygon","coordinates":[[[[100.000606,13.430576],[100.00048113285021,13.430889647343083],[100.00060683549269,13.430575088276226],[100.000606,13.430576]]],[[[100.000057,13.431951],[99.997783,13.429928],[99.99715,13.433202],[99.992975,13.435205],[99.977702,13.434703],[99.975157,13.433539],[99.972943,13.436455],[99.972941,13.436705],[99.973615,13.436978],[99.973638,13.437176],[99.971637,13.440712],[99.970439,13.441687],[99.970623,13.442236],[99.969797,13.442757],[99.969801,13.443573],[99.9702,13.443833],[99.970554,13.44339],[99.971185,13.443302],[99.971391,13.443614],[99.97117,13.444509],[99.97301,13.443572],[99.973181,13.444312],[99.974013,13.445256],[99.974208,13.446054],[99.974916,13.44547],[99.97652,13.445296],[99.976747,13.445828],[99.977256,13.44613],[99.977027,13.447039],[99.977866,13.447875],[99.978623,13.447744],[99.978887,13.448347],[99.979353,13.447821],[99.979558,13.448432],[99.980334,13.448431],[99.980351,13.44979],[99.980718,13.450182],[99.980995,13.451356],[99.981418,13.451575],[99.98147,13.451918],[99.982928,13.451701],[99.983377,13.450666],[99.983983,13.450399],[99.984384,13.450616],[99.985152,13.452063],[99.984949,13.453253],[99.985109,13.453771],[99.984567,13.454466],[99.984337,13.455219],[99.98409,13.459054],[99.985974,13.459319],[99.986978,13.458882],[99.988145,13.459428],[99.990299,13.459234],[99.993393,13.459444],[99.993706,13.457907],[99.994337,13.457939],[99.995033,13.455456],[99.996748,13.456366],[99.997431,13.456092],[99.999684,13.456276],[100.000881,13.456007],[100.001173,13.453934],[99.999158,13.451603],[100.004006,13.435381],[100.006223,13.435383],[100.006715,13.433699],[100.010891,13.435429],[100.00088,13.430277],[100.000057,13.431951]]],[[[100.001096,13.429351],[100.00060683549269,13.430575088276226],[100.00060696965231,13.430574941875767],[100.001096,13.429351]]]]},"bbox":[99.969758,13.429351,100.010891,13.459444]},{"type":"Feature","id":"288f1887-fcf2-4394-8fc2-62e4a4a75ab1","properties":{"id":"288f1887-fcf2-4394-8fc2-62e4a4a75ab1","code":"06750104","provinceCode":"75","nameTh":"องค์การบริหารส่วนตำบล บางแก้ว","nameEn":null,"geometryType":"MUNICIPALITY","sourceUrl":"https://landometer.com/api/v2/citymeter-v3/grocery/info/geom/288f1887-fcf2-4394-8fc2-62e4a4a75ab1/MUNICIPALITY","sourceSha256":"1250d124e38594a050161f836b8c7946bd9ba79d5e2e1ecc37ae264b896ec08c","retrievedAt":"2026-10-04T05:44:21.897883+00:00","boundaryVintage":null,"geometryStatus":"native_source_polygon_display_simplified","simplificationToleranceDegrees":0.00015,"simplificationPreservesTopology":true,"invalidSourceRepair":"make_valid; retain polygonal components; discard zero-area collapsed lines","legalBoundaryIndependentlyVerified":false,"areaId":"288f1887-fcf2-4394-8fc2-62e4a4a75ab1"},"geometry":{"type":"Polygon","coordinates":[[[100.073449,13.455725],[100.078496,13.43735],[100.077726,13.428941],[100.078687,13.425152],[100.07802,13.42464],[100.077533,13.424677],[100.07727,13.424341],[100.073281,13.422756],[100.073032,13.423114],[100.07269,13.423123],[100.072333,13.422749],[100.068912,13.42138],[100.068244,13.421901],[100.067178,13.421636],[100.067167,13.421091],[100.066685,13.420447],[100.066409,13.420368],[100.066185,13.420586],[100.066214,13.42019],[100.06562,13.420206],[100.06562,13.419826],[100.065348,13.41965],[100.064382,13.42045],[100.064122,13.419574],[100.060908,13.418292],[100.058661,13.416604],[100.057686,13.416321],[100.055463,13.414643],[100.053675,13.412917],[100.053479,13.412249],[100.052635,13.41132],[100.052037,13.411047],[100.051201,13.411194],[100.050873,13.410416],[100.05027,13.410538],[100.049473,13.409768],[100.048506,13.40943],[100.048568,13.40892],[100.047646,13.408646],[100.047594,13.406735],[100.047377,13.406138],[100.045826,13.403672],[100.045533,13.403637],[100.045684,13.403327],[100.044857,13.402399],[100.042591,13.39788],[100.041879,13.397367],[100.041921,13.396319],[100.041677,13.395794],[100.041154,13.395149],[100.039926,13.394615],[100.04,13.393909],[100.040257,13.393662],[100.039453,13.391589],[100.039787,13.391285],[100.039689,13.388216],[100.039266,13.387307],[100.03851,13.387066],[100.037914,13.385956],[100.038517,13.385369],[100.038298,13.384755],[100.038591,13.3842],[100.038517,13.381817],[100.034653,13.372504],[100.033083,13.370504],[100.030215,13.369073],[100.025227,13.371947],[100.023506,13.375515],[100.02565,13.379595],[100.02286,13.380129],[100.018322,13.382265],[100.014139,13.381697],[100.014608,13.386737],[100.00844,13.387358],[100.004461,13.386068],[100.000612,13.388425],[100.003548,13.392466],[100.004716,13.40173],[100.006719,13.403753],[100.007214,13.408591],[100.005293,13.413971],[100.008326,13.415642],[100.008509,13.416603],[100.048705,13.437884],[100.073449,13.455725]]]},"bbox":[100.000612,13.369073,100.078782,13.455725]},{"type":"Feature","id":"65120a21-77d1-4e16-92a3-2c9d20ce96ef","properties":{"id":"65120a21-77d1-4e16-92a3-2c9d20ce96ef","code":"06750106","provinceCode":"75","nameTh":"องค์การบริหารส่วนตำบล บ้านปรก","nameEn":null,"geometryType":"MUNICIPALITY","sourceUrl":"https://landometer.com/api/v2/citymeter-v3/grocery/info/geom/65120a21-77d1-4e16-92a3-2c9d20ce96ef/MUNICIPALITY","sourceSha256":"e7b3162732f1f60e52b8d7f9efb9cf29de25681020af37afb42fea3dff9903c4","retrievedAt":"2026-10-04T05:44:21.882759+00:00","boundaryVintage":null,"geometryStatus":"native_source_polygon_display_simplified","simplificationToleranceDegrees":0.00015,"simplificationPreservesTopology":true,"invalidSourceRepair":"make_valid; retain polygonal components; discard zero-area collapsed lines","legalBoundaryIndependentlyVerified":false,"areaId":"65120a21-77d1-4e16-92a3-2c9d20ce96ef"},"geometry":{"type":"MultiPolygon","coordinates":[[[[99.965412,13.40997],[99.96541216225266,13.409970030194613],[99.965467,13.409455],[99.965412,13.40997]]],[[[99.96541216225266,13.409970030194613],[99.965356,13.411177],[99.96574,13.412313],[99.966204,13.412926],[99.966561,13.412928],[99.967393,13.413809],[99.971892,13.417184],[99.971834,13.417974],[99.970501,13.420774],[99.969577,13.424978],[99.971757,13.425157],[99.974581,13.427254],[99.975054,13.428438],[99.975958,13.429636],[99.975157,13.433539],[99.977702,13.434703],[99.992975,13.435205],[99.99715,13.433202],[99.997783,13.429928],[100.000057,13.431951],[100.001909,13.427315],[99.991324,13.425567],[99.990416,13.423324],[99.988643,13.418938],[99.984582,13.419827],[99.981884,13.41735],[99.985539,13.408587],[99.983352,13.400922],[99.978461,13.40075],[99.978012,13.401109],[99.976741,13.408024],[99.972481,13.410272],[99.972016,13.409359],[99.966279,13.409517],[99.966347,13.410144],[99.96541216225266,13.409970030194613]]],[[[99.99032100323976,13.42308700539961],[99.99041655176585,13.423323257238271],[99.990999,13.424217],[99.99032100323976,13.42308700539961]]]]},"bbox":[99.965329,13.40075,100.001909,13.435205]},{"type":"Feature","id":"633e0005-4b4e-49b8-8075-601387feaee8","properties":{"id":"633e0005-4b4e-49b8-8075-601387feaee8","code":"06750107","provinceCode":"75","nameTh":"องค์การบริหารส่วนตำบล ลาดใหญ่","nameEn":null,"geometryType":"MUNICIPALITY","sourceUrl":"https://landometer.com/api/v2/citymeter-v3/grocery/info/geom/633e0005-4b4e-49b8-8075-601387feaee8/MUNICIPALITY","sourceSha256":"6659879e05d3b6efef441122223b0e0c838568d4be372a0b965d288ac686fb2d","retrievedAt":"2026-10-04T05:44:21.885312+00:00","boundaryVintage":null,"geometryStatus":"native_source_polygon_display_simplified","simplificationToleranceDegrees":0.00015,"simplificationPreservesTopology":true,"invalidSourceRepair":"make_valid; retain polygonal components; discard zero-area collapsed lines","legalBoundaryIndependentlyVerified":false,"areaId":"633e0005-4b4e-49b8-8075-601387feaee8"},"geometry":{"type":"MultiPolygon","coordinates":[[[[100.000386,13.431127],[100.00060624790235,13.430575729478825],[100.000606,13.430576],[100.000386,13.431127]]],[[[99.991324,13.425567],[100.001909,13.427315],[100.00060624790235,13.430575729478825],[100.00088,13.430277],[100.010891,13.435429],[100.010994,13.437737],[100.013345,13.438691],[100.012206,13.443004],[100.01679,13.443484],[100.029551,13.473122],[100.032218,13.473789],[100.03123,13.477687],[100.032347,13.482162],[100.036828,13.479174],[100.053186,13.48578],[100.053298,13.485042],[100.054295,13.484329],[100.055747,13.481811],[100.073319,13.45635],[100.073254,13.455903],[100.073449,13.455725],[100.048705,13.437884],[100.008509,13.416603],[100.008326,13.415642],[100.007315,13.415085],[100.006798,13.415394],[100.007508,13.416065],[100.007514,13.419092],[100.003356,13.421623],[99.99689,13.416259],[99.990999,13.424217],[99.990416,13.423324],[99.991324,13.425567]]]]},"bbox":[99.990416,13.415085,100.073449,13.48578]},{"type":"Feature","id":"0e568dc0-2be7-422b-ab49-ce32489e007f","properties":{"id":"0e568dc0-2be7-422b-ab49-ce32489e007f","code":"06750108","provinceCode":"75","nameTh":"องค์การบริหารส่วนตำบล แหลมใหญ่","nameEn":null,"geometryType":"MUNICIPALITY","sourceUrl":"https://landometer.com/api/v2/citymeter-v3/grocery/info/geom/0e568dc0-2be7-422b-ab49-ce32489e007f/MUNICIPALITY","sourceSha256":"ce30870b6a9d1980f604344fb8de283737c4a6d1965c2d47a67b8155fcc2ed67","retrievedAt":"2026-10-04T05:44:21.902589+00:00","boundaryVintage":null,"geometryStatus":"native_source_polygon_display_simplified","simplificationToleranceDegrees":0.00015,"simplificationPreservesTopology":true,"invalidSourceRepair":"make_valid; retain polygonal components; discard zero-area collapsed lines","legalBoundaryIndependentlyVerified":false,"areaId":"0e568dc0-2be7-422b-ab49-ce32489e007f"},"geometry":{"type":"MultiPolygon","coordinates":[[[[99.99698619344389,13.341361375254467],[99.996986,13.341362],[99.997009,13.341354],[99.99698619344389,13.341361375254467]]],[[[99.997243,13.361463],[100.001669,13.355373],[100.001922,13.353965],[100.001706,13.353119],[100.000876,13.351787],[99.999298,13.350044],[99.999671,13.349003],[99.999196,13.347737],[99.998386,13.347488],[99.998079,13.346826],[99.996751,13.345943],[99.996805,13.344556],[99.996574,13.343941],[99.996894,13.34311],[99.996719,13.342778],[99.996175,13.342633],[99.996105,13.341982],[99.996386,13.341549],[99.99698619344389,13.341361375254467],[99.998297,13.337128],[99.997808,13.333056],[99.993627,13.328609],[99.99056,13.328176],[99.987552,13.33956],[99.976533,13.354294],[99.972375,13.352321],[99.970791,13.354747],[99.971565,13.358006],[99.97141797103379,13.358205979957539],[99.967685,13.355575],[99.966263,13.357126],[99.962403,13.354201],[99.963633,13.357109],[99.959955,13.352815],[99.957769,13.352508],[99.954943,13.362241],[99.958128,13.367329],[99.963354,13.368505],[99.969673,13.373407],[99.970045,13.378339],[99.963205,13.384156],[99.971596,13.388571],[99.973543,13.387917],[99.973176,13.385895],[99.974604,13.386044],[99.975208,13.389784],[99.981539,13.394464],[99.982413,13.393581],[99.979511,13.378712],[99.984683,13.381015],[99.989442,13.377908],[99.992549,13.375443],[99.99704160039084,13.364657959234032],[99.995975,13.362878],[99.997243,13.361463]],[[99.97141798050612,13.358205986511685],[99.971279,13.358395],[99.97141797103379,13.358205979957539],[99.97141798050612,13.358205986511685]],[[99.971529,13.358055],[99.971418,13.358206],[99.97141798050612,13.358205986511685],[99.971529,13.358055]]],[[[99.997042,13.364657],[99.99704160039084,13.364657959234032],[99.997216,13.364949],[99.997042,13.364657]]]]},"bbox":[99.954943,13.328176,100.001922,13.394464]},{"type":"Feature","id":"de8a6ea2-a61d-4924-aa26-5914683b2bcd","properties":{"id":"de8a6ea2-a61d-4924-aa26-5914683b2bcd","code":"06750109","provinceCode":"75","nameTh":"องค์การบริหารส่วนตำบล คลองโคน","nameEn":null,"geometryType":"MUNICIPALITY","sourceUrl":"https://landometer.com/api/v2/citymeter-v3/grocery/info/geom/de8a6ea2-a61d-4924-aa26-5914683b2bcd/MUNICIPALITY","sourceSha256":"e241cb9912465570e5c5128baeb574d6c7aeb7c315bf04c9ce96d8f1c1114486","retrievedAt":"2026-10-04T05:44:21.894050+00:00","boundaryVintage":null,"geometryStatus":"native_source_polygon_display_simplified","simplificationToleranceDegrees":0.00015,"simplificationPreservesTopology":true,"invalidSourceRepair":"make_valid; retain polygonal components; discard zero-area collapsed lines","legalBoundaryIndependentlyVerified":false,"areaId":"de8a6ea2-a61d-4924-aa26-5914683b2bcd"},"geometry":{"type":"MultiPolygon","coordinates":[[[[99.919224,13.300606],[99.920419,13.30521],[99.92074,13.305504],[99.920614,13.305666],[99.920284,13.305483],[99.920253,13.30582],[99.919889,13.30602],[99.921496,13.309657],[99.92211,13.312074],[99.922457,13.312607],[99.928504,13.334363],[99.928743,13.335014],[99.929231,13.335425],[99.928883,13.336435],[99.929197,13.336871],[99.931281,13.345346],[99.933369,13.352442],[99.932971,13.352896],[99.934331,13.356323],[99.93706108102855,13.366234968946854],[99.948837,13.361722],[99.952374,13.35839],[99.954943,13.362241],[99.957769,13.352508],[99.959955,13.352815],[99.963633,13.357109],[99.962403,13.354201],[99.966263,13.357126],[99.967685,13.355575],[99.971418,13.358206],[99.971565,13.358006],[99.970791,13.354747],[99.972375,13.352321],[99.976533,13.354294],[99.987552,13.33956],[99.99056,13.328176],[99.993627,13.328609],[99.997808,13.333056],[99.998297,13.337128],[99.99698619344389,13.341361375254467],[99.997364,13.341119],[99.998456,13.339111],[99.99853,13.336277],[99.999175,13.333281],[99.997802,13.331056],[99.996631,13.329968],[99.99564,13.32933],[99.992679,13.328125],[99.990377,13.327996],[99.989386,13.326856],[99.990119,13.326128],[99.989964,13.32537],[99.985123,13.322178],[99.984112,13.321722],[99.98026,13.321345],[99.979601,13.320829],[99.98099,13.318728],[99.9787,13.316973],[99.971259,13.313298],[99.969857,13.312868],[99.96862,13.312913],[99.96736,13.311784],[99.960186,13.307473],[99.957606,13.306176],[99.956945,13.306102],[99.955996,13.306723],[99.954105,13.304586],[99.95344,13.299685],[99.952504,13.29662],[99.950132,13.295988],[99.946177,13.296407],[99.944543,13.295913],[99.942504,13.295748],[99.938782,13.294458],[99.93737,13.293778],[99.936929,13.293268],[99.935747,13.29297],[99.935116,13.291894],[99.934456,13.289821],[99.934044,13.289486],[99.933279,13.288035],[99.933524,13.286331],[99.934141,13.285393],[99.933886,13.285023],[99.933115,13.285012],[99.932786,13.284518],[99.93203,13.284518],[99.931195,13.283808],[99.928108,13.288093],[99.925415,13.291175],[99.924993,13.292725],[99.925534,13.295022],[99.925135,13.297024],[99.924654,13.297827],[99.924136,13.298266],[99.923644,13.297929],[99.923014,13.297862],[99.922646,13.297333],[99.921233,13.297284],[99.920344,13.298188],[99.920414,13.298666],[99.920009,13.298692],[99.919761,13.299268],[99.918629,13.300135],[99.918125,13.300256],[99.918687,13.300781],[99.918989,13.300431],[99.919224,13.300606]]],[[[99.99698619344389,13.341361375254467],[99.996808,13.341419],[99.996986,13.341362],[99.99698619344389,13.341361375254467]]],[[[99.93706108102855,13.366234968946854],[99.937061,13.366235],[99.93707,13.366263],[99.93706108102855,13.366234968946854]]]]},"bbox":[99.91812,13.283808,99.999195,13.366263]},{"type":"Feature","id":"8c69cdfb-43fa-4a33-8e34-960e5f358891","properties":{"id":"8c69cdfb-43fa-4a33-8e34-960e5f358891","code":"06750110","provinceCode":"75","nameTh":"องค์การบริหารส่วนตำบล ท้ายหาด","nameEn":null,"geometryType":"MUNICIPALITY","sourceUrl":"https://landometer.com/api/v2/citymeter-v3/grocery/info/geom/8c69cdfb-43fa-4a33-8e34-960e5f358891/MUNICIPALITY","sourceSha256":"427a34d7fd2b68e768e66f72ab0a8063754ee1bcc18971868809d580ee2e6d6a","retrievedAt":"2026-10-04T05:44:21.964998+00:00","boundaryVintage":null,"geometryStatus":"native_source_polygon_display_simplified","simplificationToleranceDegrees":0.00015,"simplificationPreservesTopology":true,"invalidSourceRepair":"make_valid; retain polygonal components; discard zero-area collapsed lines","legalBoundaryIndependentlyVerified":false,"areaId":"8c69cdfb-43fa-4a33-8e34-960e5f358891"},"geometry":{"type":"Polygon","coordinates":[[[99.971825,13.404072],[99.970656,13.406687],[99.972481,13.410272],[99.976741,13.408024],[99.978012,13.401109],[99.978461,13.40075],[99.983352,13.400922],[99.985539,13.408587],[99.981884,13.41735],[99.984582,13.419827],[99.988643,13.418938],[99.989038,13.417182],[99.985832,13.413297],[99.988151,13.406082],[99.985764,13.399196],[99.982585,13.393407],[99.981539,13.394464],[99.975208,13.389784],[99.974604,13.386044],[99.973176,13.385895],[99.973543,13.387917],[99.971596,13.388571],[99.968399,13.386792],[99.966618,13.387822],[99.963109,13.393424],[99.967704,13.398267],[99.968555,13.397962],[99.970014,13.399287],[99.968876,13.401458],[99.971825,13.404072]]]},"bbox":[99.963109,13.385895,99.989038,13.419827]},{"type":"Feature","id":"e5274143-c6e6-4559-93b8-4f20ebaec8c9","properties":{"id":"e5274143-c6e6-4559-93b8-4f20ebaec8c9","code":"06750111","provinceCode":"75","nameTh":"องค์การบริหารส่วนตำบล นางตะเคียน","nameEn":null,"geometryType":"MUNICIPALITY","sourceUrl":"https://landometer.com/api/v2/citymeter-v3/grocery/info/geom/e5274143-c6e6-4559-93b8-4f20ebaec8c9/MUNICIPALITY","sourceSha256":"be46b663696e5efebe67725a59d44c0876e0cefa5c57ccf9c922d9240a6d5729","retrievedAt":"2026-10-04T05:44:21.972729+00:00","boundaryVintage":null,"geometryStatus":"native_source_polygon_display_simplified","simplificationToleranceDegrees":0.00015,"simplificationPreservesTopology":true,"invalidSourceRepair":"make_valid; retain polygonal components; discard zero-area collapsed lines","legalBoundaryIndependentlyVerified":false,"areaId":"e5274143-c6e6-4559-93b8-4f20ebaec8c9"},"geometry":{"type":"Polygon","coordinates":[[[100.042346,13.503232],[100.042,13.501023],[100.042552,13.50039],[100.041974,13.498676],[100.043008,13.498731],[100.043919,13.498256],[100.044349,13.497679],[100.044785,13.497645],[100.045128,13.497968],[100.045334,13.497562],[100.0451,13.49704],[100.045294,13.496805],[100.046504,13.497012],[100.046667,13.496051],[100.050035,13.490015],[100.050588,13.489577],[100.052245,13.486717],[100.053186,13.48578],[100.036828,13.479174],[100.032347,13.482162],[100.03123,13.477687],[100.032218,13.473789],[100.029551,13.473122],[100.01679,13.443484],[100.012206,13.443004],[100.013345,13.438691],[100.010994,13.437737],[100.010891,13.435429],[100.006715,13.433699],[100.006223,13.435383],[100.004006,13.435381],[99.999158,13.451603],[100.001173,13.453934],[100.000881,13.456007],[100.000148,13.458102],[100.00507,13.45818],[100.006296,13.463466],[100.006129,13.465972],[100.005595,13.467954],[100.007911,13.467785],[100.00905,13.467197],[100.010797,13.467049],[100.015087,13.465195],[100.016054,13.465229],[100.015921,13.466134],[100.016532,13.466412],[100.016035,13.467269],[100.016287,13.467513],[100.016231,13.468231],[100.016688,13.468831],[100.015748,13.470532],[100.015134,13.47555],[100.014714,13.477192],[100.014358,13.47755],[100.015146,13.478943],[100.016221,13.479823],[100.016403,13.480706],[100.019167,13.483894],[100.018859,13.484432],[100.017853,13.48503],[100.017769,13.485965],[100.022015,13.486472],[100.022596,13.487862],[100.020508,13.490601],[100.024304,13.493039],[100.026712,13.493858],[100.028567,13.495484],[100.026274,13.504562],[100.029091,13.505854],[100.029385,13.507648],[100.030367,13.50803],[100.030572,13.50785],[100.030672,13.506588],[100.031388,13.506901],[100.032196,13.506295],[100.033091,13.506268],[100.034467,13.505054],[100.036075,13.504587],[100.037446,13.505256],[100.038267,13.504294],[100.038482,13.504632],[100.0388,13.504588],[100.039142,13.503896],[100.040488,13.504189],[100.041562,13.503699],[100.042327,13.503912],[100.04261,13.503613],[100.042346,13.503232]]]},"bbox":[99.999158,13.433699,100.053186,13.50803]},{"type":"Feature","id":"35ab6fa8-e893-48cf-84ba-10020a63d13d","properties":{"id":"35ab6fa8-e893-48cf-84ba-10020a63d13d","code":"06750112","provinceCode":"75","nameTh":"องค์การบริหารส่วนตำบล บางขันแตก","nameEn":null,"geometryType":"MUNICIPALITY","sourceUrl":"https://landometer.com/api/v2/citymeter-v3/grocery/info/geom/35ab6fa8-e893-48cf-84ba-10020a63d13d/MUNICIPALITY","sourceSha256":"c32c23cf9449f44c1f52aa4a7cfe4ce66720137d46bc233938cc2685d8837186","retrievedAt":"2026-10-04T05:44:21.955150+00:00","boundaryVintage":null,"geometryStatus":"native_source_polygon_display_simplified","simplificationToleranceDegrees":0.00015,"simplificationPreservesTopology":true,"invalidSourceRepair":"make_valid; retain polygonal components; discard zero-area collapsed lines","legalBoundaryIndependentlyVerified":false,"areaId":"35ab6fa8-e893-48cf-84ba-10020a63d13d"},"geometry":{"type":"MultiPolygon","coordinates":[[[[99.937061,13.366235],[99.93706108102855,13.366234968946854],[99.937042,13.366175],[99.937061,13.366235]]],[[[99.968555,13.397962],[99.967704,13.398267],[99.963109,13.393424],[99.966618,13.387822],[99.968399,13.386792],[99.963205,13.384156],[99.970045,13.378339],[99.969673,13.373407],[99.963354,13.368505],[99.958128,13.367329],[99.952374,13.35839],[99.948837,13.361722],[99.93706108102855,13.366234968946854],[99.946932,13.402384],[99.947089,13.403617],[99.948828,13.404506],[99.950209,13.404545],[99.950817,13.405205],[99.951699,13.405455],[99.952183,13.40593],[99.953098,13.406007],[99.953267,13.407065],[99.954213,13.407135],[99.954631,13.406345],[99.955013,13.406097],[99.955758,13.406027],[99.956478,13.40641],[99.95675,13.40727],[99.957449,13.407335],[99.957694,13.407949],[99.957619,13.408319],[99.956789,13.408711],[99.956637,13.40904],[99.95731,13.410226],[99.95797,13.410751],[99.958936,13.408939],[99.959476,13.408531],[99.961102,13.408025],[99.963108,13.40809],[99.965562,13.40872],[99.96541216225266,13.409970030194613],[99.966347,13.410144],[99.966279,13.409517],[99.972016,13.409359],[99.970656,13.406687],[99.971825,13.404072],[99.968876,13.401458],[99.970014,13.399287],[99.968555,13.397962]]],[[[99.96541216225266,13.409970030194613],[99.965412,13.40997],[99.965393,13.41015],[99.96541216225266,13.409970030194613]]]]},"bbox":[99.937042,13.35839,99.972016,13.410751]},{"type":"Feature","id":"eb3d89f7-b93a-4dfb-9c28-389958eff609","properties":{"id":"eb3d89f7-b93a-4dfb-9c28-389958eff609","code":"06750205","provinceCode":"75","nameTh":"องค์การบริหารส่วนตำบล กระดังงา","nameEn":null,"geometryType":"MUNICIPALITY","sourceUrl":"https://landometer.com/api/v2/citymeter-v3/grocery/info/geom/eb3d89f7-b93a-4dfb-9c28-389958eff609/MUNICIPALITY","sourceSha256":"467b6d55e26383054b50b59e4993c0f732d0f1c7f9fd12230b63eeebbd7e11d9","retrievedAt":"2026-10-04T05:44:21.960919+00:00","boundaryVintage":null,"geometryStatus":"native_source_polygon_display_simplified","simplificationToleranceDegrees":0.00015,"simplificationPreservesTopology":true,"invalidSourceRepair":"make_valid; retain polygonal components; discard zero-area collapsed lines","legalBoundaryIndependentlyVerified":false,"areaId":"eb3d89f7-b93a-4dfb-9c28-389958eff609"},"geometry":{"type":"MultiPolygon","coordinates":[[[[99.94462296104325,13.457003654221085],[99.944776,13.455556],[99.944634,13.454628],[99.944365,13.454714],[99.94462296104325,13.457003654221085]]],[[[99.944419,13.458933],[99.952059,13.458604],[99.949261,13.463429],[99.949031,13.467799],[99.946018,13.46784],[99.942646,13.472033],[99.940234,13.479932],[99.94301,13.487077],[99.945378,13.487373],[99.949745,13.487482],[99.952975,13.48373],[99.952028,13.482474],[99.953282,13.479185],[99.958148,13.476944],[99.959488,13.478637],[99.958533,13.480219],[99.961599,13.480409],[99.967696,13.471806],[99.963801,13.471563],[99.958528,13.468003],[99.958367,13.467839],[99.959156,13.460845],[99.956555,13.461007],[99.950373,13.455962],[99.944776,13.455556],[99.944419,13.458933]]]]},"bbox":[99.940234,13.454628,99.967696,13.487482]},{"type":"Feature","id":"f01db459-abe4-4b0f-8da8-6afdb143e4c8","properties":{"id":"f01db459-abe4-4b0f-8da8-6afdb143e4c8","code":"06750206","provinceCode":"75","nameTh":"องค์การบริหารส่วนตำบล บางสะแก","nameEn":null,"geometryType":"MUNICIPALITY","sourceUrl":"https://landometer.com/api/v2/citymeter-v3/grocery/info/geom/f01db459-abe4-4b0f-8da8-6afdb143e4c8/MUNICIPALITY","sourceSha256":"6333dd0f1fcf2c4b2bb347786cd91a6038783da96f162a88d6f2e70b26625790","retrievedAt":"2026-10-04T05:44:21.957197+00:00","boundaryVintage":null,"geometryStatus":"native_source_polygon_display_simplified","simplificationToleranceDegrees":0.00015,"simplificationPreservesTopology":true,"invalidSourceRepair":"make_valid; retain polygonal components; discard zero-area collapsed lines","legalBoundaryIndependentlyVerified":false,"areaId":"f01db459-abe4-4b0f-8da8-6afdb143e4c8"},"geometry":{"type":"Polygon","coordinates":[[[99.904752,13.466319],[99.910075,13.469157],[99.91372,13.465118],[99.91779,13.465399],[99.919792,13.462853],[99.921177,13.463182],[99.923434,13.466422],[99.927953,13.45984],[99.926502,13.457589],[99.932288,13.455426],[99.935763,13.451403],[99.934728,13.448549],[99.936523,13.447874],[99.932091,13.442379],[99.929877,13.442765],[99.924334,13.441815],[99.919716,13.442123],[99.91851,13.443046],[99.917197,13.445045],[99.915277,13.450541],[99.9132,13.453614],[99.911443,13.455059],[99.909002,13.455783],[99.908105,13.455393],[99.906467,13.45293],[99.901848,13.448563],[99.899399,13.447114],[99.898205,13.446828],[99.89545,13.446882],[99.892403,13.448017],[99.890919,13.449203],[99.888787,13.451655],[99.887593,13.454213],[99.88755,13.455949],[99.887781,13.456885],[99.889981,13.461106],[99.891228,13.464748],[99.89081,13.467585],[99.890145,13.469086],[99.889164,13.470098],[99.889988,13.470819],[99.891274,13.471265],[99.891576,13.472491],[99.892671,13.472977],[99.892744,13.473589],[99.893363,13.473521],[99.893719,13.474365],[99.894156,13.474285],[99.896211,13.470071],[99.90037,13.473459],[99.904752,13.466319]]]},"bbox":[99.88753,13.441801,99.936523,13.474372]},{"type":"Feature","id":"7679b751-4ed4-49b5-9891-f22449b87cf2","properties":{"id":"7679b751-4ed4-49b5-9891-f22449b87cf2","code":"06750207","provinceCode":"75","nameTh":"องค์การบริหารส่วนตำบล จอมปลวก","nameEn":null,"geometryType":"MUNICIPALITY","sourceUrl":"https://landometer.com/api/v2/citymeter-v3/grocery/info/geom/7679b751-4ed4-49b5-9891-f22449b87cf2/MUNICIPALITY","sourceSha256":"0dea0f547e8a0f3e258d84e90f95f265e6337668f1702fd28556814666f8a532","retrievedAt":"2026-10-04T05:44:21.985807+00:00","boundaryVintage":null,"geometryStatus":"native_source_polygon_display_simplified","simplificationToleranceDegrees":0.00015,"simplificationPreservesTopology":true,"invalidSourceRepair":"make_valid; retain polygonal components; discard zero-area collapsed lines","legalBoundaryIndependentlyVerified":false,"areaId":"7679b751-4ed4-49b5-9891-f22449b87cf2"},"geometry":{"type":"MultiPolygon","coordinates":[[[[99.987658,13.481583],[99.984517,13.475082],[99.985358,13.474504],[99.985143,13.471796],[99.978348,13.47203],[99.977768,13.469166],[99.977614,13.470618],[99.969795,13.471937],[99.967696,13.471806],[99.961599,13.480409],[99.966527,13.485009],[99.96694515625107,13.48621594606562],[99.967695,13.485957],[99.968222,13.486234],[99.968039,13.487332],[99.968822,13.488665],[99.968482,13.490549],[99.973889,13.490083],[99.973939,13.49037],[99.973561,13.490895],[99.988948,13.500845],[99.985667,13.498623],[99.987762,13.495869],[99.984259,13.493952],[99.986514,13.492945],[99.987241,13.490206],[99.982959,13.486544],[99.985416,13.482383],[99.987658,13.481583]]],[[[99.968454,13.490571],[99.96694515625107,13.48621594606562],[99.966945,13.486216],[99.968454,13.490571]]]]},"bbox":[99.961599,13.469166,99.988959,13.500845]},{"type":"Feature","id":"603181c3-0da3-4767-90de-4f641b4821eb","properties":{"id":"603181c3-0da3-4767-90de-4f641b4821eb","code":"06750208","provinceCode":"75","nameTh":"องค์การบริหารส่วนตำบล ดอนมะโนรา","nameEn":null,"geometryType":"MUNICIPALITY","sourceUrl":"https://landometer.com/api/v2/citymeter-v3/grocery/info/geom/603181c3-0da3-4767-90de-4f641b4821eb/MUNICIPALITY","sourceSha256":"78194072964f502e9419f05eab9d4e2f607d5e21db526b9050a5b50853017e8f","retrievedAt":"2026-10-04T05:44:21.978595+00:00","boundaryVintage":null,"geometryStatus":"native_source_polygon_display_simplified","simplificationToleranceDegrees":0.00015,"simplificationPreservesTopology":true,"invalidSourceRepair":"make_valid; retain polygonal components; discard zero-area collapsed lines","legalBoundaryIndependentlyVerified":false,"areaId":"603181c3-0da3-4767-90de-4f641b4821eb"},"geometry":{"type":"Polygon","coordinates":[[[99.998976,13.484387],[99.993142,13.482355],[99.992919,13.481777],[99.993082,13.480885],[99.992742,13.480588],[99.992104,13.480924],[99.990732,13.481138],[99.988868,13.481989],[99.987872,13.481995],[99.987658,13.481583],[99.985416,13.482383],[99.982959,13.486544],[99.987241,13.490206],[99.986514,13.492945],[99.984259,13.493952],[99.987762,13.495869],[99.985667,13.498623],[99.989475,13.501138],[99.990345,13.499763],[99.990635,13.498738],[99.991551,13.498251],[99.992257,13.496963],[99.993087,13.495901],[99.993736,13.495576],[99.994831,13.493891],[100.008636,13.516262],[100.010117,13.515553],[100.01082,13.514531],[100.011001,13.513773],[100.011937,13.513511],[100.011664,13.512259],[100.012695,13.511728],[100.013625,13.511611],[100.014244,13.51096],[100.015872,13.510296],[100.016548,13.509656],[100.017477,13.509903],[100.018299,13.509609],[100.019077,13.509654],[100.019589,13.509101],[100.020243,13.508916],[100.021559,13.507925],[100.024286,13.506704],[100.025309,13.507184],[100.026459,13.503982],[100.028567,13.495484],[100.026712,13.493858],[100.024304,13.493039],[100.020508,13.490601],[100.022596,13.487862],[100.022015,13.486472],[100.017769,13.485965],[100.017853,13.48503],[100.018859,13.484432],[100.019167,13.483894],[100.016403,13.480706],[100.016221,13.479823],[100.015146,13.478943],[100.014358,13.47755],[100.012593,13.477466],[100.011161,13.478478],[100.009534,13.475873],[100.005488,13.477035],[100.004924,13.475072],[100.003993,13.475579],[100.002608,13.475373],[100.00012,13.477582],[99.998461,13.478524],[99.997071,13.478963],[99.997599,13.479899],[99.99671,13.480784],[99.999434,13.48342],[99.998976,13.484387]]]},"bbox":[99.982959,13.475059,100.028584,13.516265]},{"type":"Feature","id":"8743d274-177c-4873-bbaf-0ef0cb61e79f","properties":{"id":"8743d274-177c-4873-bbaf-0ef0cb61e79f","code":"06750209","provinceCode":"75","nameTh":"องค์การบริหารส่วนตำบล บางคนที","nameEn":null,"geometryType":"MUNICIPALITY","sourceUrl":"https://landometer.com/api/v2/citymeter-v3/grocery/info/geom/8743d274-177c-4873-bbaf-0ef0cb61e79f/MUNICIPALITY","sourceSha256":"9a78f5401d80a914c9b529ced68ce8f563ebf5d0d87ce2ac8debac308ffe9ae3","retrievedAt":"2026-10-04T05:44:21.985660+00:00","boundaryVintage":null,"geometryStatus":"native_source_polygon_display_simplified","simplificationToleranceDegrees":0.00015,"simplificationPreservesTopology":true,"invalidSourceRepair":"make_valid; retain polygonal components; discard zero-area collapsed lines","legalBoundaryIndependentlyVerified":false,"areaId":"8743d274-177c-4873-bbaf-0ef0cb61e79f"},"geometry":{"type":"Polygon","coordinates":[[[99.929834,13.496797],[99.926751,13.499908],[99.932281,13.504279],[99.93292,13.505116],[99.934044,13.503315],[99.934328,13.501794],[99.934338,13.49996],[99.933438,13.499857],[99.934031,13.497656],[99.940241,13.499119],[99.943465,13.498199],[99.946506,13.497725],[99.951575,13.498958],[99.953296,13.498502],[99.956651,13.496783],[99.957996,13.497083],[99.959168,13.496803],[99.960688,13.49746],[99.96123,13.495644],[99.963729,13.489716],[99.966574,13.485499],[99.966618,13.486202],[99.966945,13.486216],[99.966527,13.485009],[99.961599,13.480409],[99.958533,13.480219],[99.959488,13.478637],[99.958148,13.476944],[99.953282,13.479185],[99.952028,13.482474],[99.952975,13.48373],[99.949745,13.487482],[99.945378,13.487373],[99.94301,13.487077],[99.940234,13.479932],[99.942646,13.472033],[99.937851,13.471521],[99.933724,13.480268],[99.931417,13.482743],[99.933615,13.485292],[99.932637,13.488938],[99.929834,13.496797]]]},"bbox":[99.926751,13.471521,99.966945,13.505116]},{"type":"Feature","id":"09f356a3-a480-4576-9695-244db8d20915","properties":{"id":"09f356a3-a480-4576-9695-244db8d20915","code":"06750210","provinceCode":"75","nameTh":"องค์การบริหารส่วนตำบล บางพรม","nameEn":null,"geometryType":"MUNICIPALITY","sourceUrl":"https://landometer.com/api/v2/citymeter-v3/grocery/info/geom/09f356a3-a480-4576-9695-244db8d20915/MUNICIPALITY","sourceSha256":"352ba23b6d9fd5856d18624a7c5b13777ba9e291725e6de2f590f00ece5056df","retrievedAt":"2026-10-04T05:44:22.036985+00:00","boundaryVintage":null,"geometryStatus":"native_source_polygon_display_simplified","simplificationToleranceDegrees":0.00015,"simplificationPreservesTopology":true,"invalidSourceRepair":"make_valid; retain polygonal components; discard zero-area collapsed lines","legalBoundaryIndependentlyVerified":false,"areaId":"09f356a3-a480-4576-9695-244db8d20915"},"geometry":{"type":"MultiPolygon","coordinates":[[[[99.959156,13.460845],[99.959491,13.457867],[99.96505,13.457473],[99.965768,13.452127],[99.965537,13.452079],[99.965599,13.450139],[99.966165,13.448868],[99.956601,13.443567],[99.956356,13.443582],[99.956209,13.444183],[99.954402,13.446453],[99.951147,13.448554],[99.949852,13.449058],[99.947578,13.449203],[99.946161,13.447767],[99.943817,13.447211],[99.943596,13.447883],[99.94436555828898,13.454713821513561],[99.944634,13.454628],[99.944776,13.455556],[99.950373,13.455962],[99.956555,13.461007],[99.959156,13.460845]]],[[[99.944566,13.456493],[99.94436555828898,13.454713821513561],[99.944365,13.454714],[99.944566,13.456493]]]]},"bbox":[99.943596,13.443557,99.966165,13.461007]},{"type":"Feature","id":"91bc6c70-f618-46b4-a7a6-ade96dabd5ed","properties":{"id":"91bc6c70-f618-46b4-a7a6-ade96dabd5ed","code":"06750211","provinceCode":"75","nameTh":"องค์การบริหารส่วนตำบล โรงหีบ","nameEn":null,"geometryType":"MUNICIPALITY","sourceUrl":"https://landometer.com/api/v2/citymeter-v3/grocery/info/geom/91bc6c70-f618-46b4-a7a6-ade96dabd5ed/MUNICIPALITY","sourceSha256":"425ed628bf85b69f63e4785f94a92ae78373618fabdb81a095a0b6ebf6f62f92","retrievedAt":"2026-10-04T05:44:22.036832+00:00","boundaryVintage":null,"geometryStatus":"native_source_polygon_display_simplified","simplificationToleranceDegrees":0.00015,"simplificationPreservesTopology":true,"invalidSourceRepair":"make_valid; retain polygonal components; discard zero-area collapsed lines","legalBoundaryIndependentlyVerified":false,"areaId":"91bc6c70-f618-46b4-a7a6-ade96dabd5ed"},"geometry":{"type":"Polygon","coordinates":[[[99.943817,13.447211],[99.943608,13.44718],[99.944465,13.444034],[99.945667,13.440782],[99.943309,13.440536],[99.940955,13.439677],[99.939592,13.439536],[99.935706,13.440564],[99.932091,13.442379],[99.936523,13.447874],[99.934728,13.448549],[99.935763,13.451403],[99.932288,13.455426],[99.926502,13.457589],[99.927953,13.45984],[99.923444,13.466394],[99.92024,13.475435],[99.920226,13.479956],[99.93011,13.484019],[99.933724,13.480268],[99.937798,13.471515],[99.944419,13.458933],[99.944623,13.457004],[99.943596,13.447883],[99.945321,13.442649],[99.943817,13.447211]]]},"bbox":[99.920226,13.439517,99.945667,13.484019]},{"type":"Feature","id":"f8194a65-8a31-422e-8ce5-c238006d67a5","properties":{"id":"f8194a65-8a31-422e-8ce5-c238006d67a5","code":"06750303","provinceCode":"75","nameTh":"องค์การบริหารส่วนตำบล บางช้าง","nameEn":null,"geometryType":"MUNICIPALITY","sourceUrl":"https://landometer.com/api/v2/citymeter-v3/grocery/info/geom/f8194a65-8a31-422e-8ce5-c238006d67a5/MUNICIPALITY","sourceSha256":"812415fb419a026fc145c9451e18952238ddd26132650ee04bf758a58402c1cf","retrievedAt":"2026-10-04T05:44:22.044017+00:00","boundaryVintage":null,"geometryStatus":"native_source_polygon_display_simplified","simplificationToleranceDegrees":0.00015,"simplificationPreservesTopology":true,"invalidSourceRepair":"make_valid; retain polygonal components; discard zero-area collapsed lines","legalBoundaryIndependentlyVerified":false,"areaId":"f8194a65-8a31-422e-8ce5-c238006d67a5"},"geometry":{"type":"Polygon","coordinates":[[[99.975188,13.433497],[99.975955,13.430095],[99.975882,13.429457],[99.975054,13.428438],[99.974581,13.427254],[99.971579,13.425094],[99.969837,13.424976],[99.969673,13.425493],[99.96808,13.425454],[99.95919,13.428149],[99.9614,13.434748],[99.958413,13.438186],[99.957951,13.430007],[99.94929,13.432805],[99.949118,13.430409],[99.945287,13.440724],[99.945667,13.440782],[99.943608,13.44718],[99.945942,13.447655],[99.947578,13.449203],[99.949852,13.449058],[99.951147,13.448554],[99.954338,13.446504],[99.956209,13.444183],[99.956356,13.443582],[99.956777,13.443588],[99.966165,13.448868],[99.965599,13.450139],[99.965537,13.452079],[99.971221,13.453093],[99.971542,13.453805],[99.971834,13.453915],[99.971787,13.450854],[99.966545,13.44892],[99.966604,13.448455],[99.967421,13.446432],[99.966951,13.447218],[99.973177,13.436805],[99.972943,13.436455],[99.975188,13.433497]]]},"bbox":[99.943608,13.424961,99.97597,13.453915]},{"type":"Feature","id":"f7f59704-af94-412f-8f9e-bae31a5081f8","properties":{"id":"f7f59704-af94-412f-8f9e-bae31a5081f8","code":"06750304","provinceCode":"75","nameTh":"องค์การบริหารส่วนตำบล แควอ้อม","nameEn":null,"geometryType":"MUNICIPALITY","sourceUrl":"https://landometer.com/api/v2/citymeter-v3/grocery/info/geom/f7f59704-af94-412f-8f9e-bae31a5081f8/MUNICIPALITY","sourceSha256":"84211a4c7fc24346ef69dce8dc956f2ee440ed050890b5ee4e06de8da633d8e6","retrievedAt":"2026-10-04T05:44:22.043751+00:00","boundaryVintage":null,"geometryStatus":"native_source_polygon_display_simplified","simplificationToleranceDegrees":0.00015,"simplificationPreservesTopology":true,"invalidSourceRepair":"make_valid; retain polygonal components; discard zero-area collapsed lines","legalBoundaryIndependentlyVerified":false,"areaId":"f7f59704-af94-412f-8f9e-bae31a5081f8"},"geometry":{"type":"Polygon","coordinates":[[[99.924502,13.429657],[99.932695,13.44212],[99.935706,13.440564],[99.939592,13.439536],[99.940955,13.439677],[99.943309,13.440536],[99.945287,13.440724],[99.945229,13.440881],[99.949499,13.429382],[99.946253,13.429318],[99.944883,13.427422],[99.93865,13.432249],[99.934378,13.432257],[99.931593,13.426076],[99.921098,13.423019],[99.926023,13.424697],[99.925931,13.424942],[99.925676,13.424891],[99.924502,13.429657]]]},"bbox":[99.921098,13.423019,99.949499,13.44212]},{"type":"Feature","id":"01efdad2-32c5-44c2-abbe-21b24ac7af77","properties":{"id":"01efdad2-32c5-44c2-abbe-21b24ac7af77","code":"06750305","provinceCode":"75","nameTh":"องค์การบริหารส่วนตำบล ท่าคา","nameEn":null,"geometryType":"MUNICIPALITY","sourceUrl":"https://landometer.com/api/v2/citymeter-v3/grocery/info/geom/01efdad2-32c5-44c2-abbe-21b24ac7af77/MUNICIPALITY","sourceSha256":"62eab598b85e03adea59d1dad367d4d3c3b560d79aca1795751fc365e546531c","retrievedAt":"2026-10-04T05:44:22.063262+00:00","boundaryVintage":null,"geometryStatus":"native_source_polygon_display_simplified","simplificationToleranceDegrees":0.00015,"simplificationPreservesTopology":true,"invalidSourceRepair":"make_valid; retain polygonal components; discard zero-area collapsed lines","legalBoundaryIndependentlyVerified":false,"areaId":"01efdad2-32c5-44c2-abbe-21b24ac7af77"},"geometry":{"type":"Polygon","coordinates":[[[100.016673,13.468896],[100.01622,13.468184],[100.016287,13.467513],[100.016035,13.467269],[100.016524,13.466366],[100.015921,13.466134],[100.016054,13.465229],[100.015164,13.465178],[100.010797,13.467049],[100.00905,13.467197],[100.007911,13.467785],[100.005595,13.467954],[100.006129,13.465972],[100.006296,13.463466],[100.00507,13.45818],[100.000148,13.458102],[100.000836,13.456094],[99.999551,13.456277],[99.997786,13.456067],[99.996748,13.456366],[99.995033,13.455456],[99.994337,13.457939],[99.993706,13.457907],[99.993393,13.459444],[99.990299,13.459234],[99.988145,13.459428],[99.986978,13.458882],[99.985974,13.459319],[99.98409,13.459054],[99.984337,13.455219],[99.984567,13.454466],[99.985109,13.453771],[99.984949,13.453253],[99.985152,13.452063],[99.984384,13.450616],[99.983983,13.450399],[99.983377,13.450666],[99.982928,13.451701],[99.98147,13.451918],[99.981418,13.451575],[99.980995,13.451356],[99.980718,13.450182],[99.980351,13.44979],[99.980334,13.448431],[99.979558,13.448432],[99.979353,13.447821],[99.978887,13.448347],[99.978623,13.447744],[99.977866,13.447875],[99.977027,13.447039],[99.977256,13.44613],[99.976747,13.445828],[99.97652,13.445296],[99.974916,13.44547],[99.974208,13.446054],[99.974013,13.445256],[99.973181,13.444312],[99.97301,13.443572],[99.97117,13.444509],[99.971391,13.443614],[99.971185,13.443302],[99.970554,13.44339],[99.9702,13.443833],[99.969801,13.443573],[99.969797,13.442757],[99.970623,13.442236],[99.970439,13.441687],[99.971406,13.44099],[99.972326,13.439698],[99.973638,13.437176],[99.973545,13.436936],[99.973177,13.436805],[99.967421,13.446432],[99.966545,13.44892],[99.971787,13.450854],[99.971834,13.453915],[99.97298,13.454163],[99.972482,13.456397],[99.978565,13.457978],[99.977805,13.460404],[99.974928,13.462675],[99.977524,13.468278],[99.978271,13.47197],[99.985143,13.471796],[99.985358,13.474504],[99.984517,13.475082],[99.987872,13.481995],[99.988868,13.481989],[99.990732,13.481138],[99.992795,13.480596],[99.993082,13.480885],[99.992951,13.482044],[99.99332,13.482496],[99.998925,13.484412],[99.999434,13.48342],[99.99671,13.480784],[99.997599,13.479899],[99.997071,13.478963],[99.998461,13.478524],[100.00012,13.477582],[100.002608,13.475373],[100.003993,13.475579],[100.004924,13.475072],[100.005488,13.477035],[100.009534,13.475873],[100.011161,13.478478],[100.012593,13.477466],[100.014304,13.477576],[100.014714,13.477192],[100.015134,13.47555],[100.015817,13.470275],[100.016673,13.468896]]]},"bbox":[99.966545,13.436805,100.016688,13.484412]},{"type":"Feature","id":"69a64a06-5b56-45db-907d-e9d603772cfd","properties":{"id":"69a64a06-5b56-45db-907d-e9d603772cfd","code":"06750306","provinceCode":"75","nameTh":"องค์การบริหารส่วนตำบล บางแค","nameEn":null,"geometryType":"MUNICIPALITY","sourceUrl":"https://landometer.com/api/v2/citymeter-v3/grocery/info/geom/69a64a06-5b56-45db-907d-e9d603772cfd/MUNICIPALITY","sourceSha256":"46bf34c18c9ddbb67d80a6488176d1a667a7e98cf4b22092573a63b3449438c2","retrievedAt":"2026-10-04T05:44:22.052777+00:00","boundaryVintage":null,"geometryStatus":"native_source_polygon_display_simplified","simplificationToleranceDegrees":0.00015,"simplificationPreservesTopology":true,"invalidSourceRepair":"make_valid; retain polygonal components; discard zero-area collapsed lines","legalBoundaryIndependentlyVerified":false,"areaId":"69a64a06-5b56-45db-907d-e9d603772cfd"},"geometry":{"type":"Polygon","coordinates":[[[99.941533,13.423409],[99.94169,13.421848],[99.941542,13.422493],[99.937785,13.421583],[99.933575,13.422742],[99.923828,13.417267],[99.900469,13.392363],[99.891207,13.396414],[99.892716,13.400224],[99.896997,13.401958],[99.899629,13.406433],[99.897292,13.409029],[99.906377,13.407965],[99.910803,13.416836],[99.917176,13.418985],[99.920152,13.422743],[99.931593,13.426076],[99.934378,13.432257],[99.93865,13.432249],[99.944794,13.427491],[99.941533,13.423409]]]},"bbox":[99.891207,13.392363,99.944794,13.432257]},{"type":"Feature","id":"29f08e64-deef-4185-90e9-c8a1859641ea","properties":{"id":"29f08e64-deef-4185-90e9-c8a1859641ea","code":"06750307","provinceCode":"75","nameTh":"องค์การบริหารส่วนตำบล ปลายโพงพาง","nameEn":null,"geometryType":"MUNICIPALITY","sourceUrl":"https://landometer.com/api/v2/citymeter-v3/grocery/info/geom/29f08e64-deef-4185-90e9-c8a1859641ea/MUNICIPALITY","sourceSha256":"20003550b90dd78efb561896fa3c9a108aea3228f0e19b8d5c6246022381a6bc","retrievedAt":"2026-10-04T05:44:22.063715+00:00","boundaryVintage":null,"geometryStatus":"native_source_polygon_display_simplified","simplificationToleranceDegrees":0.00015,"simplificationPreservesTopology":true,"invalidSourceRepair":"make_valid; retain polygonal components; discard zero-area collapsed lines","legalBoundaryIndependentlyVerified":false,"areaId":"29f08e64-deef-4185-90e9-c8a1859641ea"},"geometry":{"type":"Polygon","coordinates":[[[99.927697,13.399589],[99.927974,13.399933],[99.943089,13.401638],[99.947044,13.403218],[99.937137,13.366468],[99.937414,13.367679],[99.893025,13.378884],[99.902219,13.394229],[99.904777,13.396957],[99.913528,13.393529],[99.927697,13.399589]]]},"bbox":[99.893025,13.366468,99.947044,13.403218]},{"type":"Feature","id":"910c4f66-d9bb-4174-81b5-43114b27e8e5","properties":{"id":"910c4f66-d9bb-4174-81b5-43114b27e8e5","code":"06750308","provinceCode":"75","nameTh":"องค์การบริหารส่วนตำบล แพรกหนามแดง","nameEn":null,"geometryType":"MUNICIPALITY","sourceUrl":"https://landometer.com/api/v2/citymeter-v3/grocery/info/geom/910c4f66-d9bb-4174-81b5-43114b27e8e5/MUNICIPALITY","sourceSha256":"61fc76954e1c742cb1864ea39ae9376d02b88ac2ed1058e2c9a70539403caeab","retrievedAt":"2026-10-04T05:44:22.064870+00:00","boundaryVintage":null,"geometryStatus":"native_source_polygon_display_simplified","simplificationToleranceDegrees":0.00015,"simplificationPreservesTopology":true,"invalidSourceRepair":"make_valid; retain polygonal components; discard zero-area collapsed lines","legalBoundaryIndependentlyVerified":false,"areaId":"910c4f66-d9bb-4174-81b5-43114b27e8e5"},"geometry":{"type":"Polygon","coordinates":[[[99.854886,13.326205],[99.856084,13.327514],[99.855951,13.329182],[99.857002,13.329751],[99.856959,13.332108],[99.857419,13.332803],[99.857869,13.334274],[99.858503,13.334893],[99.858567,13.335719],[99.859362,13.337977],[99.860072,13.338882],[99.85968,13.339992],[99.858844,13.341037],[99.859667,13.341664],[99.859909,13.342189],[99.859749,13.34365],[99.86016,13.344782],[99.860455,13.34713],[99.863337,13.357283],[99.864114,13.358988],[99.865861,13.365545],[99.866173,13.367483],[99.885482,13.364121],[99.893282,13.378819],[99.919045,13.372316],[99.917591,13.365696],[99.888962,13.319036],[99.886231,13.317344],[99.884348,13.321404],[99.881837,13.317981],[99.878233,13.316739],[99.875329,13.317635],[99.873372,13.316348],[99.874608,13.315304],[99.869679,13.311892],[99.869282,13.309531],[99.859325,13.311965],[99.865867,13.306371],[99.863641,13.305051],[99.863824,13.302122],[99.860256,13.298244],[99.853132,13.300448],[99.852154,13.307948],[99.85245,13.308097],[99.852752,13.309633],[99.853491,13.310649],[99.853516,13.314128],[99.854128,13.316469],[99.853885,13.317017],[99.854506,13.319302],[99.85443,13.320643],[99.854968,13.321478],[99.854665,13.324773],[99.854886,13.326205]]]},"bbox":[99.852154,13.298244,99.919045,13.378819]},{"type":"Feature","id":"ea61ca5d-741f-4e30-981b-94e78b3637db","properties":{"id":"ea61ca5d-741f-4e30-981b-94e78b3637db","code":"06750309","provinceCode":"75","nameTh":"องค์การบริหารส่วนตำบล ยี่สาร","nameEn":null,"geometryType":"MUNICIPALITY","sourceUrl":"https://landometer.com/api/v2/citymeter-v3/grocery/info/geom/ea61ca5d-741f-4e30-981b-94e78b3637db/MUNICIPALITY","sourceSha256":"44652fdc3bd1915e581c0b91b5ee1f1f3afbf8630cf99d1ac194b5b193389f3a","retrievedAt":"2026-10-04T05:44:22.122995+00:00","boundaryVintage":null,"geometryStatus":"native_source_polygon_display_simplified","simplificationToleranceDegrees":0.00015,"simplificationPreservesTopology":true,"invalidSourceRepair":"make_valid; retain polygonal components; discard zero-area collapsed lines","legalBoundaryIndependentlyVerified":false,"areaId":"ea61ca5d-741f-4e30-981b-94e78b3637db"},"geometry":{"type":"Polygon","coordinates":[[[99.908971,13.265804],[99.908025,13.264094],[99.907077,13.263792],[99.905605,13.264405],[99.902213,13.266752],[99.901222,13.266999],[99.898323,13.267169],[99.894869,13.265912],[99.893458,13.266092],[99.892995,13.264725],[99.892218,13.263866],[99.891716,13.26393],[99.890063,13.264925],[99.889843,13.264748],[99.889854,13.264183],[99.88908,13.264],[99.888515,13.26337],[99.888044,13.263416],[99.887721,13.264152],[99.886593,13.263887],[99.886499,13.263544],[99.887079,13.262684],[99.886892,13.262461],[99.886437,13.26286],[99.88625,13.262776],[99.886344,13.261985],[99.885821,13.261343],[99.886333,13.261051],[99.886333,13.260773],[99.88573,13.260509],[99.885175,13.261146],[99.884218,13.26099],[99.884134,13.260384],[99.882553,13.25978],[99.881479,13.25855],[99.883513,13.25578],[99.883679,13.255068],[99.884107,13.254753],[99.884191,13.253772],[99.884791,13.252661],[99.885701,13.252574],[99.885916,13.252881],[99.886122,13.252467],[99.886423,13.252646],[99.887338,13.252442],[99.88771,13.251741],[99.887286,13.251499],[99.887398,13.251158],[99.887186,13.250806],[99.888184,13.250326],[99.888754,13.250608],[99.888639,13.250164],[99.888987,13.250026],[99.889166,13.249461],[99.889875,13.24925],[99.889657,13.248834],[99.890416,13.248985],[99.890696,13.248242],[99.89115,13.248328],[99.890799,13.247738],[99.891754,13.24726],[99.892432,13.245952],[99.892544,13.244861],[99.892811,13.244514],[99.893249,13.244454],[99.892323,13.242997],[99.89151,13.243216],[99.891034,13.243097],[99.89008,13.242106],[99.889718,13.242095],[99.889265,13.242607],[99.889253,13.243205],[99.888574,13.244439],[99.887391,13.244595],[99.88567,13.245898],[99.883891,13.246318],[99.882746,13.246893],[99.882744,13.247836],[99.882064,13.248815],[99.880869,13.248375],[99.880257,13.248576],[99.880273,13.248883],[99.880654,13.249146],[99.880612,13.249702],[99.879222,13.249102],[99.878317,13.249882],[99.877622,13.249774],[99.877413,13.250158],[99.878203,13.250972],[99.8772,13.25129],[99.876401,13.250371],[99.875361,13.250327],[99.874973,13.250798],[99.873549,13.250793],[99.871558,13.250349],[99.870395,13.24987],[99.870409,13.249192],[99.868779,13.248345],[99.86813,13.24871],[99.865756,13.24914],[99.866402,13.246068],[99.864021,13.246505],[99.863589,13.245726],[99.862767,13.245494],[99.862534,13.245165],[99.860309,13.244605],[99.853132,13.300448],[99.860256,13.298244],[99.863824,13.302122],[99.863641,13.305051],[99.865867,13.306371],[99.859325,13.311965],[99.869282,13.309531],[99.869679,13.311892],[99.874608,13.315304],[99.873372,13.316348],[99.875329,13.317635],[99.878233,13.316739],[99.881837,13.317981],[99.884348,13.321404],[99.886231,13.317344],[99.888962,13.319036],[99.917591,13.365696],[99.919045,13.372316],[99.937414,13.367679],[99.934331,13.356323],[99.932971,13.352896],[99.933369,13.352442],[99.931281,13.345346],[99.929197,13.336871],[99.928883,13.336435],[99.929231,13.335425],[99.928743,13.335014],[99.928504,13.334363],[99.922457,13.312607],[99.92211,13.312074],[99.921496,13.309657],[99.919889,13.30602],[99.920253,13.30582],[99.920284,13.305483],[99.920614,13.305666],[99.92074,13.305504],[99.920419,13.30521],[99.919201,13.300515],[99.918989,13.300431],[99.918707,13.300787],[99.91812,13.300289],[99.919761,13.299268],[99.920009,13.298692],[99.920414,13.298666],[99.920344,13.298188],[99.921233,13.297284],[99.922646,13.297333],[99.923014,13.297862],[99.923644,13.297929],[99.924136,13.298266],[99.924654,13.297827],[99.925135,13.297024],[99.925534,13.295022],[99.924993,13.292725],[99.925415,13.291175],[99.928108,13.288093],[99.931195,13.283808],[99.93043,13.282787],[99.929474,13.282074],[99.925785,13.281749],[99.923791,13.281183],[99.922856,13.280264],[99.919882,13.2838],[99.918512,13.285069],[99.918056,13.284253],[99.917283,13.283844],[99.916555,13.28293],[99.914651,13.281903],[99.912319,13.281574],[99.911502,13.280849],[99.910493,13.281473],[99.910311,13.282262],[99.90961,13.282123],[99.909945,13.28119],[99.909788,13.280301],[99.909015,13.280218],[99.908782,13.279361],[99.908197,13.278898],[99.907491,13.277327],[99.908143,13.277152],[99.908172,13.276634],[99.908592,13.275956],[99.908154,13.274944],[99.909308,13.274189],[99.907912,13.272834],[99.908159,13.271837],[99.908048,13.271215],[99.908233,13.271063],[99.90899,13.271265],[99.909966,13.270649],[99.910046,13.269216],[99.910762,13.26802],[99.909816,13.266267],[99.908971,13.265804]]]},"bbox":[99.853132,13.242045,99.937414,13.372316]},{"type":"Feature","id":"a4981502-2bd8-4aba-9529-84173d576300","properties":{"id":"a4981502-2bd8-4aba-9529-84173d576300","code":"06750310","provinceCode":"75","nameTh":"องค์การบริหารส่วนตำบล วัดประดู่","nameEn":null,"geometryType":"MUNICIPALITY","sourceUrl":"https://landometer.com/api/v2/citymeter-v3/grocery/info/geom/a4981502-2bd8-4aba-9529-84173d576300/MUNICIPALITY","sourceSha256":"1475478846a56404d03fb8e209c6204b0bb30a504b8441ad2fba1afd3c2b25d2","retrievedAt":"2026-10-04T05:44:22.130143+00:00","boundaryVintage":null,"geometryStatus":"native_source_polygon_display_simplified","simplificationToleranceDegrees":0.00015,"simplificationPreservesTopology":true,"invalidSourceRepair":"make_valid; retain polygonal components; discard zero-area collapsed lines","legalBoundaryIndependentlyVerified":false,"areaId":"a4981502-2bd8-4aba-9529-84173d576300"},"geometry":{"type":"Polygon","coordinates":[[[99.872576,13.388495],[99.878037,13.401982],[99.877806,13.402329],[99.878224,13.402947],[99.878325,13.404076],[99.878867,13.404583],[99.881437,13.41044],[99.881276,13.411186],[99.881952,13.412208],[99.882712,13.414146],[99.883105,13.41452],[99.883977,13.416975],[99.884827,13.418449],[99.884964,13.419385],[99.885518,13.419921],[99.885568,13.42073],[99.88613,13.421476],[99.888212,13.425884],[99.889101,13.427159],[99.889148,13.427794],[99.890288,13.429404],[99.890381,13.429936],[99.889994,13.4302],[99.890508,13.431404],[99.891019,13.431676],[99.891369,13.432393],[99.891124,13.434282],[99.891312,13.435003],[99.891895,13.435819],[99.891841,13.437178],[99.891574,13.43786],[99.891123,13.438062],[99.891059,13.439392],[99.891534,13.441668],[99.891339,13.442206],[99.890563,13.44252],[99.890695,13.444472],[99.891267,13.445295],[99.891299,13.445934],[99.894723,13.445512],[99.898829,13.434733],[99.895652,13.43179],[99.898506,13.429046],[99.895123,13.426624],[99.901968,13.421536],[99.896079,13.411651],[99.897635,13.408989],[99.897292,13.409029],[99.899629,13.406433],[99.896997,13.401958],[99.892716,13.400224],[99.891207,13.396414],[99.900469,13.392363],[99.902219,13.394229],[99.893025,13.378884],[99.893282,13.378819],[99.885482,13.364121],[99.866173,13.367483],[99.867279,13.374068],[99.868024,13.376003],[99.86863,13.379155],[99.869688,13.38274],[99.871107,13.385972],[99.872576,13.388495]]]},"bbox":[99.866173,13.364121,99.902219,13.445934]},{"type":"Feature","id":"1851d1df-d10d-4e92-92c3-505d0c66238e","properties":{"id":"1851d1df-d10d-4e92-92c3-505d0c66238e","code":"06750312","provinceCode":"75","nameTh":"องค์การบริหารส่วนตำบล เหมืองใหม่","nameEn":null,"geometryType":"MUNICIPALITY","sourceUrl":"https://landometer.com/api/v2/citymeter-v3/grocery/info/geom/1851d1df-d10d-4e92-92c3-505d0c66238e/MUNICIPALITY","sourceSha256":"b1d3687bd0b36e7c00100f9a5871fa34bff8f51c9464862af146bf4ea185bc7f","retrievedAt":"2026-10-04T05:44:22.118661+00:00","boundaryVintage":null,"geometryStatus":"native_source_polygon_display_simplified","simplificationToleranceDegrees":0.00015,"simplificationPreservesTopology":true,"invalidSourceRepair":"make_valid; retain polygonal components; discard zero-area collapsed lines","legalBoundaryIndependentlyVerified":false,"areaId":"1851d1df-d10d-4e92-92c3-505d0c66238e"},"geometry":{"type":"MultiPolygon","coordinates":[[[[99.897635,13.408989],[99.89763505185871,13.408988993927649],[99.897773,13.408753],[99.897635,13.408989]]],[[[99.925788,13.425319],[99.925931,13.424942],[99.92593047533633,13.424941895067263],[99.925788,13.425319]]],[[[99.917784,13.437559],[99.924168,13.437749],[99.925152,13.437001],[99.923475,13.435738],[99.92719887114309,13.43376080391962],[99.924502,13.429657],[99.925676,13.424891],[99.92593047533633,13.424941895067263],[99.926023,13.424697],[99.920152,13.422743],[99.917176,13.418985],[99.910803,13.416836],[99.906377,13.407965],[99.89763505185871,13.408988993927649],[99.896079,13.411651],[99.901968,13.421536],[99.895123,13.426624],[99.898506,13.429046],[99.895652,13.43179],[99.898829,13.434733],[99.894723,13.445512],[99.8956,13.445422],[99.900077,13.443904],[99.901663,13.441986],[99.90425268494421,13.445103620716619],[99.911474,13.437969],[99.908959,13.435038],[99.910717,13.433063],[99.915091,13.439486],[99.916758,13.438411],[99.917896,13.43999],[99.91911,13.439289],[99.917784,13.437559]]],[[[99.927562,13.433568],[99.92719887114309,13.43376080391962],[99.927199,13.433761],[99.927562,13.433568]]],[[[99.905698,13.443788],[99.907109,13.442503],[99.90570120992379,13.443784766179618],[99.905698,13.443788]]],[[[99.90397,13.445361],[99.904253,13.445104],[99.90425268494421,13.445103620716619],[99.90397,13.445361]]]]},"bbox":[99.894723,13.407965,99.927562,13.445512]},{"type":"Feature","id":"b28ddaad-e924-4da1-b766-aae8ead5faaf","properties":{"id":"b28ddaad-e924-4da1-b766-aae8ead5faaf","code":"06750313","provinceCode":"75","nameTh":"องค์การบริหารส่วนตำบล บางนางลี่","nameEn":null,"geometryType":"MUNICIPALITY","sourceUrl":"https://landometer.com/api/v2/citymeter-v3/grocery/info/geom/b28ddaad-e924-4da1-b766-aae8ead5faaf/MUNICIPALITY","sourceSha256":"b8894180befedb3c9678feb71852a50a04e2e7bf3535249b49839912cb7e74b1","retrievedAt":"2026-10-04T05:44:22.121056+00:00","boundaryVintage":null,"geometryStatus":"native_source_polygon_display_simplified","simplificationToleranceDegrees":0.00015,"simplificationPreservesTopology":true,"invalidSourceRepair":"make_valid; retain polygonal components; discard zero-area collapsed lines","legalBoundaryIndependentlyVerified":false,"areaId":"b28ddaad-e924-4da1-b766-aae8ead5faaf"},"geometry":{"type":"Polygon","coordinates":[[[99.938339,13.415739],[99.938441,13.412709],[99.933282,13.408007],[99.927697,13.399589],[99.913528,13.393529],[99.904777,13.396957],[99.923828,13.417267],[99.933575,13.422742],[99.937785,13.421583],[99.941542,13.422493],[99.942311,13.419132],[99.938339,13.415739]]]},"bbox":[99.904777,13.393529,99.942311,13.422742]}]}
