{"type":"FeatureCollection","metadata":{"provinceCode":"83","source":"CityMETER native source fine polygons","retrievedAt":"2026-10-04T05:48:13.999706+00:00","total":18,"retrieved":18,"displaySimplificationToleranceDegrees":0.00015,"legalBoundaryIndependentlyVerified":false},"features":[{"type":"Feature","id":"091c3292-680f-4f7d-b67d-6de5163c8195","properties":{"id":"091c3292-680f-4f7d-b67d-6de5163c8195","code":"03830102","provinceCode":"83","nameTh":"เทศบาลนคร ภูเก็ต","nameEn":null,"geometryType":"MUNICIPALITY","sourceUrl":"https://landometer.com/api/v2/citymeter-v3/grocery/info/geom/091c3292-680f-4f7d-b67d-6de5163c8195/MUNICIPALITY","sourceSha256":"cb1ac042401aa72035638565d601c52533c26ef33263e8cc1fb0fa18bcb665ef","retrievedAt":"2026-10-04T05:44:30.377450+00:00","boundaryVintage":null,"geometryStatus":"native_source_polygon_display_simplified","simplificationToleranceDegrees":0.00015,"simplificationPreservesTopology":true,"invalidSourceRepair":"make_valid; retain polygonal components; discard zero-area collapsed lines","legalBoundaryIndependentlyVerified":false,"areaId":"091c3292-680f-4f7d-b67d-6de5163c8195"},"geometry":{"type":"Polygon","coordinates":[[[98.410317,7.878808],[98.398103,7.872336],[98.398384,7.871353],[98.397506,7.871953],[98.397104,7.871187],[98.397959,7.870805],[98.398258,7.870288],[98.398057,7.869781],[98.398774,7.869328],[98.396106,7.867914],[98.395368,7.868729],[98.393353,7.868276],[98.392372,7.870106],[98.387464,7.869003],[98.386612,7.865327],[98.373852,7.867571],[98.372391,7.869122],[98.372112,7.886033],[98.373562,7.895429],[98.376237,7.895303],[98.379535,7.891301],[98.382653,7.891181],[98.383163,7.891889],[98.382718,7.894414],[98.381975,7.895353],[98.381995,7.898513],[98.380178,7.896377],[98.378512,7.900705],[98.373443,7.900177],[98.372548,7.906723],[98.37685,7.908823],[98.390683,7.899914],[98.392329,7.893403],[98.396055,7.893823],[98.398093,7.896717],[98.406977,7.895473],[98.406953,7.888867],[98.410317,7.878808]]]},"bbox":[98.372112,7.865327,98.410317,7.908823]},{"type":"Feature","id":"b64ceeb9-affc-477f-96f2-d3fb6eb40e02","properties":{"id":"b64ceeb9-affc-477f-96f2-d3fb6eb40e02","code":"04830201","provinceCode":"83","nameTh":"เทศบาลเมือง ป่าตอง","nameEn":null,"geometryType":"MUNICIPALITY","sourceUrl":"https://landometer.com/api/v2/citymeter-v3/grocery/info/geom/b64ceeb9-affc-477f-96f2-d3fb6eb40e02/MUNICIPALITY","sourceSha256":"1e86941d878860a30da105ca1bd827b0e9218d519ed3cc6b795c79ec2d132d18","retrievedAt":"2026-10-04T05:44:30.375020+00:00","boundaryVintage":null,"geometryStatus":"native_source_polygon_display_simplified","simplificationToleranceDegrees":0.00015,"simplificationPreservesTopology":true,"invalidSourceRepair":"make_valid; retain polygonal components; discard zero-area collapsed lines","legalBoundaryIndependentlyVerified":false,"areaId":"b64ceeb9-affc-477f-96f2-d3fb6eb40e02"},"geometry":{"type":"Polygon","coordinates":[[[98.323837,7.876887],[98.323277,7.875879],[98.305788,7.874422],[98.301696,7.873201],[98.30031,7.873345],[98.297579,7.874345],[98.296326,7.874532],[98.29531,7.87405],[98.291587,7.871031],[98.290695,7.871353],[98.289141,7.873413],[98.28658,7.87492],[98.285884,7.876021],[98.28519,7.87633],[98.282488,7.87605],[98.280889,7.876649],[98.280016,7.876693],[98.278336,7.87557],[98.277067,7.874326],[98.275139,7.87433],[98.275557,7.875339],[98.275604,7.87621],[98.275037,7.876621],[98.27389,7.876784],[98.273519,7.877001],[98.273374,7.877432],[98.272721,7.877679],[98.272575,7.878665],[98.272152,7.879038],[98.271805,7.880224],[98.272224,7.882044],[98.271128,7.882693],[98.269738,7.881829],[98.265814,7.880041],[98.264479,7.880393],[98.264504,7.882404],[98.263994,7.883523],[98.262696,7.8842],[98.2616,7.885557],[98.260918,7.885719],[98.261789,7.887166],[98.261816,7.887999],[98.262286,7.88821],[98.262532,7.890326],[98.264154,7.890635],[98.263431,7.892242],[98.263565,7.89274],[98.264159,7.893277],[98.264995,7.892915],[98.264689,7.89189],[98.265372,7.891174],[98.265977,7.891165],[98.266274,7.891529],[98.266687,7.891578],[98.266937,7.890975],[98.26737,7.890679],[98.268705,7.89049],[98.270385,7.890675],[98.271153,7.890246],[98.271789,7.889079],[98.271668,7.886839],[98.272648,7.886381],[98.275682,7.886271],[98.278053,7.886716],[98.27904,7.887684],[98.28092,7.88853],[98.282977,7.886868],[98.286375,7.887323],[98.286702,7.887113],[98.287232,7.885994],[98.288087,7.885938],[98.289391,7.886371],[98.290676,7.887417],[98.293185,7.89148],[98.294113,7.893444],[98.295603,7.897945],[98.296155,7.900483],[98.296923,7.906362],[98.296866,7.907093],[98.296239,7.907385],[98.295998,7.908007],[98.296074,7.908476],[98.296381,7.908735],[98.295882,7.908811],[98.296333,7.909099],[98.295544,7.909557],[98.295533,7.910399],[98.294783,7.911279],[98.293088,7.914272],[98.291655,7.915887],[98.290396,7.91667],[98.289906,7.916813],[98.288917,7.916534],[98.287621,7.916531],[98.28695,7.91632],[98.286537,7.915869],[98.285453,7.915618],[98.281148,7.91786],[98.280867,7.919363],[98.280223,7.919576],[98.278998,7.921872],[98.279352,7.921647],[98.282831,7.927462],[98.283619,7.927844],[98.289604,7.929237],[98.297276,7.929996],[98.300348,7.93071],[98.299782,7.931011],[98.30819,7.92655],[98.315802,7.915325],[98.315861,7.910787],[98.320359,7.90689],[98.318377,7.895395],[98.320119,7.888621],[98.317397,7.882676],[98.323837,7.876887]]]},"bbox":[98.260918,7.871031,98.323837,7.931011]},{"type":"Feature","id":"76f58bc6-c8f7-4c91-9851-10ac41bc9375","properties":{"id":"76f58bc6-c8f7-4c91-9851-10ac41bc9375","code":"04830202","provinceCode":"83","nameTh":"เทศบาลเมือง กะทู้","nameEn":null,"geometryType":"MUNICIPALITY","sourceUrl":"https://landometer.com/api/v2/citymeter-v3/grocery/info/geom/76f58bc6-c8f7-4c91-9851-10ac41bc9375/MUNICIPALITY","sourceSha256":"e125c480dd2cb27b950958624fd187d9fbf16e58fa947a6cc7f9a0b17543f33d","retrievedAt":"2026-10-04T05:44:30.375329+00:00","boundaryVintage":null,"geometryStatus":"native_source_polygon_display_simplified","simplificationToleranceDegrees":0.00015,"simplificationPreservesTopology":true,"invalidSourceRepair":"make_valid; retain polygonal components; discard zero-area collapsed lines","legalBoundaryIndependentlyVerified":false,"areaId":"76f58bc6-c8f7-4c91-9851-10ac41bc9375"},"geometry":{"type":"Polygon","coordinates":[[[98.355137,7.934692],[98.358466,7.931388],[98.35933,7.931136],[98.359756,7.931304],[98.361229,7.933514],[98.362369,7.934336],[98.364566,7.935409],[98.365485,7.935651],[98.366332,7.935404],[98.364624,7.927457],[98.364417,7.923396],[98.363103,7.921483],[98.3601,7.918557],[98.359163,7.916799],[98.358927,7.915066],[98.359778,7.906149],[98.363849,7.906589],[98.365435,7.907233],[98.36624,7.907858],[98.367951,7.908034],[98.367873,7.904193],[98.368239,7.901138],[98.367804,7.900511],[98.366853,7.90007],[98.365698,7.900501],[98.365198,7.899013],[98.363856,7.899139],[98.363702,7.898048],[98.362968,7.897147],[98.360792,7.896902],[98.359347,7.896072],[98.358767,7.895112],[98.357366,7.893882],[98.356998,7.892169],[98.353873,7.891876],[98.352877,7.891218],[98.349286,7.8866],[98.348366,7.884908],[98.347104,7.883675],[98.343408,7.877357],[98.341558,7.876208],[98.340053,7.875661],[98.338993,7.87557],[98.335801,7.876766],[98.334586,7.876634],[98.332015,7.875072],[98.331571,7.874289],[98.331686,7.87315],[98.330354,7.871592],[98.328675,7.87108],[98.322497,7.872534],[98.320516,7.872503],[98.319256,7.872183],[98.31699,7.873399],[98.315193,7.872522],[98.312334,7.873531],[98.306282,7.874338],[98.323277,7.875879],[98.323837,7.876887],[98.317397,7.882676],[98.320119,7.888621],[98.318377,7.895395],[98.320359,7.90689],[98.315861,7.910787],[98.315802,7.915325],[98.30819,7.92655],[98.299782,7.931011],[98.300348,7.93071],[98.29907,7.930413],[98.298834,7.930692],[98.298872,7.931394],[98.306909,7.933264],[98.317227,7.942041],[98.318765,7.942698],[98.319908,7.944884],[98.325047,7.949158],[98.325912,7.949311],[98.328899,7.948459],[98.331354,7.949741],[98.332531,7.949463],[98.334915,7.947811],[98.34053,7.947141],[98.341269,7.946634],[98.344804,7.942828],[98.345275,7.942594],[98.347948,7.942453],[98.349038,7.943585],[98.350334,7.944068],[98.352786,7.943247],[98.353551,7.942444],[98.35385,7.941733],[98.355137,7.934692]]]},"bbox":[98.298834,7.871079,98.368239,7.949741]},{"type":"Feature","id":"a4576b1c-db1a-45f6-a9ad-c5f9864ff4f1","properties":{"id":"a4576b1c-db1a-45f6-a9ad-c5f9864ff4f1","code":"05830103","provinceCode":"83","nameTh":"เทศบาลตำบล ฉลอง","nameEn":null,"geometryType":"MUNICIPALITY","sourceUrl":"https://landometer.com/api/v2/citymeter-v3/grocery/info/geom/a4576b1c-db1a-45f6-a9ad-c5f9864ff4f1/MUNICIPALITY","sourceSha256":"69e9c7600a402e5e64db9629d6e0c37f3b2070fbfbdd4b9e2ee848f95ca39282","retrievedAt":"2026-10-04T05:44:30.385101+00:00","boundaryVintage":null,"geometryStatus":"native_source_polygon_display_simplified","simplificationToleranceDegrees":0.00015,"simplificationPreservesTopology":true,"invalidSourceRepair":"make_valid; retain polygonal components; discard zero-area collapsed lines","legalBoundaryIndependentlyVerified":false,"areaId":"a4576b1c-db1a-45f6-a9ad-c5f9864ff4f1"},"geometry":{"type":"MultiPolygon","coordinates":[[[[98.344627,7.820219],[98.344445,7.819367],[98.344509,7.819667],[98.344627,7.820219]]],[[[98.3757908954744,7.840462168849069],[98.375832,7.840461],[98.375791,7.840462],[98.3757908954744,7.840462168849069]]],[[[98.305753,7.860587],[98.304342,7.864843],[98.305138,7.873513],[98.306035,7.87372],[98.305884,7.874179],[98.30545694900222,7.87437656097561],[98.312334,7.873531],[98.315193,7.872522],[98.31699,7.873399],[98.319256,7.872183],[98.320516,7.872503],[98.322497,7.872534],[98.328431,7.871079],[98.330147,7.871483],[98.331059,7.872064],[98.338885,7.861421],[98.344612,7.862272],[98.348194,7.861077],[98.353719,7.853547],[98.355977,7.852598],[98.359277,7.853914],[98.361391,7.85101],[98.365437,7.849825],[98.365689,7.851516],[98.366824,7.849919],[98.365937,7.847484],[98.370838,7.847932],[98.371554,7.844729],[98.37537,7.843068],[98.375453,7.841008],[98.3757908954744,7.840462168849069],[98.375621,7.840467],[98.375157,7.839139],[98.371512,7.839493],[98.368373,7.839478],[98.366041,7.839025],[98.365216,7.838612],[98.364554,7.838142],[98.363837,7.836236],[98.363357,7.836092],[98.361921,7.833945],[98.360779,7.833099],[98.360576,7.832536],[98.36033,7.832719],[98.358714,7.83201],[98.357437,7.83219],[98.357101,7.83263],[98.356631,7.832534],[98.353907,7.830998],[98.352886,7.830063],[98.351744,7.829592],[98.350795,7.828806],[98.350115,7.827809],[98.349539,7.82799],[98.348743,7.827558],[98.347478,7.826206],[98.34607,7.824184],[98.345218,7.822422],[98.344904,7.821081],[98.344627,7.820219],[98.340775,7.822202],[98.327512,7.825294],[98.324915,7.821754],[98.322965,7.822089],[98.314713,7.829105],[98.312699,7.8379],[98.314923,7.843151],[98.315075,7.8499],[98.305753,7.860587]]],[[[98.30545694900222,7.87437656097561],[98.305011,7.874316],[98.305456,7.874377],[98.30545694900222,7.87437656097561]]]]},"bbox":[98.304342,7.819367,98.375832,7.874422]},{"type":"Feature","id":"ba83d227-0e6e-4503-a581-417754a02b82","properties":{"id":"ba83d227-0e6e-4503-a581-417754a02b82","code":"05830104","provinceCode":"83","nameTh":"เทศบาลตำบล กะรน","nameEn":null,"geometryType":"MUNICIPALITY","sourceUrl":"https://landometer.com/api/v2/citymeter-v3/grocery/info/geom/ba83d227-0e6e-4503-a581-417754a02b82/MUNICIPALITY","sourceSha256":"7d0eeba3148b23550e1a2897fe4096c26f6dbeb154949004369bcbf8da2757d9","retrievedAt":"2026-10-04T05:44:30.382564+00:00","boundaryVintage":null,"geometryStatus":"native_source_polygon_display_simplified","simplificationToleranceDegrees":0.00015,"simplificationPreservesTopology":true,"invalidSourceRepair":"make_valid; retain polygonal components; discard zero-area collapsed lines","legalBoundaryIndependentlyVerified":false,"areaId":"ba83d227-0e6e-4503-a581-417754a02b82"},"geometry":{"type":"Polygon","coordinates":[[[98.291456,7.871061],[98.291958,7.871164],[98.29531,7.87405],[98.296326,7.874532],[98.297579,7.874345],[98.301171,7.873179],[98.305011,7.874316],[98.305884,7.874179],[98.306035,7.87372],[98.305138,7.873513],[98.304342,7.864843],[98.305753,7.860587],[98.315075,7.8499],[98.314923,7.843151],[98.312699,7.8379],[98.314713,7.829105],[98.322965,7.822089],[98.315404,7.809387],[98.301637,7.794518],[98.297733,7.783708],[98.291877,7.780739],[98.288277,7.775686],[98.288194,7.776217],[98.288452,7.777031],[98.288248,7.778294],[98.28754,7.779129],[98.286836,7.779441],[98.286806,7.780034],[98.287527,7.780792],[98.287987,7.782353],[98.289261,7.783772],[98.290125,7.784089],[98.290604,7.784587],[98.290965,7.786512],[98.290253,7.787526],[98.288061,7.787063],[98.284926,7.787689],[98.284705,7.788043],[98.284655,7.789201],[98.285095,7.789996],[98.285304,7.791174],[98.284698,7.791862],[98.286377,7.792487],[98.289161,7.792272],[98.290797,7.792447],[98.292356,7.792861],[98.293842,7.794156],[98.294366,7.796177],[98.295497,7.797011],[98.295161,7.797365],[98.295869,7.798295],[98.29559,7.798782],[98.295705,7.799347],[98.296979,7.800651],[98.297304,7.801389],[98.297196,7.802806],[98.297637,7.80316],[98.298549,7.8032],[98.298798,7.803497],[98.298891,7.80502],[98.298414,7.809087],[98.298236,7.809376],[98.296359,7.809802],[98.29584,7.810394],[98.295704,7.810921],[98.296039,7.811764],[98.295548,7.812663],[98.295892,7.813295],[98.297024,7.814034],[98.298301,7.81395],[98.298569,7.814161],[98.298885,7.814879],[98.298902,7.816144],[98.298158,7.818966],[98.297435,7.820467],[98.295098,7.823182],[98.292811,7.824672],[98.291518,7.823205],[98.290971,7.822946],[98.290299,7.822973],[98.289548,7.82435],[98.289517,7.825461],[98.290589,7.82732],[98.29245,7.828309],[98.293456,7.829315],[98.294243,7.829575],[98.294512,7.833572],[98.29391,7.83961],[98.292219,7.849282],[98.291504,7.852316],[98.289603,7.857855],[98.288853,7.858485],[98.286108,7.858337],[98.285944,7.858643],[98.285176,7.85868],[98.284455,7.859416],[98.282718,7.859279],[98.282448,7.859585],[98.282667,7.860858],[98.282559,7.862093],[98.283306,7.863492],[98.282113,7.865022],[98.281382,7.865595],[98.281008,7.865613],[98.279032,7.864729],[98.276517,7.864227],[98.275669,7.866332],[98.274842,7.867287],[98.273535,7.867601],[98.272917,7.868594],[98.273166,7.87007],[98.272072,7.869724],[98.271707,7.869905],[98.272129,7.870461],[98.273232,7.870712],[98.273394,7.87188],[98.273807,7.871737],[98.273998,7.871996],[98.27394,7.872388],[98.273354,7.872578],[98.273956,7.873862],[98.274859,7.873988],[98.275139,7.87433],[98.2769,7.874249],[98.278656,7.87582],[98.280349,7.876732],[98.282488,7.87605],[98.28476,7.876374],[98.285646,7.876171],[98.28658,7.87492],[98.289112,7.873438],[98.290695,7.871353],[98.291456,7.871061]]]},"bbox":[98.271707,7.775686,98.322965,7.876732]},{"type":"Feature","id":"e4495d16-48eb-48da-9837-f93bd14ca48b","properties":{"id":"e4495d16-48eb-48da-9837-f93bd14ca48b","code":"05830105","provinceCode":"83","nameTh":"เทศบาลตำบล รัษฎา","nameEn":null,"geometryType":"MUNICIPALITY","sourceUrl":"https://landometer.com/api/v2/citymeter-v3/grocery/info/geom/e4495d16-48eb-48da-9837-f93bd14ca48b/MUNICIPALITY","sourceSha256":"95766b7af31dd213c7d4c687213ebb29a13dca0ce099d46551e13b605bdf30e4","retrievedAt":"2026-10-04T05:44:30.367813+00:00","boundaryVintage":null,"geometryStatus":"native_source_polygon_display_simplified","simplificationToleranceDegrees":0.00015,"simplificationPreservesTopology":true,"invalidSourceRepair":"make_valid; retain polygonal components; discard zero-area collapsed lines","legalBoundaryIndependentlyVerified":false,"areaId":"e4495d16-48eb-48da-9837-f93bd14ca48b"},"geometry":{"type":"MultiPolygon","coordinates":[[[[98.409548,7.931879],[98.412201,7.928563],[98.413026,7.926668],[98.413095,7.924965],[98.41397,7.924142],[98.414259,7.923454],[98.414358,7.921683],[98.413899,7.919978],[98.413315,7.918963],[98.412706,7.918532],[98.410612,7.917843],[98.410765,7.917579],[98.412866,7.916998],[98.413857,7.915747],[98.413725,7.914225],[98.411668,7.913355],[98.411465,7.913064],[98.412097,7.913202],[98.412888,7.912897],[98.41501,7.912814],[98.416038,7.911511],[98.416391,7.910665],[98.416313,7.908784],[98.418708,7.90785],[98.42104,7.906139],[98.42144,7.905001],[98.421336,7.904543],[98.422484,7.903879],[98.422563,7.90275],[98.421402,7.902279],[98.421287,7.901752],[98.42176,7.899781],[98.42239,7.899112],[98.422354,7.897858],[98.422803,7.897209],[98.425312,7.897058],[98.426096,7.897622],[98.426151,7.896286],[98.426548,7.896677],[98.42765,7.896441],[98.428616,7.896621],[98.428469,7.900105],[98.428663,7.902204],[98.429021,7.902697],[98.429134,7.901891],[98.429538,7.901888],[98.430528,7.903928],[98.431219,7.904427],[98.431035,7.905197],[98.431437,7.906088],[98.430928,7.90646],[98.431896,7.907888],[98.431874,7.909314],[98.431615,7.909732],[98.432131,7.911277],[98.433081,7.91169],[98.435097,7.911674],[98.436641,7.913131],[98.438886,7.914369],[98.441132,7.915214],[98.441458,7.915148],[98.442045,7.914459],[98.441367,7.911299],[98.441494,7.910294],[98.442031,7.910228],[98.441715,7.909768],[98.442157,7.909548],[98.441119,7.907918],[98.441115,7.907353],[98.441432,7.906751],[98.441107,7.905678],[98.439729,7.90257],[98.439088,7.900463],[98.438495,7.899495],[98.438166,7.894803],[98.438402,7.89367],[98.439017,7.892771],[98.439241,7.890756],[98.440586,7.887796],[98.442049,7.886986],[98.442634,7.887131],[98.443219,7.887811],[98.444016,7.887659],[98.444266,7.887372],[98.444191,7.886137],[98.445376,7.883286],[98.444369,7.882538],[98.444024,7.881753],[98.444102,7.880805],[98.443384,7.879789],[98.442722,7.879396],[98.442174,7.87951],[98.441059,7.88082],[98.440702,7.882313],[98.439828,7.88258],[98.438091,7.881907],[98.436806,7.880987],[98.434717,7.878074],[98.43368,7.877795],[98.433411,7.878244],[98.432748,7.87833],[98.431892,7.879295],[98.431384,7.879132],[98.430483,7.878087],[98.429768,7.874353],[98.430114,7.873731],[98.43117,7.87378],[98.431488,7.872929],[98.432074,7.872738],[98.432507,7.87226],[98.433277,7.87026],[98.434651,7.869515],[98.435631,7.869459],[98.436465,7.869987],[98.437081,7.869787],[98.438471,7.870181],[98.438731,7.870057],[98.438731,7.869837],[98.438194,7.869683],[98.437907,7.868352],[98.43886,7.866812],[98.43887,7.866458],[98.438477,7.865682],[98.437614,7.865126],[98.437317,7.865135],[98.43576,7.866329],[98.433782,7.86602],[98.433465,7.866393],[98.43328,7.868595],[98.433049,7.869006],[98.432635,7.869436],[98.431531,7.869904],[98.429216,7.870312],[98.428947,7.870944],[98.428897,7.872418],[98.427331,7.872904],[98.426917,7.873918],[98.426263,7.874712],[98.425543,7.875027],[98.424448,7.875073],[98.419439,7.873314],[98.419143,7.872491],[98.418634,7.872069],[98.416776,7.869338],[98.416564,7.869376],[98.416514,7.87129],[98.413653,7.871468],[98.413977,7.872962],[98.413755,7.87345],[98.414091,7.874063],[98.413953,7.876619],[98.413453,7.876838],[98.413156,7.876321],[98.412916,7.876321],[98.412829,7.877125],[98.411292,7.877314],[98.411138,7.877706],[98.410447,7.877868],[98.409143,7.877696],[98.405418,7.87552],[98.405325,7.875143],[98.404678,7.874891],[98.404435,7.875016],[98.402965,7.873397],[98.401578,7.872494],[98.400879,7.872307],[98.400805,7.871935],[98.400079,7.871297],[98.399024,7.871055],[98.398544,7.871189],[98.39831,7.871314],[98.398103,7.872336],[98.410317,7.878808],[98.406953,7.888867],[98.406977,7.895473],[98.398093,7.896717],[98.396055,7.893823],[98.392329,7.893403],[98.390682,7.899915],[98.37685,7.908823],[98.372548,7.906723],[98.373443,7.900177],[98.378512,7.900705],[98.380178,7.896377],[98.381995,7.898513],[98.381975,7.895353],[98.382718,7.894414],[98.383163,7.891889],[98.382653,7.891181],[98.379535,7.891301],[98.376237,7.895303],[98.374275,7.895395],[98.374335,7.895657],[98.3714,7.90254],[98.369149,7.90257],[98.368177,7.901585],[98.368239,7.901138],[98.367939,7.903296],[98.367873,7.904193],[98.367951,7.908034],[98.36624,7.907858],[98.365435,7.907233],[98.363849,7.906589],[98.359778,7.906149],[98.358941,7.915906],[98.359397,7.917463],[98.3601,7.918557],[98.363103,7.921483],[98.364417,7.923396],[98.364624,7.927457],[98.36617524240799,7.934661048051288],[98.366851,7.934795],[98.375092,7.941859],[98.384488,7.939887],[98.387202,7.934825],[98.395084,7.935432],[98.395744,7.931566],[98.409548,7.931879]]],[[[98.366332,7.935404],[98.36617524240799,7.934661048051288],[98.366175,7.934661],[98.366332,7.935404]]]]},"bbox":[98.358927,7.865106,98.445376,7.941859]},{"type":"Feature","id":"d090eaec-7f6e-456e-95df-b67da7df68ed","properties":{"id":"d090eaec-7f6e-456e-95df-b67da7df68ed","code":"05830106","provinceCode":"83","nameTh":"เทศบาลตำบล วิชิต","nameEn":null,"geometryType":"MUNICIPALITY","sourceUrl":"https://landometer.com/api/v2/citymeter-v3/grocery/info/geom/d090eaec-7f6e-456e-95df-b67da7df68ed/MUNICIPALITY","sourceSha256":"a9157a2c6292c2fea34ac2b1dd8805c7046a6422b0abd9e627cda507ae5b431e","retrievedAt":"2026-10-04T05:44:30.395032+00:00","boundaryVintage":null,"geometryStatus":"native_source_polygon_display_simplified","simplificationToleranceDegrees":0.00015,"simplificationPreservesTopology":true,"invalidSourceRepair":"make_valid; retain polygonal components; discard zero-area collapsed lines","legalBoundaryIndependentlyVerified":false,"areaId":"d090eaec-7f6e-456e-95df-b67da7df68ed"},"geometry":{"type":"Polygon","coordinates":[[[98.395368,7.868729],[98.396106,7.867914],[98.398774,7.869328],[98.399219,7.869026],[98.399566,7.868634],[98.399739,7.867897],[98.399262,7.866164],[98.401386,7.86453],[98.402233,7.863038],[98.402003,7.862482],[98.401265,7.862156],[98.400584,7.86114],[98.399277,7.862096],[98.399028,7.861846],[98.398924,7.861061],[98.398531,7.860745],[98.395795,7.860176],[98.394896,7.857896],[98.393984,7.85652],[98.394342,7.855933],[98.394326,7.854162],[98.394076,7.853855],[98.392292,7.853326],[98.391473,7.851776],[98.392002,7.850542],[98.393308,7.850754],[98.39469,7.849581],[98.394472,7.848966],[98.394952,7.84867],[98.395292,7.846325],[98.395647,7.845818],[98.395573,7.843999],[98.395796,7.842525],[98.396161,7.84221],[98.39621,7.841597],[98.396932,7.840717],[98.397288,7.83977],[98.396963,7.838659],[98.397329,7.838631],[98.397578,7.838182],[98.398393,7.839207],[98.40135,7.839058],[98.402051,7.83859],[98.402167,7.837891],[98.403032,7.837548],[98.404594,7.839024],[98.406035,7.838328],[98.407004,7.839018],[98.407628,7.839086],[98.408781,7.838293],[98.409731,7.838314],[98.41001,7.837768],[98.410568,7.837396],[98.410118,7.836304],[98.408928,7.836216],[98.407835,7.835027],[98.407087,7.834902],[98.40602,7.835599],[98.404533,7.835109],[98.402853,7.835212],[98.402096,7.833784],[98.401887,7.832588],[98.40251,7.830047],[98.402933,7.82976],[98.404276,7.830212],[98.404813,7.830175],[98.405591,7.830032],[98.405918,7.829535],[98.405084,7.82917],[98.404873,7.8287],[98.405152,7.828423],[98.40429,7.827168],[98.403483,7.827138],[98.402859,7.827482],[98.401393,7.825355],[98.400862,7.824078],[98.401017,7.823385],[98.401751,7.823208],[98.403737,7.823785],[98.404488,7.821881],[98.405276,7.821662],[98.406326,7.818916],[98.406067,7.818485],[98.40653,7.817212],[98.406377,7.816992],[98.405474,7.817],[98.405389,7.81656],[98.404649,7.816588],[98.404583,7.815774],[98.404327,7.815505],[98.40384,7.815603],[98.403172,7.816279],[98.402673,7.815905],[98.402328,7.815407],[98.40208,7.814296],[98.402295,7.812037],[98.403054,7.811531],[98.404229,7.80934],[98.405491,7.808482],[98.406435,7.808505],[98.406714,7.80891],[98.40672,7.80991],[98.408224,7.810383],[98.408622,7.810097],[98.409067,7.808619],[98.41063,7.808394],[98.410845,7.808083],[98.410551,7.807165],[98.41053,7.805982],[98.411065,7.803196],[98.41156,7.802682],[98.412548,7.802514],[98.412608,7.801514],[98.412447,7.800984],[98.411688,7.800851],[98.41012,7.799165],[98.409699,7.799208],[98.409286,7.799678],[98.408394,7.799626],[98.408443,7.801192],[98.407822,7.802735],[98.406748,7.804469],[98.404167,7.806201],[98.402972,7.806486],[98.402287,7.806286],[98.401637,7.807021],[98.400043,7.80807],[98.400499,7.808879],[98.400432,7.809284],[98.399258,7.810017],[98.397906,7.811656],[98.397189,7.813831],[98.394408,7.814327],[98.394115,7.8134],[98.392541,7.813129],[98.390488,7.811944],[98.389082,7.809624],[98.389938,7.808279],[98.389851,7.80614],[98.389568,7.805421],[98.388968,7.80545],[98.388096,7.80693],[98.385843,7.808602],[98.38585,7.809832],[98.386245,7.810637],[98.386304,7.811385],[98.385533,7.815482],[98.382269,7.822632],[98.38073,7.824984],[98.380013,7.829004],[98.380108,7.830296],[98.379415,7.831415],[98.379221,7.832736],[98.37798,7.834343],[98.378967,7.836122],[98.379157,7.83712],[98.378485,7.83711],[98.377187,7.837969],[98.376599,7.840228],[98.375791,7.840462],[98.375453,7.841008],[98.37537,7.843068],[98.371554,7.844729],[98.370838,7.847932],[98.365937,7.847484],[98.366824,7.849919],[98.365689,7.851516],[98.365437,7.849825],[98.361391,7.85101],[98.359277,7.853914],[98.355977,7.852598],[98.353719,7.853547],[98.348194,7.861077],[98.344612,7.862272],[98.338885,7.861421],[98.331059,7.872064],[98.330471,7.871703],[98.331686,7.87315],[98.331571,7.874289],[98.332015,7.875072],[98.334586,7.876634],[98.335801,7.876766],[98.337576,7.875957],[98.339484,7.875571],[98.341558,7.876208],[98.343096,7.877022],[98.343764,7.877835],[98.347104,7.883675],[98.348366,7.884908],[98.349286,7.8866],[98.352877,7.891218],[98.353873,7.891876],[98.356998,7.892169],[98.357366,7.893882],[98.358767,7.895112],[98.359588,7.896253],[98.361448,7.897091],[98.362968,7.897147],[98.363702,7.898048],[98.363872,7.899157],[98.365198,7.899013],[98.365698,7.900501],[98.366853,7.90007],[98.3677,7.900409],[98.368239,7.901138],[98.368177,7.901585],[98.369099,7.902544],[98.3714,7.90254],[98.374335,7.895657],[98.374275,7.895395],[98.373562,7.895429],[98.372112,7.886033],[98.372391,7.869122],[98.373852,7.867571],[98.386612,7.865327],[98.387464,7.869003],[98.392372,7.870106],[98.39288111468434,7.869195025712957],[98.393889,7.869421],[98.394361,7.868503],[98.395368,7.868729]],[[98.394036,7.866946],[98.39335303471044,7.8682760078167355],[98.393353,7.868276],[98.394036,7.866946]]]},"bbox":[98.330471,7.799157,98.412608,7.90257]},{"type":"Feature","id":"85a4b61b-da05-4bb3-8e28-2b6cc068c654","properties":{"id":"85a4b61b-da05-4bb3-8e28-2b6cc068c654","code":"05830107","provinceCode":"83","nameTh":"เทศบาลตำบล ราไวย์","nameEn":null,"geometryType":"MUNICIPALITY","sourceUrl":"https://landometer.com/api/v2/citymeter-v3/grocery/info/geom/85a4b61b-da05-4bb3-8e28-2b6cc068c654/MUNICIPALITY","sourceSha256":"adcac446becaa14f89e8db117e876b885842da6fdf962fa51be6afdb345923ec","retrievedAt":"2026-10-04T05:44:30.378555+00:00","boundaryVintage":null,"geometryStatus":"native_source_polygon_display_simplified","simplificationToleranceDegrees":0.00015,"simplificationPreservesTopology":true,"invalidSourceRepair":"make_valid; retain polygonal components; discard zero-area collapsed lines","legalBoundaryIndependentlyVerified":false,"areaId":"85a4b61b-da05-4bb3-8e28-2b6cc068c654"},"geometry":{"type":"MultiPolygon","coordinates":[[[[98.38161,7.793812],[98.383045,7.793901],[98.383256,7.793705],[98.382922,7.79256],[98.382418,7.792468],[98.382572,7.791985],[98.383111,7.791551],[98.384113,7.788623],[98.38491,7.788375],[98.385658,7.789042],[98.386186,7.788989],[98.387382,7.785038],[98.387948,7.784837],[98.38908,7.785265],[98.389508,7.785136],[98.388836,7.781828],[98.389192,7.780852],[98.389678,7.780298],[98.389481,7.78002],[98.388336,7.780657],[98.388267,7.781538],[98.387979,7.781786],[98.385944,7.782338],[98.384926,7.782299],[98.384322,7.78203],[98.384371,7.781254],[98.38395,7.780392],[98.382252,7.779691],[98.380765,7.779555],[98.377992,7.778794],[98.375265,7.779126],[98.37295,7.780481],[98.372413,7.780213],[98.371779,7.780374],[98.370954,7.780201],[98.369245,7.780687],[98.362287,7.780504],[98.361489,7.780876],[98.359759,7.782596],[98.359507,7.784281],[98.359103,7.784807],[98.35747,7.785781],[98.356627,7.785728],[98.355181,7.786684],[98.355041,7.787773],[98.355986,7.788919],[98.35765,7.790017],[98.358859,7.790502],[98.36243,7.791396],[98.364489,7.79485],[98.364849,7.795065],[98.365349,7.794683],[98.365781,7.794679],[98.366528,7.79546],[98.367511,7.795874],[98.371697,7.795497],[98.377234,7.793332],[98.379593,7.794618],[98.380303,7.794571],[98.38161,7.793812]]],[[[98.333502,7.786128],[98.335102,7.785005],[98.336101,7.784614],[98.336774,7.783955],[98.336871,7.783247],[98.337919,7.782482],[98.338471,7.781441],[98.338586,7.779458],[98.337934,7.779008],[98.337446,7.777533],[98.3362,7.776861],[98.33598,7.776133],[98.335079,7.775231],[98.333314,7.774463],[98.332652,7.774529],[98.331844,7.775791],[98.329617,7.775634],[98.327785,7.775057],[98.324563,7.773492],[98.319423,7.770468],[98.317699,7.768331],[98.317376,7.767219],[98.317505,7.76678],[98.317937,7.766563],[98.318457,7.765807],[98.319167,7.765626],[98.319562,7.765196],[98.319352,7.764449],[98.319477,7.76377],[98.318789,7.762074],[98.317763,7.761805],[98.316562,7.762128],[98.315355,7.760719],[98.315165,7.759896],[98.312689,7.759748],[98.311174,7.758626],[98.310339,7.758701],[98.309042,7.759541],[98.307957,7.759683],[98.307775,7.759874],[98.307879,7.760755],[98.307571,7.760955],[98.305479,7.761086],[98.304042,7.759629],[98.303372,7.759375],[98.302948,7.759435],[98.302774,7.759713],[98.303004,7.760297],[98.303656,7.760604],[98.303962,7.761045],[98.304037,7.7625],[98.303536,7.763696],[98.303929,7.764022],[98.304694,7.765622],[98.306007,7.766764],[98.305708,7.767414],[98.306081,7.768142],[98.305264,7.769414],[98.304953,7.771567],[98.305729,7.772449],[98.306169,7.773407],[98.306254,7.774288],[98.305234,7.776425],[98.304297,7.777543],[98.303567,7.777917],[98.301997,7.777178],[98.300999,7.777442],[98.298184,7.777038],[98.297012,7.777907],[98.296484,7.777944],[98.294728,7.777597],[98.293646,7.776504],[98.293032,7.776206],[98.288277,7.775686],[98.291877,7.780739],[98.297733,7.783708],[98.301637,7.794518],[98.315404,7.809387],[98.322965,7.822089],[98.324915,7.821754],[98.327512,7.825294],[98.340775,7.822202],[98.344634,7.820243],[98.343567,7.81634],[98.339434,7.807431],[98.338605,7.803974],[98.337955,7.802279],[98.33725,7.798765],[98.333376,7.789932],[98.333044,7.787864],[98.333151,7.786677],[98.333502,7.786128]]]]},"bbox":[98.288277,7.758596,98.389678,7.825294]},{"type":"Feature","id":"20dabf76-a210-4df3-8ead-f6761b52f965","properties":{"id":"20dabf76-a210-4df3-8ead-f6761b52f965","code":"05830301","provinceCode":"83","nameTh":"เทศบาลตำบล ศรีสุนทร","nameEn":null,"geometryType":"MUNICIPALITY","sourceUrl":"https://landometer.com/api/v2/citymeter-v3/grocery/info/geom/20dabf76-a210-4df3-8ead-f6761b52f965/MUNICIPALITY","sourceSha256":"742ad09f70b98b49477fc793bf7df599cb7c73cebffe613cef506cbf3006c6d7","retrievedAt":"2026-10-04T05:44:30.457892+00:00","boundaryVintage":null,"geometryStatus":"native_source_polygon_display_simplified","simplificationToleranceDegrees":0.00015,"simplificationPreservesTopology":true,"invalidSourceRepair":"make_valid; retain polygonal components; discard zero-area collapsed lines","legalBoundaryIndependentlyVerified":false,"areaId":"20dabf76-a210-4df3-8ead-f6761b52f965"},"geometry":{"type":"Polygon","coordinates":[[[98.363743,8.002519],[98.360194,7.995585],[98.365762,7.985373],[98.372959,7.978078],[98.37708,7.979506],[98.380425,7.978216],[98.386505,7.98146],[98.391654,7.980005],[98.39511,7.982992],[98.395708,7.980616],[98.392825,7.978463],[98.393901,7.977967],[98.394257,7.977527],[98.394316,7.976512],[98.39573,7.974619],[98.395616,7.973882],[98.394878,7.973028],[98.394565,7.970357],[98.398199,7.967797],[98.397488,7.967633],[98.396692,7.967039],[98.396204,7.966215],[98.39547,7.965591],[98.394488,7.966322],[98.393383,7.967952],[98.391166,7.969116],[98.390555,7.969259],[98.387629,7.969028],[98.387276,7.969299],[98.386504,7.970776],[98.385155,7.970657],[98.384774,7.971612],[98.383512,7.973218],[98.383513,7.973935],[98.383095,7.974286],[98.381814,7.974738],[98.380563,7.974674],[98.379603,7.974911],[98.378627,7.975585],[98.377591,7.974438],[98.376534,7.974512],[98.376012,7.974035],[98.375526,7.973041],[98.375627,7.971708],[98.375333,7.970854],[98.373412,7.969643],[98.372182,7.967231],[98.369009,7.96584],[98.367707,7.965588],[98.36752,7.965341],[98.367494,7.964044],[98.365778,7.96385],[98.364905,7.962352],[98.363627,7.962905],[98.362182,7.962385],[98.360731,7.963017],[98.359206,7.963108],[98.35703,7.961041],[98.355554,7.960175],[98.355575,7.958259],[98.356422,7.955139],[98.356298,7.952893],[98.35597,7.951451],[98.350869,7.946514],[98.350504,7.945857],[98.350334,7.944068],[98.349038,7.943585],[98.347948,7.942453],[98.346231,7.942405],[98.344804,7.942828],[98.341269,7.946634],[98.34053,7.947141],[98.334915,7.947811],[98.332531,7.949463],[98.331354,7.949741],[98.328899,7.948459],[98.325912,7.949311],[98.325047,7.949158],[98.319908,7.944884],[98.318765,7.942698],[98.316972,7.941933],[98.316055,7.944592],[98.314629,7.946731],[98.313857,7.948401],[98.313716,7.949934],[98.314527,7.952957],[98.314524,7.954368],[98.313888,7.955826],[98.312805,7.960152],[98.31688,7.972638],[98.305519,7.981708],[98.307104,7.981364],[98.306074,7.981855],[98.316047,7.97942],[98.323037,7.993012],[98.319459,7.993646],[98.321065,7.995643],[98.31797,7.99794],[98.317686,7.999549],[98.32017,8.003714],[98.320648,8.009239],[98.327471,8.009671],[98.332035,8.016964],[98.337838,8.019732],[98.343033,8.017193],[98.345458,8.017622],[98.347431,8.019727],[98.352448,8.023591],[98.36446,8.023868],[98.370678,8.026546],[98.383117,8.0263],[98.382209,8.023947],[98.380925,8.01793],[98.375923,8.0139],[98.376343,8.007077],[98.37503,8.005517],[98.363743,8.002519]]]},"bbox":[98.305519,7.941933,98.398208,8.026588]},{"type":"Feature","id":"9309d4e3-4b1b-4685-bd66-73f79c8ff9cb","properties":{"id":"9309d4e3-4b1b-4685-bd66-73f79c8ff9cb","code":"05830302","provinceCode":"83","nameTh":"เทศบาลตำบล เชิงทะเล","nameEn":null,"geometryType":"MUNICIPALITY","sourceUrl":"https://landometer.com/api/v2/citymeter-v3/grocery/info/geom/9309d4e3-4b1b-4685-bd66-73f79c8ff9cb/MUNICIPALITY","sourceSha256":"b637a25a536d50d517ead9730e51c80be73ffe8fe35f497b148122bac22cfe03","retrievedAt":"2026-10-04T05:44:30.471318+00:00","boundaryVintage":null,"geometryStatus":"native_source_polygon_display_simplified","simplificationToleranceDegrees":0.00015,"simplificationPreservesTopology":true,"invalidSourceRepair":"make_valid; retain polygonal components; discard zero-area collapsed lines","legalBoundaryIndependentlyVerified":false,"areaId":"9309d4e3-4b1b-4685-bd66-73f79c8ff9cb"},"geometry":{"type":"Polygon","coordinates":[[[98.304222,7.982307],[98.302717,7.98566],[98.296908,7.988025],[98.296359,7.991448],[98.301566,7.996815],[98.323037,7.993012],[98.316047,7.97942],[98.304222,7.982307]]]},"bbox":[98.296359,7.97942,98.323037,7.996815]},{"type":"Feature","id":"7bc70458-8165-493f-8a2d-dfd6f67e96f2","properties":{"id":"7bc70458-8165-493f-8a2d-dfd6f67e96f2","code":"05830303","provinceCode":"83","nameTh":"เทศบาลตำบล เทพกระษัตรี","nameEn":null,"geometryType":"MUNICIPALITY","sourceUrl":"https://landometer.com/api/v2/citymeter-v3/grocery/info/geom/7bc70458-8165-493f-8a2d-dfd6f67e96f2/MUNICIPALITY","sourceSha256":"6f75daedb66efd79b4d82de796dfb52fcfc73f172d5c0d548ce6a7e9523f7f2b","retrievedAt":"2026-10-04T05:44:30.455401+00:00","boundaryVintage":null,"geometryStatus":"native_source_polygon_display_simplified","simplificationToleranceDegrees":0.00015,"simplificationPreservesTopology":true,"invalidSourceRepair":"make_valid; retain polygonal components; discard zero-area collapsed lines","legalBoundaryIndependentlyVerified":false,"areaId":"7bc70458-8165-493f-8a2d-dfd6f67e96f2"},"geometry":{"type":"Polygon","coordinates":[[[98.341546,8.031017],[98.342819,8.025993],[98.347431,8.019727],[98.345458,8.017622],[98.343033,8.017193],[98.337838,8.019732],[98.332196,8.017126],[98.324751,8.024953],[98.316769,8.02555],[98.317605,8.027419],[98.321948,8.029287],[98.321721,8.033612],[98.32447,8.034567],[98.328443,8.040905],[98.343351,8.037634],[98.341546,8.031017]]]},"bbox":[98.316769,8.017126,98.347431,8.040905]},{"type":"Feature","id":"3f357a31-ee81-4ae8-b664-6f319061b8d6","properties":{"id":"3f357a31-ee81-4ae8-b664-6f319061b8d6","code":"05830308","provinceCode":"83","nameTh":"เทศบาลตำบล ป่าคลอก","nameEn":null,"geometryType":"MUNICIPALITY","sourceUrl":"https://landometer.com/api/v2/citymeter-v3/grocery/info/geom/3f357a31-ee81-4ae8-b664-6f319061b8d6/MUNICIPALITY","sourceSha256":"293014d0d8a0afb1213ab9f51f625f59d89120883b2220450aba9758b383327a","retrievedAt":"2026-10-04T05:44:30.466360+00:00","boundaryVintage":null,"geometryStatus":"native_source_polygon_display_simplified","simplificationToleranceDegrees":0.00015,"simplificationPreservesTopology":true,"invalidSourceRepair":"make_valid; retain polygonal components; discard zero-area collapsed lines","legalBoundaryIndependentlyVerified":false,"areaId":"3f357a31-ee81-4ae8-b664-6f319061b8d6"},"geometry":{"type":"MultiPolygon","coordinates":[[[[98.470301,8.053894],[98.470879,8.050845],[98.47167,8.04834],[98.471898,8.046583],[98.4716,8.044863],[98.470776,8.043814],[98.47059,8.042543],[98.470819,8.039776],[98.470557,8.039065],[98.469507,8.038279],[98.468608,8.037941],[98.466451,8.038278],[98.465737,8.038582],[98.465379,8.039039],[98.465323,8.04285],[98.464503,8.046],[98.462206,8.048232],[98.459093,8.049956],[98.457555,8.052716],[98.456866,8.05485],[98.456366,8.059768],[98.456603,8.060986],[98.458457,8.063264],[98.459198,8.063518],[98.461064,8.063426],[98.462753,8.062788],[98.465964,8.063097],[98.467088,8.062744],[98.468106,8.061485],[98.469087,8.058882],[98.46906,8.05818],[98.468531,8.05706],[98.468708,8.056279],[98.470301,8.053894]]],[[[98.443853,8.069527],[98.442951,8.068434],[98.44328,8.066884],[98.443834,8.06638],[98.443754,8.065786],[98.441814,8.065946],[98.439702,8.065015],[98.438981,8.065856],[98.437683,8.066285],[98.437711,8.06684],[98.437183,8.066916],[98.435839,8.066378],[98.434486,8.065275],[98.432405,8.061683],[98.430031,8.05586],[98.429391,8.053418],[98.430132,8.05227],[98.430134,8.051064],[98.430739,8.050567],[98.430865,8.050117],[98.43034,8.047704],[98.431918,8.04605],[98.431506,8.045207],[98.430767,8.044795],[98.430489,8.044239],[98.430688,8.043452],[98.430443,8.042478],[98.430935,8.041033],[98.43277,8.041074],[98.432905,8.040452],[98.43256,8.039867],[98.431159,8.038985],[98.430035,8.039155],[98.428708,8.040676],[98.428341,8.04192],[98.427703,8.042906],[98.424525,8.043924],[98.424006,8.044546],[98.423822,8.045627],[98.423418,8.045847],[98.421948,8.046285],[98.420738,8.046083],[98.41952,8.044712],[98.420974,8.042464],[98.420591,8.041248],[98.421005,8.040598],[98.420669,8.040444],[98.41891,8.041571],[98.418161,8.041551],[98.417892,8.0405],[98.417452,8.039977],[98.417736,8.038022],[98.417316,8.036624],[98.416106,8.036076],[98.415155,8.036467],[98.41433,8.035825],[98.414262,8.034435],[98.413798,8.033209],[98.41178,8.030631],[98.410935,8.030773],[98.410537,8.030428],[98.410789,8.029398],[98.410258,8.028528],[98.410996,8.028138],[98.411401,8.02727],[98.410011,8.019031],[98.410272,8.014279],[98.410129,8.013436],[98.41038,8.012752],[98.409961,8.010138],[98.408747,8.00966],[98.410131,8.0055],[98.410577,8.002327],[98.411059,8.0015],[98.413591,8.000173],[98.415196,7.995676],[98.417456,7.993837],[98.418517,7.993924],[98.418811,7.992699],[98.419996,7.99037],[98.421266,7.988816],[98.422539,7.987933],[98.423608,7.987553],[98.424271,7.987745],[98.425124,7.988733],[98.425614,7.98881],[98.426095,7.988569],[98.426333,7.987555],[98.425101,7.98617],[98.424824,7.985102],[98.424546,7.984992],[98.423938,7.985457],[98.423342,7.985504],[98.421126,7.983874],[98.419922,7.986524],[98.418269,7.989032],[98.413148,7.990968],[98.409947,7.991238],[98.409554,7.990884],[98.407672,7.990594],[98.404899,7.989269],[98.402779,7.987696],[98.39967,7.986054],[98.399691,7.984638],[98.399088,7.983766],[98.398589,7.983411],[98.396276,7.982784],[98.396569,7.982482],[98.397434,7.982987],[98.399118,7.982722],[98.39934,7.98201],[98.39875,7.981323],[98.39756,7.981312],[98.395708,7.980616],[98.39511,7.982992],[98.391654,7.980005],[98.386505,7.98146],[98.380425,7.978216],[98.37708,7.979506],[98.372959,7.978078],[98.365762,7.985373],[98.360194,7.995585],[98.363743,8.002519],[98.37503,8.005517],[98.376343,8.007077],[98.375923,8.0139],[98.380925,8.01793],[98.382209,8.023947],[98.383117,8.0263],[98.38277,8.026309],[98.385043,8.037038],[98.389535,8.044282],[98.388614,8.046998],[98.380555,8.056982],[98.380016,8.060344],[98.371139,8.063497],[98.366559,8.069089],[98.365337,8.074428],[98.368549,8.077423],[98.364466,8.082091],[98.379497,8.094584],[98.382434,8.091972],[98.382903,8.090913],[98.383569,8.090586],[98.383627,8.090008],[98.385121,8.088069],[98.385358,8.087143],[98.385861,8.086702],[98.386028,8.0862],[98.38587,8.085337],[98.386072,8.085146],[98.386563,8.084976],[98.387493,8.085309],[98.388614,8.084978],[98.391639,8.082897],[98.394501,8.081964],[98.395473,8.082007],[98.397969,8.081105],[98.40025,8.082269],[98.402683,8.084618],[98.402829,8.084328],[98.401425,8.082928],[98.401987,8.081621],[98.402997,8.080734],[98.404606,8.079827],[98.405387,8.079621],[98.406426,8.079783],[98.4091,8.081271],[98.409951,8.083295],[98.411978,8.085139],[98.414281,8.085151],[98.416198,8.084868],[98.416775,8.085475],[98.417516,8.085674],[98.418481,8.086865],[98.418876,8.086841],[98.419229,8.087134],[98.419076,8.08803],[98.42031,8.089021],[98.421435,8.090404],[98.421895,8.091661],[98.422374,8.091955],[98.422566,8.0925],[98.423658,8.093205],[98.424841,8.094949],[98.425308,8.097002],[98.424206,8.098131],[98.424087,8.098901],[98.424707,8.100435],[98.425866,8.100847],[98.426245,8.100471],[98.42634,8.098193],[98.427863,8.097081],[98.42978,8.097125],[98.430131,8.098064],[98.431668,8.098719],[98.432349,8.098737],[98.432812,8.098327],[98.433484,8.098554],[98.433543,8.098353],[98.433006,8.098026],[98.432933,8.09599],[98.434524,8.093982],[98.436131,8.093005],[98.436845,8.09314],[98.437584,8.093643],[98.439502,8.092833],[98.440031,8.092876],[98.439872,8.092449],[98.439107,8.092196],[98.438847,8.091802],[98.438975,8.090571],[98.439362,8.090203],[98.439481,8.089634],[98.439323,8.088536],[98.439054,8.088075],[98.437861,8.087326],[98.436603,8.086913],[98.435712,8.085265],[98.435614,8.079435],[98.435838,8.077063],[98.436542,8.075445],[98.44009,8.072616],[98.440945,8.072397],[98.441829,8.072676],[98.442606,8.072383],[98.444116,8.070417],[98.443853,8.069527]]]]},"bbox":[98.360194,7.978078,98.471898,8.10088]},{"type":"Feature","id":"4677ed9f-8d48-487e-be3b-9b73998bbba3","properties":{"id":"4677ed9f-8d48-487e-be3b-9b73998bbba3","code":"06830108","provinceCode":"83","nameTh":"องค์การบริหารส่วนตำบล เกาะแก้ว","nameEn":null,"geometryType":"MUNICIPALITY","sourceUrl":"https://landometer.com/api/v2/citymeter-v3/grocery/info/geom/4677ed9f-8d48-487e-be3b-9b73998bbba3/MUNICIPALITY","sourceSha256":"6e6e5cfd2246754a332b113f7d0a01f03ccf4c87026283f9b4bdf8e68731fd6b","retrievedAt":"2026-10-04T05:44:30.472258+00:00","boundaryVintage":null,"geometryStatus":"native_source_polygon_display_simplified","simplificationToleranceDegrees":0.00015,"simplificationPreservesTopology":true,"invalidSourceRepair":"make_valid; retain polygonal components; discard zero-area collapsed lines","legalBoundaryIndependentlyVerified":false,"areaId":"4677ed9f-8d48-487e-be3b-9b73998bbba3"},"geometry":{"type":"MultiPolygon","coordinates":[[[[98.366175,7.934661],[98.36617504247275,7.9346610084191544],[98.365979,7.933733],[98.366175,7.934661]]],[[[98.438013,7.940702],[98.439375,7.938663],[98.439159,7.93752],[98.439434,7.936585],[98.439351,7.935408],[98.438546,7.934778],[98.438153,7.934102],[98.438205,7.93309],[98.437906,7.931802],[98.435962,7.9295],[98.432098,7.92637],[98.43137,7.926472],[98.430695,7.928191],[98.429932,7.92903],[98.429685,7.928971],[98.429567,7.928599],[98.428792,7.928835],[98.428303,7.928691],[98.426236,7.930201],[98.426449,7.9291],[98.426075,7.928755],[98.42522,7.928926],[98.423945,7.930456],[98.422192,7.930606],[98.421582,7.929953],[98.42072,7.929744],[98.41961,7.928176],[98.418505,7.9283],[98.417404,7.928889],[98.416574,7.929783],[98.416249,7.931155],[98.416698,7.932231],[98.4158,7.933703],[98.41557,7.933663],[98.41542,7.932387],[98.415134,7.932261],[98.41491,7.932486],[98.414837,7.932996],[98.415278,7.934245],[98.415603,7.936587],[98.415563,7.937861],[98.415139,7.938948],[98.416174,7.940247],[98.416674,7.942979],[98.417381,7.943432],[98.418496,7.943422],[98.420342,7.942783],[98.42367,7.941114],[98.425397,7.940896],[98.427698,7.941541],[98.430273,7.943331],[98.431459,7.94338],[98.432748,7.944733],[98.433222,7.944715],[98.435542,7.946182],[98.436447,7.946366],[98.437873,7.94468],[98.437438,7.943909],[98.437394,7.942554],[98.438013,7.940702]]],[[[98.383513,7.973935],[98.383512,7.973218],[98.384774,7.971612],[98.385155,7.970657],[98.386504,7.970776],[98.387276,7.969299],[98.387629,7.969028],[98.390555,7.969259],[98.391166,7.969116],[98.393383,7.967952],[98.394488,7.966322],[98.39547,7.965591],[98.395472,7.964817],[98.395915,7.964299],[98.395649,7.963444],[98.394448,7.96312],[98.393145,7.963488],[98.39349,7.960335],[98.393808,7.959522],[98.394376,7.958891],[98.394271,7.958173],[98.393476,7.957186],[98.393506,7.956219],[98.393132,7.955836],[98.393449,7.95575],[98.394178,7.956421],[98.395003,7.956403],[98.395434,7.957553],[98.396209,7.957599],[98.39649,7.955589],[98.397576,7.95433],[98.397397,7.951824],[98.396992,7.951593],[98.396638,7.95188],[98.396485,7.951411],[98.395467,7.951735],[98.395042,7.951392],[98.396527,7.949453],[98.397157,7.947889],[98.397821,7.947172],[98.398679,7.944761],[98.398626,7.943095],[98.399001,7.942544],[98.399312,7.942596],[98.399797,7.942258],[98.400219,7.941282],[98.400835,7.941438],[98.402607,7.938839],[98.404924,7.93776],[98.405156,7.936659],[98.405444,7.936478],[98.405791,7.935607],[98.406204,7.935512],[98.407279,7.935973],[98.408038,7.935811],[98.408156,7.935493],[98.407937,7.934842],[98.408608,7.933237],[98.410301,7.931114],[98.410771,7.930449],[98.409548,7.931879],[98.395744,7.931566],[98.395084,7.935432],[98.387202,7.934825],[98.384488,7.939887],[98.375092,7.941859],[98.366851,7.934795],[98.36617504247275,7.9346610084191544],[98.366332,7.935404],[98.365485,7.935651],[98.362369,7.934336],[98.361229,7.933514],[98.359627,7.931196],[98.359035,7.931135],[98.358466,7.931388],[98.355137,7.934692],[98.354776,7.937464],[98.353551,7.942444],[98.35224,7.943553],[98.350334,7.944068],[98.350287,7.944597],[98.350504,7.945857],[98.350869,7.946514],[98.35597,7.951451],[98.356298,7.952893],[98.356422,7.955139],[98.355575,7.958259],[98.355554,7.960175],[98.35703,7.961041],[98.359206,7.963108],[98.360731,7.963017],[98.362182,7.962385],[98.363627,7.962905],[98.364905,7.962352],[98.365778,7.96385],[98.367494,7.964044],[98.36752,7.965341],[98.367707,7.965588],[98.369009,7.96584],[98.372182,7.967231],[98.373412,7.969643],[98.375333,7.970854],[98.375627,7.971708],[98.375526,7.973041],[98.376012,7.974035],[98.376534,7.974512],[98.377591,7.974438],[98.378627,7.975585],[98.379603,7.974911],[98.380563,7.974674],[98.381979,7.974702],[98.383513,7.973935]]]]},"bbox":[98.350287,7.926322,98.439455,7.975585]},{"type":"Feature","id":"ec94e8e5-13e2-4b69-a8ea-6a4f065e470c","properties":{"id":"ec94e8e5-13e2-4b69-a8ea-6a4f065e470c","code":"06830203","provinceCode":"83","nameTh":"องค์การบริหารส่วนตำบล กมลา","nameEn":null,"geometryType":"MUNICIPALITY","sourceUrl":"https://landometer.com/api/v2/citymeter-v3/grocery/info/geom/ec94e8e5-13e2-4b69-a8ea-6a4f065e470c/MUNICIPALITY","sourceSha256":"a2958bbc50d50e1c86de3921fed34c6e43f7e2df1c3f40e9f38df75394af9102","retrievedAt":"2026-10-04T05:44:30.472658+00:00","boundaryVintage":null,"geometryStatus":"native_source_polygon_display_simplified","simplificationToleranceDegrees":0.00015,"simplificationPreservesTopology":true,"invalidSourceRepair":"make_valid; retain polygonal components; discard zero-area collapsed lines","legalBoundaryIndependentlyVerified":false,"areaId":"ec94e8e5-13e2-4b69-a8ea-6a4f065e470c"},"geometry":{"type":"Polygon","coordinates":[[[98.289734,7.968878],[98.291044,7.967729],[98.296146,7.967205],[98.298231,7.965861],[98.299386,7.965917],[98.301837,7.966617],[98.304912,7.966155],[98.307184,7.962605],[98.309123,7.962174],[98.310808,7.961022],[98.31198,7.95783],[98.313968,7.955732],[98.314416,7.954874],[98.314587,7.953325],[98.313716,7.949934],[98.313857,7.948401],[98.314629,7.946731],[98.316055,7.944592],[98.316972,7.941933],[98.317227,7.942041],[98.306909,7.933264],[98.298872,7.931394],[98.298834,7.930692],[98.29907,7.930413],[98.297276,7.929996],[98.289604,7.929237],[98.283619,7.927844],[98.282831,7.927462],[98.279352,7.921647],[98.278998,7.921872],[98.280223,7.919576],[98.279714,7.919734],[98.278857,7.920958],[98.279019,7.921772],[98.278865,7.922011],[98.27732,7.921635],[98.275992,7.923145],[98.276231,7.923653],[98.275933,7.92416],[98.273185,7.925189],[98.271485,7.92532],[98.270891,7.924735],[98.27074,7.923213],[98.269301,7.922664],[98.268436,7.923199],[98.267964,7.92428],[98.267895,7.925266],[98.266406,7.925751],[98.264364,7.923929],[98.263361,7.923688],[98.263335,7.923305],[98.262025,7.923344],[98.261933,7.923587],[98.262203,7.9238],[98.263121,7.923938],[98.262686,7.924302],[98.262864,7.924821],[98.262249,7.925586],[98.262324,7.926361],[98.262016,7.926763],[98.262159,7.92729],[98.261178,7.927269],[98.260891,7.927584],[98.260976,7.928283],[98.261378,7.928906],[98.261396,7.929681],[98.262277,7.930918],[98.26225,7.931573],[98.261632,7.932305],[98.261246,7.933309],[98.261565,7.934554],[98.260177,7.93503],[98.259612,7.934426],[98.25918,7.934358],[98.258118,7.934905],[98.25791,7.93539],[98.260826,7.942536],[98.261698,7.943514],[98.262667,7.943755],[98.262301,7.944473],[98.262309,7.945669],[98.26203,7.946032],[98.262249,7.946645],[98.261778,7.947094],[98.262073,7.948349],[98.263176,7.949203],[98.26357,7.949213],[98.263801,7.948534],[98.264234,7.948343],[98.264177,7.947798],[98.264543,7.947444],[98.266165,7.947677],[98.267482,7.946636],[98.268567,7.9468],[98.272625,7.94877],[98.272873,7.949804],[98.273407,7.94992],[98.273766,7.950294],[98.275244,7.950038],[98.275695,7.950412],[98.276453,7.950499],[98.276953,7.950261],[98.277066,7.94945],[98.277327,7.94936],[98.280258,7.95053],[98.281886,7.952536],[98.28243,7.954289],[98.283438,7.959652],[98.283296,7.962117],[98.28301,7.962944],[98.282404,7.963574],[98.281943,7.963689],[98.281291,7.963104],[98.279917,7.963675],[98.279714,7.964671],[98.279348,7.964967],[98.279558,7.965498],[98.278943,7.96578],[98.279173,7.966393],[98.278586,7.966813],[98.27922,7.967082],[98.279545,7.967667],[98.279225,7.969226],[98.278687,7.969503],[98.277055,7.969433],[98.276344,7.970316],[98.277681,7.970349],[98.278965,7.970838],[98.281727,7.97105],[98.284715,7.972216],[98.286535,7.972437],[98.287374,7.972145],[98.288226,7.971353],[98.289734,7.968878]]]},"bbox":[98.25791,7.919576,98.317227,7.972447]},{"type":"Feature","id":"a161ad97-2187-4457-8a81-235e83cfc22f","properties":{"id":"a161ad97-2187-4457-8a81-235e83cfc22f","code":"06830304","provinceCode":"83","nameTh":"องค์การบริหารส่วนตำบล เชิงทะเล","nameEn":null,"geometryType":"MUNICIPALITY","sourceUrl":"https://landometer.com/api/v2/citymeter-v3/grocery/info/geom/a161ad97-2187-4457-8a81-235e83cfc22f/MUNICIPALITY","sourceSha256":"0df200cd0f24eca6c6fe32067151f707855aa647d637a20090ce00d61c9301eb","retrievedAt":"2026-10-04T05:44:30.471862+00:00","boundaryVintage":null,"geometryStatus":"native_source_polygon_display_simplified","simplificationToleranceDegrees":0.00015,"simplificationPreservesTopology":true,"invalidSourceRepair":"make_valid; retain polygonal components; discard zero-area collapsed lines","legalBoundaryIndependentlyVerified":false,"areaId":"a161ad97-2187-4457-8a81-235e83cfc22f"},"geometry":{"type":"MultiPolygon","coordinates":[[[[98.32017,8.003714],[98.317686,7.999549],[98.31797016239014,7.997939879479757],[98.321065,7.995643],[98.319459,7.993646],[98.301566,7.996815],[98.296359,7.991448],[98.296908,7.988025],[98.302717,7.98566],[98.304222,7.982307],[98.306643,7.981716],[98.307104,7.981364],[98.305519,7.981708],[98.31688,7.972638],[98.312805,7.960152],[98.313888,7.955826],[98.31198,7.95783],[98.310808,7.961022],[98.309123,7.962174],[98.307184,7.962605],[98.304912,7.966155],[98.301837,7.966617],[98.29859,7.965797],[98.297914,7.965991],[98.296146,7.967205],[98.291044,7.967729],[98.289734,7.968878],[98.288226,7.971353],[98.287374,7.972145],[98.286535,7.972437],[98.284715,7.972216],[98.281727,7.97105],[98.278965,7.970838],[98.277681,7.970349],[98.276344,7.970316],[98.276851,7.970964],[98.278558,7.972154],[98.277874,7.978758],[98.277576,7.979208],[98.276778,7.979244],[98.27623,7.979665],[98.277112,7.980451],[98.277121,7.980777],[98.276012,7.983445],[98.27435,7.984227],[98.272468,7.984042],[98.272323,7.984377],[98.272715,7.985325],[98.271917,7.986004],[98.271274,7.985888],[98.270121,7.986288],[98.270214,7.987915],[98.271297,7.989114],[98.271681,7.98922],[98.272585,7.988589],[98.273285,7.988763],[98.273651,7.9884],[98.2737,7.987797],[98.274998,7.986784],[98.2771,7.98741],[98.277706,7.986837],[98.277612,7.986033],[98.278217,7.985641],[98.280656,7.985665],[98.281358,7.985159],[98.283885,7.984714],[98.285204,7.985153],[98.287524,7.987263],[98.289813,7.990943],[98.291294,7.995454],[98.292519,8.00344],[98.292408,8.00634],[98.291131,8.017519],[98.289716,8.02482],[98.288104,8.02947],[98.286709,8.030654],[98.283914,8.03147],[98.284172,8.031751],[98.2841,8.032204],[98.284771,8.032845],[98.28545,8.0331],[98.285575,8.033425],[98.284911,8.033875],[98.28365,8.035444],[98.281163,8.035009],[98.280992,8.034367],[98.280608,8.034242],[98.28009,8.033562],[98.278612,8.033358],[98.277016,8.033891],[98.275826,8.033726],[98.275422,8.034291],[98.275651,8.034971],[98.27487,8.036635],[98.273822,8.037303],[98.272419,8.037463],[98.271938,8.03842],[98.271993,8.039904],[98.27222,8.04024],[98.273356,8.040155],[98.274304,8.041449],[98.275938,8.041155],[98.276709,8.042088],[98.276791,8.042496],[98.276459,8.042856],[98.276864,8.043115],[98.276623,8.043278],[98.276822,8.043603],[98.276306,8.044755],[98.277792,8.046011],[98.277955,8.046509],[98.277731,8.048261],[98.276778,8.049073],[98.276971,8.049948],[98.293515,8.048369],[98.298381,8.049488],[98.303045,8.052402],[98.303696,8.048406],[98.303311,8.04323],[98.309071,8.028674],[98.315577,8.017635],[98.313192,8.014999],[98.316791,8.014673],[98.319391,8.0093],[98.320648,8.009239],[98.32017,8.003714]],[[98.31797,7.99794],[98.318104,7.997182],[98.31797016239014,7.997939879479757],[98.31797,7.99794]],[[98.303283,8.042846],[98.308591,8.029849],[98.30858765601975,8.029857474583302],[98.303283,8.042846]]],[[[98.280754,8.031911],[98.283492,8.031902],[98.284216,8.030638],[98.283611,8.029724],[98.282937,8.029321],[98.280518,8.029217],[98.279869,8.029741],[98.279847,8.030871],[98.280754,8.031911]]]]},"bbox":[98.270015,7.955826,98.321065,8.052402]},{"type":"Feature","id":"2b2c3166-c603-45f6-9f8d-be900eadc42b","properties":{"id":"2b2c3166-c603-45f6-9f8d-be900eadc42b","code":"06830305","provinceCode":"83","nameTh":"องค์การบริหารส่วนตำบล เทพกระษัตรี","nameEn":null,"geometryType":"MUNICIPALITY","sourceUrl":"https://landometer.com/api/v2/citymeter-v3/grocery/info/geom/2b2c3166-c603-45f6-9f8d-be900eadc42b/MUNICIPALITY","sourceSha256":"566c85ecc09ed9347e66bdb9184d8e9d2ed571b005e50437370e3a1270a9ecbb","retrievedAt":"2026-10-04T05:44:30.471744+00:00","boundaryVintage":null,"geometryStatus":"native_source_polygon_display_simplified","simplificationToleranceDegrees":0.00015,"simplificationPreservesTopology":true,"invalidSourceRepair":"make_valid; retain polygonal components; discard zero-area collapsed lines","legalBoundaryIndependentlyVerified":false,"areaId":"2b2c3166-c603-45f6-9f8d-be900eadc42b"},"geometry":{"type":"Polygon","coordinates":[[[98.365337,8.074428],[98.366559,8.069089],[98.371139,8.063497],[98.380016,8.060344],[98.380555,8.056982],[98.388614,8.046998],[98.389535,8.044282],[98.385043,8.037038],[98.38277,8.026309],[98.370678,8.026546],[98.36446,8.023868],[98.352448,8.023591],[98.347431,8.019727],[98.342819,8.025993],[98.341546,8.031017],[98.343351,8.037634],[98.328443,8.040905],[98.32447,8.034567],[98.321721,8.033612],[98.321948,8.029287],[98.317605,8.027419],[98.316769,8.02555],[98.324751,8.024953],[98.332196,8.017126],[98.332771,8.017392],[98.332035,8.016964],[98.327471,8.009671],[98.319391,8.0093],[98.316791,8.014673],[98.313192,8.014999],[98.315577,8.017635],[98.309071,8.028674],[98.303311,8.04323],[98.303696,8.048406],[98.303045,8.052402],[98.30827,8.055665],[98.309832,8.07502],[98.317632,8.080303],[98.319652,8.082635],[98.321549,8.084087],[98.329379,8.093807],[98.340165,8.099283],[98.349015,8.112627],[98.350304,8.116854],[98.352589,8.118571],[98.353396,8.118085],[98.353934,8.118113],[98.353981,8.117919],[98.353273,8.117185],[98.352775,8.117171],[98.352535,8.116069],[98.350957,8.116252],[98.350823,8.115684],[98.352284,8.115275],[98.350863,8.115414],[98.350895,8.115051],[98.350561,8.114998],[98.350519,8.114488],[98.351867,8.114018],[98.351454,8.112962],[98.355096,8.111963],[98.355351,8.112322],[98.356213,8.11243],[98.356902,8.113393],[98.357665,8.113451],[98.358342,8.113149],[98.358642,8.11364],[98.359232,8.11384],[98.360296,8.113205],[98.360639,8.114332],[98.361071,8.114391],[98.361031,8.114841],[98.361881,8.115477],[98.362335,8.115285],[98.362604,8.115495],[98.364652,8.117441],[98.366984,8.120167],[98.367902,8.120611],[98.369078,8.120748],[98.370228,8.120407],[98.373585,8.118553],[98.375445,8.115824],[98.374937,8.114155],[98.374289,8.114123],[98.374067,8.112794],[98.373352,8.111734],[98.373725,8.109222],[98.375702,8.102524],[98.375401,8.101862],[98.375583,8.100968],[98.37507,8.099612],[98.375732,8.099241],[98.376312,8.099359],[98.37739,8.098339],[98.379497,8.094584],[98.364466,8.082091],[98.368549,8.077423],[98.365337,8.074428]]]},"bbox":[98.303045,8.009239,98.389535,8.120748]},{"type":"Feature","id":"040b46ba-4767-4ef1-b9e6-268f05cb3ade","properties":{"id":"040b46ba-4767-4ef1-b9e6-268f05cb3ade","code":"06830306","provinceCode":"83","nameTh":"องค์การบริหารส่วนตำบล ไม้ขาว","nameEn":null,"geometryType":"MUNICIPALITY","sourceUrl":"https://landometer.com/api/v2/citymeter-v3/grocery/info/geom/040b46ba-4767-4ef1-b9e6-268f05cb3ade/MUNICIPALITY","sourceSha256":"ededf5a5c9eef0a39e3ff9cce33b77d74ae27fa7e7b21575d3c5469ff349056f","retrievedAt":"2026-10-04T05:44:30.655918+00:00","boundaryVintage":null,"geometryStatus":"native_source_polygon_display_simplified","simplificationToleranceDegrees":0.00015,"simplificationPreservesTopology":true,"invalidSourceRepair":"make_valid; retain polygonal components; discard zero-area collapsed lines","legalBoundaryIndependentlyVerified":false,"areaId":"040b46ba-4767-4ef1-b9e6-268f05cb3ade"},"geometry":{"type":"MultiPolygon","coordinates":[[[[98.299789,8.102467],[98.300866,8.104736],[98.301277,8.106239],[98.301702,8.109916],[98.301906,8.114616],[98.301104,8.122474],[98.299766,8.13011],[98.2978,8.139153],[98.296805,8.147967],[98.295407,8.155891],[98.293442,8.164656],[98.288512,8.184814],[98.286079,8.192064],[98.284275,8.195346],[98.283861,8.196684],[98.286009,8.19995],[98.287139,8.199952],[98.288269,8.199401],[98.292472,8.200253],[98.293279,8.199358],[98.295591,8.19907],[98.296685,8.199535],[98.297386,8.200333],[98.297538,8.200265],[98.297305,8.199407],[98.297525,8.199168],[98.298991,8.19862],[98.30058,8.198464],[98.301069,8.19792],[98.301851,8.197704],[98.302105,8.196892],[98.302075,8.196212],[98.301753,8.196054],[98.300992,8.193783],[98.298438,8.192982],[98.298531,8.192514],[98.299019,8.192096],[98.298894,8.191576],[98.298416,8.19124],[98.298458,8.190897],[98.299845,8.190857],[98.30161,8.191631],[98.303128,8.193334],[98.30524,8.192534],[98.307893,8.189682],[98.30866,8.188134],[98.308519,8.187413],[98.307905,8.187362],[98.308537,8.186785],[98.309226,8.18656],[98.309562,8.18708],[98.312302,8.186976],[98.31258,8.187144],[98.314503,8.186685],[98.31616,8.185741],[98.317274,8.184126],[98.318312,8.183118],[98.319952,8.182727],[98.320224,8.180683],[98.32163,8.179513],[98.321639,8.179011],[98.322304,8.178317],[98.323566,8.178025],[98.32461,8.177265],[98.327294,8.17582],[98.327641,8.175825],[98.328489,8.175027],[98.329447,8.175154],[98.329876,8.174878],[98.330491,8.173891],[98.332612,8.172269],[98.335176,8.172307],[98.336772,8.172988],[98.337021,8.172893],[98.338467,8.170372],[98.339201,8.16857],[98.339066,8.163561],[98.339419,8.161957],[98.340056,8.162005],[98.340338,8.161703],[98.341099,8.159418],[98.341362,8.157634],[98.34069,8.155043],[98.340666,8.15136],[98.341081,8.149978],[98.341421,8.147382],[98.342402,8.14507],[98.343008,8.145067],[98.343906,8.144354],[98.347003,8.144173],[98.347599,8.143439],[98.347653,8.141545],[98.348009,8.140996],[98.347691,8.137207],[98.347004,8.136058],[98.346076,8.135489],[98.345631,8.135646],[98.345673,8.136208],[98.345258,8.136277],[98.345434,8.134596],[98.345712,8.13449],[98.345297,8.129268],[98.345963,8.125686],[98.345731,8.125217],[98.346316,8.125032],[98.3462,8.122221],[98.347382,8.122069],[98.351154,8.125614],[98.353359,8.125465],[98.353983,8.124192],[98.35397,8.121805],[98.353778,8.121118],[98.3529,8.120724],[98.352585,8.120321],[98.35241,8.119349],[98.352589,8.118571],[98.350304,8.116854],[98.349015,8.112627],[98.340165,8.099283],[98.329294,8.093763],[98.32707,8.103538],[98.307561,8.105416],[98.30721,8.101149],[98.299789,8.102467]]],[[[98.356025,8.130852],[98.355921,8.131345],[98.356648,8.131906],[98.356584,8.131301],[98.356025,8.130852]]],[[[98.359068,8.136273],[98.358873,8.135545],[98.358772,8.135535],[98.358769,8.135844],[98.359068,8.136273]]]]},"bbox":[98.283861,8.093763,98.359072,8.200333]},{"type":"Feature","id":"55850ea4-43e0-4161-bff2-b335b6b0ed52","properties":{"id":"55850ea4-43e0-4161-bff2-b335b6b0ed52","code":"06830307","provinceCode":"83","nameTh":"องค์การบริหารส่วนตำบล สาคู","nameEn":null,"geometryType":"MUNICIPALITY","sourceUrl":"https://landometer.com/api/v2/citymeter-v3/grocery/info/geom/55850ea4-43e0-4161-bff2-b335b6b0ed52/MUNICIPALITY","sourceSha256":"c366420233c8e6f959f826b3d47c57015f0a59a278a72812538c2563bb5d8c20","retrievedAt":"2026-10-04T05:44:30.652873+00:00","boundaryVintage":null,"geometryStatus":"native_source_polygon_display_simplified","simplificationToleranceDegrees":0.00015,"simplificationPreservesTopology":true,"invalidSourceRepair":"make_valid; retain polygonal components; discard zero-area collapsed lines","legalBoundaryIndependentlyVerified":false,"areaId":"55850ea4-43e0-4161-bff2-b335b6b0ed52"},"geometry":{"type":"MultiPolygon","coordinates":[[[[98.276971,8.049947],[98.276971,8.049947379310339],[98.276998,8.049858],[98.276971,8.049947]]],[[[98.293515,8.048369],[98.276971,8.049947379310339],[98.276093,8.051254],[98.276053,8.051934],[98.27752,8.053171],[98.277759,8.05366],[98.277551,8.057345],[98.276572,8.062531],[98.275774,8.062798],[98.275235,8.063582],[98.274351,8.063714],[98.272552,8.065415],[98.271964,8.066505],[98.272137,8.066774],[98.271724,8.066687],[98.271587,8.06796],[98.270943,8.068064],[98.270789,8.068312],[98.27095,8.069777],[98.270852,8.070533],[98.270428,8.071289],[98.27083,8.07241],[98.270923,8.074161],[98.270662,8.074821],[98.271534,8.076268],[98.27137,8.076661],[98.272529,8.078328],[98.273076,8.078712],[98.274871,8.079003],[98.27541,8.078592],[98.275756,8.078688],[98.276953,8.080289],[98.277549,8.080146],[98.278787,8.080847],[98.280045,8.080964],[98.281531,8.08248],[98.283212,8.082693],[98.284457,8.084399],[98.285811,8.084737],[98.286588,8.085379],[98.28727,8.085045],[98.287187,8.083313],[98.287755,8.082806],[98.288456,8.082607],[98.290644,8.083222],[98.292888,8.085941],[98.296352,8.087938],[98.297453,8.089835],[98.297969,8.091578],[98.298282,8.093924],[98.298281,8.094575],[98.297662,8.096507],[98.296574,8.098477],[98.297138,8.100087],[98.297952,8.101409],[98.298941,8.101765],[98.299789,8.102467],[98.30721,8.101149],[98.307561,8.105416],[98.32707,8.103538],[98.329379,8.093807],[98.321549,8.084087],[98.319652,8.082635],[98.317632,8.080303],[98.309832,8.07502],[98.30827,8.055665],[98.298381,8.049488],[98.293515,8.048369]]]]},"bbox":[98.270428,8.048369,98.329379,8.105416]}]}
